{"id":"way/268496443","address":"Ganību iela 4, Carnikava, Carnikavas pag., Ādažu nov.","properties":{"addr:street":"Ganību iela","addr:housenumber":"4","addr:city":"Carnikava","addr:postcode":"LV-2163","addr:subdistrict":"Carnikavas pagasts","addr:district":"Ādažu novads","addr:country":"LV","ref:LV:addr":"106992320"},"geometry":{"type":"Polygon","coordinates":[[[24.2503525,57.1280812],[24.25019,57.1277678],[24.2505728,57.1277091],[24.2507353,57.1280225],[24.2503525,57.1280812]]]},"offers":[{"connectionType":"Mobile (4G/5G)","originalTitle":"Mobilais Internets","speed":null,"features":["4G un 5G bezvadu tehnoloģija;","bezmaksas iekārtas uz pakalpojuma lietošanas laiku;","neierobežots mobilo datu apjoms;","vienkārši uzstādīt un ērti paņemt līdzi."],"techInfo":null,"pricePerMonthEur":23.5,"currency":"EUR","terms":null,"promotion":false,"contractTermMonths":0,"promotionCode":null},{"connectionType":"Mobile (4G/5G)","originalTitle":"Mobilais Internets","speed":null,"features":["4G un 5G bezvadu tehnoloģija;","bezmaksas iekārtas uz pakalpojuma lietošanas laiku;","neierobežots mobilo datu apjoms;","vienkārši uzstādīt un ērti paņemt līdzi."],"techInfo":null,"pricePerMonthEur":17.5,"currency":"EUR","terms":["Līgums uz 24 mēnešiem","Jauniem. 4G internets par 16.99 EUR ar 12 mēn. līg., 22-2/2022/818"],"promotion":true,"contractTermMonths":24,"promotionCode":"PROMO_4G_INTERNET_24M_818"}],"scrapedAt":"2025-08-28T23:23:39.214Z","source":"api"}
{"id":"way/268497108","address":"Vētru iela 27, Carnikava, Carnikavas pag., Ādažu nov.","properties":{"addr:street":"Vētru iela","addr:housenumber":"27","addr:city":"Carnikava","addr:postcode":"LV-2163","addr:subdistrict":"Carnikavas pagasts","addr:district":"Ādažu novads","addr:country":"LV","ref:LV:addr":"106573400"},"geometry":{"type":"Polygon","coordinates":[[[24.2504349,57.1264128],[24.2504342,57.1263189],[24.2505349,57.1263187],[24.2505355,57.1264126],[24.2504349,57.1264128]]]},"offers":[{"connectionType":"Mobile (4G/5G)","originalTitle":"Mobilais Internets","speed":null,"features":["4G un 5G bezvadu tehnoloģija;","bezmaksas iekārtas uz pakalpojuma lietošanas laiku;","neierobežots mobilo datu apjoms;","vienkārši uzstādīt un ērti paņemt līdzi."],"techInfo":null,"pricePerMonthEur":23.5,"currency":"EUR","terms":null,"promotion":false,"contractTermMonths":0,"promotionCode":null},{"connectionType":"Mobile (4G/5G)","originalTitle":"Mobilais Internets","speed":null,"features":["4G un 5G bezvadu tehnoloģija;","bezmaksas iekārtas uz pakalpojuma lietošanas laiku;","neierobežots mobilo datu apjoms;","vienkārši uzstādīt un ērti paņemt līdzi."],"techInfo":null,"pricePerMonthEur":17.5,"currency":"EUR","terms":["Līgums uz 24 mēnešiem","Jauniem. 4G internets par 16.99 EUR ar 12 mēn. līg., 22-2/2022/818"],"promotion":true,"contractTermMonths":24,"promotionCode":"PROMO_4G_INTERNET_24M_818"}],"scrapedAt":"2025-08-28T23:24:01.741Z","source":"api"}
{"id":"way/268501397","address":"Ganību iela 12, Carnikava, Carnikavas pag., Ādažu nov.","properties":{"addr:street":"Ganību iela","addr:housenumber":"12","addr:city":"Carnikava","addr:postcode":"LV-2163","addr:subdistrict":"Carnikavas pagasts","addr:district":"Ādažu novads","addr:country":"LV","ref:LV:addr":"106992337"},"geometry":{"type":"Polygon","coordinates":[[[24.2503862,57.1275335],[24.2503205,57.127381],[24.2505199,57.1273556],[24.2505365,57.1273941],[24.250664,57.1273779],[24.2507131,57.1274918],[24.2503862,57.1275335]]]},"offers":[{"connectionType":"Mobile (4G/5G)","originalTitle":"Mobilais Internets","speed":null,"features":["4G un 5G bezvadu tehnoloģija;","bezmaksas iekārtas uz pakalpojuma lietošanas laiku;","neierobežots mobilo datu apjoms;","vienkārši uzstādīt un ērti paņemt līdzi."],"techInfo":null,"pricePerMonthEur":23.5,"currency":"EUR","terms":null,"promotion":false,"contractTermMonths":0,"promotionCode":null},{"connectionType":"Mobile (4G/5G)","originalTitle":"Mobilais Internets","speed":null,"features":["4G un 5G bezvadu tehnoloģija;","bezmaksas iekārtas uz pakalpojuma lietošanas laiku;","neierobežots mobilo datu apjoms;","vienkārši uzstādīt un ērti paņemt līdzi."],"techInfo":null,"pricePerMonthEur":17.5,"currency":"EUR","terms":["Līgums uz 24 mēnešiem","Jauniem. 4G internets par 16.99 EUR ar 12 mēn. līg., 22-2/2022/818"],"promotion":true,"contractTermMonths":24,"promotionCode":"PROMO_4G_INTERNET_24M_818"}],"scrapedAt":"2025-08-28T23:25:44.726Z","source":"api"}
{"id":"node/9885024799","address":"Dārznieku iela 23, Carnikava, Carnikavas pag., Ādažu nov.","properties":{"addr:street":"Dārznieku iela","addr:housenumber":"23","addr:city":"Carnikava","addr:postcode":"LV-2163","addr:subdistrict":"Carnikavas pagasts","addr:district":"Ādažu novads","addr:country":"LV","ref:LV:addr":"106681817"},"geometry":{"type":"Point","coordinates":[24.2525573,57.1282823]},"offers":[{"connectionType":"Mobile (4G/5G)","originalTitle":"Mobilais Internets","speed":null,"features":["4G un 5G bezvadu tehnoloģija;","bezmaksas iekārtas uz pakalpojuma lietošanas laiku;","neierobežots mobilo datu apjoms;","vienkārši uzstādīt un ērti paņemt līdzi."],"techInfo":null,"pricePerMonthEur":23.5,"currency":"EUR","terms":null,"promotion":false,"contractTermMonths":0,"promotionCode":null},{"connectionType":"Mobile (4G/5G)","originalTitle":"Mobilais Internets","speed":null,"features":["4G un 5G bezvadu tehnoloģija;","bezmaksas iekārtas uz pakalpojuma lietošanas laiku;","neierobežots mobilo datu apjoms;","vienkārši uzstādīt un ērti paņemt līdzi."],"techInfo":null,"pricePerMonthEur":17.5,"currency":"EUR","terms":["Līgums uz 24 mēnešiem","Jauniem. 4G internets par 16.99 EUR ar 12 mēn. līg., 22-2/2022/818"],"promotion":true,"contractTermMonths":24,"promotionCode":"PROMO_4G_INTERNET_24M_818"}],"scrapedAt":"2025-08-28T23:26:38.114Z","source":"api"}
{"id":"node/9885024798","address":"Dārznieku iela 25, Carnikava, Carnikavas pag., Ādažu nov.","properties":{"addr:street":"Dārznieku iela","addr:housenumber":"25","addr:city":"Carnikava","addr:postcode":"LV-2163","addr:subdistrict":"Carnikavas pagasts","addr:district":"Ādažu novads","addr:country":"LV","ref:LV:addr":"106681825"},"geometry":{"type":"Point","coordinates":[24.2521638,57.1284907]},"offers":[{"connectionType":"Mobile (4G/5G)","originalTitle":"Mobilais Internets","speed":null,"features":["4G un 5G bezvadu tehnoloģija;","bezmaksas iekārtas uz pakalpojuma lietošanas laiku;","neierobežots mobilo datu apjoms;","vienkārši uzstādīt un ērti paņemt līdzi."],"techInfo":null,"pricePerMonthEur":23.5,"currency":"EUR","terms":null,"promotion":false,"contractTermMonths":0,"promotionCode":null},{"connectionType":"Mobile (4G/5G)","originalTitle":"Mobilais Internets","speed":null,"features":["4G un 5G bezvadu tehnoloģija;","bezmaksas iekārtas uz pakalpojuma lietošanas laiku;","neierobežots mobilo datu apjoms;","vienkārši uzstādīt un ērti paņemt līdzi."],"techInfo":null,"pricePerMonthEur":17.5,"currency":"EUR","terms":["Līgums uz 24 mēnešiem","Jauniem. 4G internets par 16.99 EUR ar 12 mēn. līg., 22-2/2022/818"],"promotion":true,"contractTermMonths":24,"promotionCode":"PROMO_4G_INTERNET_24M_818"}],"scrapedAt":"2025-08-28T23:26:38.437Z","source":"api"}
{"id":"node/9885024813","address":"Dārznieku iela 27, Carnikava, Carnikavas pag., Ādažu nov.","properties":{"addr:street":"Dārznieku iela","addr:housenumber":"27","addr:city":"Carnikava","addr:postcode":"LV-2163","addr:subdistrict":"Carnikavas pagasts","addr:district":"Ādažu novads","addr:country":"LV","ref:LV:addr":"106815426"},"geometry":{"type":"Point","coordinates":[24.2512496,57.1286081]},"offers":[{"connectionType":"Mobile (4G/5G)","originalTitle":"Mobilais Internets","speed":null,"features":["4G un 5G bezvadu tehnoloģija;","bezmaksas iekārtas uz pakalpojuma lietošanas laiku;","neierobežots mobilo datu apjoms;","vienkārši uzstādīt un ērti paņemt līdzi."],"techInfo":null,"pricePerMonthEur":23.5,"currency":"EUR","terms":null,"promotion":false,"contractTermMonths":0,"promotionCode":null},{"connectionType":"Mobile (4G/5G)","originalTitle":"Mobilais Internets","speed":null,"features":["4G un 5G bezvadu tehnoloģija;","bezmaksas iekārtas uz pakalpojuma lietošanas laiku;","neierobežots mobilo datu apjoms;","vienkārši uzstādīt un ērti paņemt līdzi."],"techInfo":null,"pricePerMonthEur":17.5,"currency":"EUR","terms":["Līgums uz 24 mēnešiem","Jauniem. 4G internets par 16.99 EUR ar 12 mēn. līg., 22-2/2022/818"],"promotion":true,"contractTermMonths":24,"promotionCode":"PROMO_4G_INTERNET_24M_818"}],"scrapedAt":"2025-08-28T23:26:39.503Z","source":"api"}
{"id":"node/9885024828","address":"Vētru iela 18, Carnikava, Carnikavas pag., Ādažu nov.","properties":{"addr:street":"Vētru iela","addr:housenumber":"18","addr:city":"Carnikava","addr:postcode":"LV-2163","addr:subdistrict":"Carnikavas pagasts","addr:district":"Ādažu novads","addr:country":"LV","ref:LV:addr":"105570746"},"geometry":{"type":"Point","coordinates":[24.2529394,57.1263495]},"offers":[{"connectionType":"Mobile (4G/5G)","originalTitle":"Mobilais Internets","speed":null,"features":["4G un 5G bezvadu tehnoloģija;","bezmaksas iekārtas uz pakalpojuma lietošanas laiku;","neierobežots mobilo datu apjoms;","vienkārši uzstādīt un ērti paņemt līdzi."],"techInfo":null,"pricePerMonthEur":23.5,"currency":"EUR","terms":null,"promotion":false,"contractTermMonths":0,"promotionCode":null},{"connectionType":"Mobile (4G/5G)","originalTitle":"Mobilais Internets","speed":null,"features":["4G un 5G bezvadu tehnoloģija;","bezmaksas iekārtas uz pakalpojuma lietošanas laiku;","neierobežots mobilo datu apjoms;","vienkārši uzstādīt un ērti paņemt līdzi."],"techInfo":null,"pricePerMonthEur":17.5,"currency":"EUR","terms":["Līgums uz 24 mēnešiem","Jauniem. 4G internets par 16.99 EUR ar 12 mēn. līg., 22-2/2022/818"],"promotion":true,"contractTermMonths":24,"promotionCode":"PROMO_4G_INTERNET_24M_818"}],"scrapedAt":"2025-08-28T23:26:39.602Z","source":"api"}
{"id":"node/9885024819","address":"Vētru iela 20, Carnikava, Carnikavas pag., Ādažu nov.","properties":{"addr:street":"Vētru iela","addr:housenumber":"20","addr:city":"Carnikava","addr:postcode":"LV-2163","addr:subdistrict":"Carnikavas pagasts","addr:district":"Ādažu novads","addr:country":"LV","ref:LV:addr":"105570754"},"geometry":{"type":"Point","coordinates":[24.2522403,57.1268636]},"offers":[{"connectionType":"Mobile (4G/5G)","originalTitle":"Mobilais Internets","speed":null,"features":["4G un 5G bezvadu tehnoloģija;","bezmaksas iekārtas uz pakalpojuma lietošanas laiku;","neierobežots mobilo datu apjoms;","vienkārši uzstādīt un ērti paņemt līdzi."],"techInfo":null,"pricePerMonthEur":23.5,"currency":"EUR","terms":null,"promotion":false,"contractTermMonths":0,"promotionCode":null},{"connectionType":"Mobile (4G/5G)","originalTitle":"Mobilais Internets","speed":null,"features":["4G un 5G bezvadu tehnoloģija;","bezmaksas iekārtas uz pakalpojuma lietošanas laiku;","neierobežots mobilo datu apjoms;","vienkārši uzstādīt un ērti paņemt līdzi."],"techInfo":null,"pricePerMonthEur":17.5,"currency":"EUR","terms":["Līgums uz 24 mēnešiem","Jauniem. 4G internets par 16.99 EUR ar 12 mēn. līg., 22-2/2022/818"],"promotion":true,"contractTermMonths":24,"promotionCode":"PROMO_4G_INTERNET_24M_818"}],"scrapedAt":"2025-08-28T23:26:39.755Z","source":"api"}
{"id":"node/9885024836","address":"Ganību iela 2, Carnikava, Carnikavas pag., Ādažu nov.","properties":{"addr:street":"Ganību iela","addr:housenumber":"2","addr:city":"Carnikava","addr:postcode":"LV-2163","addr:subdistrict":"Carnikavas pagasts","addr:district":"Ādažu novads","addr:country":"LV","ref:LV:addr":"106816725"},"geometry":{"type":"Point","coordinates":[24.2508247,57.1282872]},"offers":[{"connectionType":"Mobile (4G/5G)","originalTitle":"Mobilais Internets","speed":null,"features":["4G un 5G bezvadu tehnoloģija;","bezmaksas iekārtas uz pakalpojuma lietošanas laiku;","neierobežots mobilo datu apjoms;","vienkārši uzstādīt un ērti paņemt līdzi."],"techInfo":null,"pricePerMonthEur":23.5,"currency":"EUR","terms":null,"promotion":false,"contractTermMonths":0,"promotionCode":null},{"connectionType":"Mobile (4G/5G)","originalTitle":"Mobilais Internets","speed":null,"features":["4G un 5G bezvadu tehnoloģija;","bezmaksas iekārtas uz pakalpojuma lietošanas laiku;","neierobežots mobilo datu apjoms;","vienkārši uzstādīt un ērti paņemt līdzi."],"techInfo":null,"pricePerMonthEur":17.5,"currency":"EUR","terms":["Līgums uz 24 mēnešiem","Jauniem. 4G internets par 16.99 EUR ar 12 mēn. līg., 22-2/2022/818"],"promotion":true,"contractTermMonths":24,"promotionCode":"PROMO_4G_INTERNET_24M_818"}],"scrapedAt":"2025-08-28T23:26:39.806Z","source":"api"}
{"id":"node/9885026615","address":"Dārznieku iela 29, Carnikava, Carnikavas pag., Ādažu nov.","properties":{"addr:street":"Dārznieku iela","addr:housenumber":"29","addr:city":"Carnikava","addr:postcode":"LV-2163","addr:subdistrict":"Carnikavas pagasts","addr:district":"Ādažu novads","addr:country":"LV","ref:LV:addr":"106815434"},"geometry":{"type":"Point","coordinates":[24.2507716,57.1287157]},"offers":[{"connectionType":"Mobile (4G/5G)","originalTitle":"Mobilais Internets","speed":null,"features":["4G un 5G bezvadu tehnoloģija;","bezmaksas iekārtas uz pakalpojuma lietošanas laiku;","neierobežots mobilo datu apjoms;","vienkārši uzstādīt un ērti paņemt līdzi."],"techInfo":null,"pricePerMonthEur":23.5,"currency":"EUR","terms":null,"promotion":false,"contractTermMonths":0,"promotionCode":null},{"connectionType":"Mobile (4G/5G)","originalTitle":"Mobilais Internets","speed":null,"features":["4G un 5G bezvadu tehnoloģija;","bezmaksas iekārtas uz pakalpojuma lietošanas laiku;","neierobežots mobilo datu apjoms;","vienkārši uzstādīt un ērti paņemt līdzi."],"techInfo":null,"pricePerMonthEur":17.5,"currency":"EUR","terms":["Līgums uz 24 mēnešiem","Jauniem. 4G internets par 16.99 EUR ar 12 mēn. līg., 22-2/2022/818"],"promotion":true,"contractTermMonths":24,"promotionCode":"PROMO_4G_INTERNET_24M_818"}],"scrapedAt":"2025-08-28T23:27:11.270Z","source":"api"}
{"id":"node/10253522231","address":"Vētru iela 23, Carnikava, Carnikavas pag., Ādažu nov.","properties":{"addr:street":"Vētru iela","addr:housenumber":"23","addr:city":"Carnikava","addr:postcode":"LV-2163","addr:subdistrict":"Carnikavas pagasts","addr:district":"Ādažu novads","addr:country":"LV","ref:LV:addr":"106966071"},"geometry":{"type":"Point","coordinates":[24.2494025,57.1254582]},"offers":[{"connectionType":"Mobile (4G/5G)","originalTitle":"Mobilais Internets","speed":null,"features":["4G un 5G bezvadu tehnoloģija;","bezmaksas iekārtas uz pakalpojuma lietošanas laiku;","neierobežots mobilo datu apjoms;","vienkārši uzstādīt un ērti paņemt līdzi."],"techInfo":null,"pricePerMonthEur":23.5,"currency":"EUR","terms":null,"promotion":false,"contractTermMonths":0,"promotionCode":null},{"connectionType":"Mobile (4G/5G)","originalTitle":"Mobilais Internets","speed":null,"features":["4G un 5G bezvadu tehnoloģija;","bezmaksas iekārtas uz pakalpojuma lietošanas laiku;","neierobežots mobilo datu apjoms;","vienkārši uzstādīt un ērti paņemt līdzi."],"techInfo":null,"pricePerMonthEur":17.5,"currency":"EUR","terms":["Līgums uz 24 mēnešiem","Jauniem. 4G internets par 16.99 EUR ar 12 mēn. līg., 22-2/2022/818"],"promotion":true,"contractTermMonths":24,"promotionCode":"PROMO_4G_INTERNET_24M_818"}],"scrapedAt":"2025-08-28T23:28:04.502Z","source":"api"}
{"id":"node/10253522232","address":"Vētru iela 21, Carnikava, Carnikavas pag., Ādažu nov.","properties":{"addr:street":"Vētru iela","addr:housenumber":"21","addr:city":"Carnikava","addr:postcode":"LV-2163","addr:subdistrict":"Carnikavas pagasts","addr:district":"Ādažu novads","addr:country":"LV","ref:LV:addr":"106966063"},"geometry":{"type":"Point","coordinates":[24.2505593,57.1252917]},"offers":[{"connectionType":"Mobile (4G/5G)","originalTitle":"Mobilais Internets","speed":null,"features":["4G un 5G bezvadu tehnoloģija;","bezmaksas iekārtas uz pakalpojuma lietošanas laiku;","neierobežots mobilo datu apjoms;","vienkārši uzstādīt un ērti paņemt līdzi."],"techInfo":null,"pricePerMonthEur":23.5,"currency":"EUR","terms":null,"promotion":false,"contractTermMonths":0,"promotionCode":null},{"connectionType":"Mobile (4G/5G)","originalTitle":"Mobilais Internets","speed":null,"features":["4G un 5G bezvadu tehnoloģija;","bezmaksas iekārtas uz pakalpojuma lietošanas laiku;","neierobežots mobilo datu apjoms;","vienkārši uzstādīt un ērti paņemt līdzi."],"techInfo":null,"pricePerMonthEur":17.5,"currency":"EUR","terms":["Līgums uz 24 mēnešiem","Jauniem. 4G internets par 16.99 EUR ar 12 mēn. līg., 22-2/2022/818"],"promotion":true,"contractTermMonths":24,"promotionCode":"PROMO_4G_INTERNET_24M_818"}],"scrapedAt":"2025-08-28T23:28:04.515Z","source":"api"}
{"id":"node/12441606812","address":"Vētru iela 10A, Carnikava, Carnikavas pag., Ādažu nov.","properties":{"addr:street":"Vētru iela","addr:housenumber":"10A","addr:city":"Carnikava","addr:postcode":"LV-2163","addr:subdistrict":"Carnikavas pagasts","addr:district":"Ādažu novads","addr:country":"LV","ref:LV:addr":"107036403"},"geometry":{"type":"Point","coordinates":[24.2519564,57.1256147]},"offers":[{"connectionType":"Mobile (4G/5G)","originalTitle":"Mobilais Internets","speed":null,"features":["4G un 5G bezvadu tehnoloģija;","bezmaksas iekārtas uz pakalpojuma lietošanas laiku;","neierobežots mobilo datu apjoms;","vienkārši uzstādīt un ērti paņemt līdzi."],"techInfo":null,"pricePerMonthEur":23.5,"currency":"EUR","terms":null,"promotion":false,"contractTermMonths":0,"promotionCode":null},{"connectionType":"Mobile (4G/5G)","originalTitle":"Mobilais Internets","speed":null,"features":["4G un 5G bezvadu tehnoloģija;","bezmaksas iekārtas uz pakalpojuma lietošanas laiku;","neierobežots mobilo datu apjoms;","vienkārši uzstādīt un ērti paņemt līdzi."],"techInfo":null,"pricePerMonthEur":17.5,"currency":"EUR","terms":["Līgums uz 24 mēnešiem","Jauniem. 4G internets par 16.99 EUR ar 12 mēn. līg., 22-2/2022/818"],"promotion":true,"contractTermMonths":24,"promotionCode":"PROMO_4G_INTERNET_24M_818"}],"scrapedAt":"2025-08-28T23:28:05.511Z","source":"api"}
{"id":"node/12441606811","address":"Vētru iela 16B, Carnikava, Carnikavas pag., Ādažu nov.","properties":{"addr:street":"Vētru iela","addr:housenumber":"16B","addr:city":"Carnikava","addr:postcode":"LV-2163","addr:subdistrict":"Carnikavas pagasts","addr:district":"Ādažu novads","addr:country":"LV","ref:LV:addr":"107036411"},"geometry":{"type":"Point","coordinates":[24.2525496,57.1260055]},"offers":[{"connectionType":"Mobile (4G/5G)","originalTitle":"Mobilais Internets","speed":null,"features":["4G un 5G bezvadu tehnoloģija;","bezmaksas iekārtas uz pakalpojuma lietošanas laiku;","neierobežots mobilo datu apjoms;","vienkārši uzstādīt un ērti paņemt līdzi."],"techInfo":null,"pricePerMonthEur":23.5,"currency":"EUR","terms":null,"promotion":false,"contractTermMonths":0,"promotionCode":null},{"connectionType":"Mobile (4G/5G)","originalTitle":"Mobilais Internets","speed":null,"features":["4G un 5G bezvadu tehnoloģija;","bezmaksas iekārtas uz pakalpojuma lietošanas laiku;","neierobežots mobilo datu apjoms;","vienkārši uzstādīt un ērti paņemt līdzi."],"techInfo":null,"pricePerMonthEur":17.5,"currency":"EUR","terms":["Līgums uz 24 mēnešiem","Jauniem. 4G internets par 16.99 EUR ar 12 mēn. līg., 22-2/2022/818"],"promotion":true,"contractTermMonths":24,"promotionCode":"PROMO_4G_INTERNET_24M_818"}],"scrapedAt":"2025-08-28T23:28:05.581Z","source":"api"}
{"id":"node/12441606813","address":"Vētru iela 16A, Carnikava, Carnikavas pag., Ādažu nov.","properties":{"addr:street":"Vētru iela","addr:housenumber":"16A","addr:city":"Carnikava","addr:postcode":"LV-2163","addr:subdistrict":"Carnikavas pagasts","addr:district":"Ādažu novads","addr:country":"LV","ref:LV:addr":"107036397"},"geometry":{"type":"Point","coordinates":[24.252009,57.1262224]},"offers":[{"connectionType":"Mobile (4G/5G)","originalTitle":"Mobilais Internets","speed":null,"features":["4G un 5G bezvadu tehnoloģija;","bezmaksas iekārtas uz pakalpojuma lietošanas laiku;","neierobežots mobilo datu apjoms;","vienkārši uzstādīt un ērti paņemt līdzi."],"techInfo":null,"pricePerMonthEur":23.5,"currency":"EUR","terms":null,"promotion":false,"contractTermMonths":0,"promotionCode":null},{"connectionType":"Mobile (4G/5G)","originalTitle":"Mobilais Internets","speed":null,"features":["4G un 5G bezvadu tehnoloģija;","bezmaksas iekārtas uz pakalpojuma lietošanas laiku;","neierobežots mobilo datu apjoms;","vienkārši uzstādīt un ērti paņemt līdzi."],"techInfo":null,"pricePerMonthEur":17.5,"currency":"EUR","terms":["Līgums uz 24 mēnešiem","Jauniem. 4G internets par 16.99 EUR ar 12 mēn. līg., 22-2/2022/818"],"promotion":true,"contractTermMonths":24,"promotionCode":"PROMO_4G_INTERNET_24M_818"}],"scrapedAt":"2025-08-28T23:28:06.787Z","source":"api"}
{"id":"node/12441606814","address":"Vētru iela 16, Carnikava, Carnikavas pag., Ādažu nov.","properties":{"addr:street":"Vētru iela","addr:housenumber":"16","addr:city":"Carnikava","addr:postcode":"LV-2163","addr:subdistrict":"Carnikavas pagasts","addr:district":"Ādažu novads","addr:country":"LV","ref:LV:addr":"107036380"},"geometry":{"type":"Point","coordinates":[24.251599,57.1266152]},"offers":[{"connectionType":"Mobile (4G/5G)","originalTitle":"Mobilais Internets","speed":null,"features":["4G un 5G bezvadu tehnoloģija;","bezmaksas iekārtas uz pakalpojuma lietošanas laiku;","neierobežots mobilo datu apjoms;","vienkārši uzstādīt un ērti paņemt līdzi."],"techInfo":null,"pricePerMonthEur":23.5,"currency":"EUR","terms":null,"promotion":false,"contractTermMonths":0,"promotionCode":null},{"connectionType":"Mobile (4G/5G)","originalTitle":"Mobilais Internets","speed":null,"features":["4G un 5G bezvadu tehnoloģija;","bezmaksas iekārtas uz pakalpojuma lietošanas laiku;","neierobežots mobilo datu apjoms;","vienkārši uzstādīt un ērti paņemt līdzi."],"techInfo":null,"pricePerMonthEur":17.5,"currency":"EUR","terms":["Līgums uz 24 mēnešiem","Jauniem. 4G internets par 16.99 EUR ar 12 mēn. līg., 22-2/2022/818"],"promotion":true,"contractTermMonths":24,"promotionCode":"PROMO_4G_INTERNET_24M_818"}],"scrapedAt":"2025-08-28T23:28:06.822Z","source":"api"}
{"id":"node/12441606815","address":"Vētru iela 14, Carnikava, Carnikavas pag., Ādažu nov.","properties":{"addr:street":"Vētru iela","addr:housenumber":"14","addr:city":"Carnikava","addr:postcode":"LV-2163","addr:subdistrict":"Carnikavas pagasts","addr:district":"Ādažu novads","addr:country":"LV","ref:LV:addr":"107036372"},"geometry":{"type":"Point","coordinates":[24.2514026,57.1262853]},"offers":[{"connectionType":"Mobile (4G/5G)","originalTitle":"Mobilais Internets","speed":null,"features":["4G un 5G bezvadu tehnoloģija;","bezmaksas iekārtas uz pakalpojuma lietošanas laiku;","neierobežots mobilo datu apjoms;","vienkārši uzstādīt un ērti paņemt līdzi."],"techInfo":null,"pricePerMonthEur":23.5,"currency":"EUR","terms":null,"promotion":false,"contractTermMonths":0,"promotionCode":null},{"connectionType":"Mobile (4G/5G)","originalTitle":"Mobilais Internets","speed":null,"features":["4G un 5G bezvadu tehnoloģija;","bezmaksas iekārtas uz pakalpojuma lietošanas laiku;","neierobežots mobilo datu apjoms;","vienkārši uzstādīt un ērti paņemt līdzi."],"techInfo":null,"pricePerMonthEur":17.5,"currency":"EUR","terms":["Līgums uz 24 mēnešiem","Jauniem. 4G internets par 16.99 EUR ar 12 mēn. līg., 22-2/2022/818"],"promotion":true,"contractTermMonths":24,"promotionCode":"PROMO_4G_INTERNET_24M_818"}],"scrapedAt":"2025-08-28T23:28:06.870Z","source":"api"}
{"id":"node/12441606816","address":"Vētru iela 12, Carnikava, Carnikavas pag., Ādažu nov.","properties":{"addr:street":"Vētru iela","addr:housenumber":"12","addr:city":"Carnikava","addr:postcode":"LV-2163","addr:subdistrict":"Carnikavas pagasts","addr:district":"Ādažu novads","addr:country":"LV","ref:LV:addr":"107036364"},"geometry":{"type":"Point","coordinates":[24.2513298,57.1259406]},"offers":[{"connectionType":"Mobile (4G/5G)","originalTitle":"Mobilais Internets","speed":null,"features":["4G un 5G bezvadu tehnoloģija;","bezmaksas iekārtas uz pakalpojuma lietošanas laiku;","neierobežots mobilo datu apjoms;","vienkārši uzstādīt un ērti paņemt līdzi."],"techInfo":null,"pricePerMonthEur":23.5,"currency":"EUR","terms":null,"promotion":false,"contractTermMonths":0,"promotionCode":null},{"connectionType":"Mobile (4G/5G)","originalTitle":"Mobilais Internets","speed":null,"features":["4G un 5G bezvadu tehnoloģija;","bezmaksas iekārtas uz pakalpojuma lietošanas laiku;","neierobežots mobilo datu apjoms;","vienkārši uzstādīt un ērti paņemt līdzi."],"techInfo":null,"pricePerMonthEur":17.5,"currency":"EUR","terms":["Līgums uz 24 mēnešiem","Jauniem. 4G internets par 16.99 EUR ar 12 mēn. līg., 22-2/2022/818"],"promotion":true,"contractTermMonths":24,"promotionCode":"PROMO_4G_INTERNET_24M_818"}],"scrapedAt":"2025-08-28T23:28:06.882Z","source":"api"}
{"id":"node/12441606817","address":"Vētru iela 10, Carnikava, Carnikavas pag., Ādažu nov.","properties":{"addr:street":"Vētru iela","addr:housenumber":"10","addr:city":"Carnikava","addr:postcode":"LV-2163","addr:subdistrict":"Carnikavas pagasts","addr:district":"Ādažu novads","addr:country":"LV","ref:LV:addr":"107036356"},"geometry":{"type":"Point","coordinates":[24.2513092,57.1256235]},"offers":[{"connectionType":"Mobile (4G/5G)","originalTitle":"Mobilais Internets","speed":null,"features":["4G un 5G bezvadu tehnoloģija;","bezmaksas iekārtas uz pakalpojuma lietošanas laiku;","neierobežots mobilo datu apjoms;","vienkārši uzstādīt un ērti paņemt līdzi."],"techInfo":null,"pricePerMonthEur":23.5,"currency":"EUR","terms":null,"promotion":false,"contractTermMonths":0,"promotionCode":null},{"connectionType":"Mobile (4G/5G)","originalTitle":"Mobilais Internets","speed":null,"features":["4G un 5G bezvadu tehnoloģija;","bezmaksas iekārtas uz pakalpojuma lietošanas laiku;","neierobežots mobilo datu apjoms;","vienkārši uzstādīt un ērti paņemt līdzi."],"techInfo":null,"pricePerMonthEur":17.5,"currency":"EUR","terms":["Līgums uz 24 mēnešiem","Jauniem. 4G internets par 16.99 EUR ar 12 mēn. līg., 22-2/2022/818"],"promotion":true,"contractTermMonths":24,"promotionCode":"PROMO_4G_INTERNET_24M_818"}],"scrapedAt":"2025-08-28T23:28:06.898Z","source":"api"}
{"id":"node/12979018195","address":"Linu iela 9, Carnikava, Carnikavas pag., Ādažu nov.","properties":{"addr:street":"Linu iela","addr:housenumber":"9","addr:city":"Carnikava","addr:postcode":"LV-2163","addr:subdistrict":"Carnikavas pagasts","addr:district":"Ādažu novads","addr:country":"LV","ref:LV:addr":"107064215"},"geometry":{"type":"Point","coordinates":[24.2485151,57.1265278]},"offers":[{"connectionType":"Mobile (4G/5G)","originalTitle":"Mobilais Internets","speed":null,"features":["4G un 5G bezvadu tehnoloģija;","bezmaksas iekārtas uz pakalpojuma lietošanas laiku;","neierobežots mobilo datu apjoms;","vienkārši uzstādīt un ērti paņemt līdzi."],"techInfo":null,"pricePerMonthEur":23.5,"currency":"EUR","terms":null,"promotion":false,"contractTermMonths":0,"promotionCode":null},{"connectionType":"Mobile (4G/5G)","originalTitle":"Mobilais Internets","speed":null,"features":["4G un 5G bezvadu tehnoloģija;","bezmaksas iekārtas uz pakalpojuma lietošanas laiku;","neierobežots mobilo datu apjoms;","vienkārši uzstādīt un ērti paņemt līdzi."],"techInfo":null,"pricePerMonthEur":17.5,"currency":"EUR","terms":["Līgums uz 24 mēnešiem","Jauniem. 4G internets par 16.99 EUR ar 12 mēn. līg., 22-2/2022/818"],"promotion":true,"contractTermMonths":24,"promotionCode":"PROMO_4G_INTERNET_24M_818"}],"scrapedAt":"2025-08-28T23:28:07.884Z","source":"api"}
{"id":"node/12979018126","address":"Linu iela 13, Carnikava, Carnikavas pag., Ādažu nov.","properties":{"addr:street":"Linu iela","addr:housenumber":"13","addr:city":"Carnikava","addr:postcode":"LV-2163","addr:subdistrict":"Carnikavas pagasts","addr:district":"Ādažu novads","addr:country":"LV","ref:LV:addr":"107064231"},"geometry":{"type":"Point","coordinates":[24.2479806,57.12668]},"offers":[{"connectionType":"Mobile (4G/5G)","originalTitle":"Mobilais Internets","speed":null,"features":["4G un 5G bezvadu tehnoloģija;","bezmaksas iekārtas uz pakalpojuma lietošanas laiku;","neierobežots mobilo datu apjoms;","vienkārši uzstādīt un ērti paņemt līdzi."],"techInfo":null,"pricePerMonthEur":23.5,"currency":"EUR","terms":null,"promotion":false,"contractTermMonths":0,"promotionCode":null},{"connectionType":"Mobile (4G/5G)","originalTitle":"Mobilais Internets","speed":null,"features":["4G un 5G bezvadu tehnoloģija;","bezmaksas iekārtas uz pakalpojuma lietošanas laiku;","neierobežots mobilo datu apjoms;","vienkārši uzstādīt un ērti paņemt līdzi."],"techInfo":null,"pricePerMonthEur":17.5,"currency":"EUR","terms":["Līgums uz 24 mēnešiem","Jauniem. 4G internets par 16.99 EUR ar 12 mēn. līg., 22-2/2022/818"],"promotion":true,"contractTermMonths":24,"promotionCode":"PROMO_4G_INTERNET_24M_818"}],"scrapedAt":"2025-08-28T23:28:08.065Z","source":"api"}
{"id":"node/12979018159","address":"Linu iela 11, Carnikava, Carnikavas pag., Ādažu nov.","properties":{"addr:street":"Linu iela","addr:housenumber":"11","addr:city":"Carnikava","addr:postcode":"LV-2163","addr:subdistrict":"Carnikavas pagasts","addr:district":"Ādažu novads","addr:country":"LV","ref:LV:addr":"107064223"},"geometry":{"type":"Point","coordinates":[24.2481162,57.1264409]},"offers":[{"connectionType":"Mobile (4G/5G)","originalTitle":"Mobilais Internets","speed":null,"features":["4G un 5G bezvadu tehnoloģija;","bezmaksas iekārtas uz pakalpojuma lietošanas laiku;","neierobežots mobilo datu apjoms;","vienkārši uzstādīt un ērti paņemt līdzi."],"techInfo":null,"pricePerMonthEur":23.5,"currency":"EUR","terms":null,"promotion":false,"contractTermMonths":0,"promotionCode":null},{"connectionType":"Mobile (4G/5G)","originalTitle":"Mobilais Internets","speed":null,"features":["4G un 5G bezvadu tehnoloģija;","bezmaksas iekārtas uz pakalpojuma lietošanas laiku;","neierobežots mobilo datu apjoms;","vienkārši uzstādīt un ērti paņemt līdzi."],"techInfo":null,"pricePerMonthEur":17.5,"currency":"EUR","terms":["Līgums uz 24 mēnešiem","Jauniem. 4G internets par 16.99 EUR ar 12 mēn. līg., 22-2/2022/818"],"promotion":true,"contractTermMonths":24,"promotionCode":"PROMO_4G_INTERNET_24M_818"}],"scrapedAt":"2025-08-28T23:28:08.080Z","source":"api"}
{"id":"node/12979018160","address":"Linu iela 5, Carnikava, Carnikavas pag., Ādažu nov.","properties":{"addr:street":"Linu iela","addr:housenumber":"5","addr:city":"Carnikava","addr:postcode":"LV-2163","addr:subdistrict":"Carnikavas pagasts","addr:district":"Ādažu novads","addr:country":"LV","ref:LV:addr":"107064192"},"geometry":{"type":"Point","coordinates":[24.2495712,57.1265515]},"offers":[{"connectionType":"Mobile (4G/5G)","originalTitle":"Mobilais Internets","speed":null,"features":["4G un 5G bezvadu tehnoloģija;","bezmaksas iekārtas uz pakalpojuma lietošanas laiku;","neierobežots mobilo datu apjoms;","vienkārši uzstādīt un ērti paņemt līdzi."],"techInfo":null,"pricePerMonthEur":23.5,"currency":"EUR","terms":null,"promotion":false,"contractTermMonths":0,"promotionCode":null},{"connectionType":"Mobile (4G/5G)","originalTitle":"Mobilais Internets","speed":null,"features":["4G un 5G bezvadu tehnoloģija;","bezmaksas iekārtas uz pakalpojuma lietošanas laiku;","neierobežots mobilo datu apjoms;","vienkārši uzstādīt un ērti paņemt līdzi."],"techInfo":null,"pricePerMonthEur":17.5,"currency":"EUR","terms":["Līgums uz 24 mēnešiem","Jauniem. 4G internets par 16.99 EUR ar 12 mēn. līg., 22-2/2022/818"],"promotion":true,"contractTermMonths":24,"promotionCode":"PROMO_4G_INTERNET_24M_818"}],"scrapedAt":"2025-08-28T23:28:08.092Z","source":"api"}
{"id":"node/12441606818","address":"Vētru iela 8, Carnikava, Carnikavas pag., Ādažu nov.","properties":{"addr:street":"Vētru iela","addr:housenumber":"8","addr:city":"Carnikava","addr:postcode":"LV-2163","addr:subdistrict":"Carnikavas pagasts","addr:district":"Ādažu novads","addr:country":"LV","ref:LV:addr":"107036348"},"geometry":{"type":"Point","coordinates":[24.251441,57.1252911]},"offers":[{"connectionType":"Mobile (4G/5G)","originalTitle":"Mobilais Internets","speed":null,"features":["4G un 5G bezvadu tehnoloģija;","bezmaksas iekārtas uz pakalpojuma lietošanas laiku;","neierobežots mobilo datu apjoms;","vienkārši uzstādīt un ērti paņemt līdzi."],"techInfo":null,"pricePerMonthEur":23.5,"currency":"EUR","terms":null,"promotion":false,"contractTermMonths":0,"promotionCode":null},{"connectionType":"Mobile (4G/5G)","originalTitle":"Mobilais Internets","speed":null,"features":["4G un 5G bezvadu tehnoloģija;","bezmaksas iekārtas uz pakalpojuma lietošanas laiku;","neierobežots mobilo datu apjoms;","vienkārši uzstādīt un ērti paņemt līdzi."],"techInfo":null,"pricePerMonthEur":17.5,"currency":"EUR","terms":["Līgums uz 24 mēnešiem","Jauniem. 4G internets par 16.99 EUR ar 12 mēn. līg., 22-2/2022/818"],"promotion":true,"contractTermMonths":24,"promotionCode":"PROMO_4G_INTERNET_24M_818"}],"scrapedAt":"2025-08-28T23:28:08.107Z","source":"api"}
{"id":"node/12979018196","address":"Linu iela 7, Carnikava, Carnikavas pag., Ādažu nov.","properties":{"addr:street":"Linu iela","addr:housenumber":"7","addr:city":"Carnikava","addr:postcode":"LV-2163","addr:subdistrict":"Carnikavas pagasts","addr:district":"Ādažu novads","addr:country":"LV","ref:LV:addr":"107064207"},"geometry":{"type":"Point","coordinates":[24.2490495,57.1265457]},"offers":[{"connectionType":"Mobile (4G/5G)","originalTitle":"Mobilais Internets","speed":null,"features":["4G un 5G bezvadu tehnoloģija;","bezmaksas iekārtas uz pakalpojuma lietošanas laiku;","neierobežots mobilo datu apjoms;","vienkārši uzstādīt un ērti paņemt līdzi."],"techInfo":null,"pricePerMonthEur":23.5,"currency":"EUR","terms":null,"promotion":false,"contractTermMonths":0,"promotionCode":null},{"connectionType":"Mobile (4G/5G)","originalTitle":"Mobilais Internets","speed":null,"features":["4G un 5G bezvadu tehnoloģija;","bezmaksas iekārtas uz pakalpojuma lietošanas laiku;","neierobežots mobilo datu apjoms;","vienkārši uzstādīt un ērti paņemt līdzi."],"techInfo":null,"pricePerMonthEur":17.5,"currency":"EUR","terms":["Līgums uz 24 mēnešiem","Jauniem. 4G internets par 16.99 EUR ar 12 mēn. līg., 22-2/2022/818"],"promotion":true,"contractTermMonths":24,"promotionCode":"PROMO_4G_INTERNET_24M_818"}],"scrapedAt":"2025-08-28T23:28:09.218Z","source":"api"}
{"id":"node/12981479080","address":"Linu iela 12, Carnikava, Carnikavas pag., Ādažu nov.","properties":{"addr:street":"Linu iela","addr:housenumber":"12","addr:city":"Carnikava","addr:postcode":"LV-2163","addr:subdistrict":"Carnikavas pagasts","addr:district":"Ādažu novads","addr:country":"LV","ref:LV:addr":"107064336"},"geometry":{"type":"Point","coordinates":[24.2482017,57.127182]},"offers":[{"connectionType":"Mobile (4G/5G)","originalTitle":"Mobilais Internets","speed":null,"features":["4G un 5G bezvadu tehnoloģija;","bezmaksas iekārtas uz pakalpojuma lietošanas laiku;","neierobežots mobilo datu apjoms;","vienkārši uzstādīt un ērti paņemt līdzi."],"techInfo":null,"pricePerMonthEur":23.5,"currency":"EUR","terms":null,"promotion":false,"contractTermMonths":0,"promotionCode":null},{"connectionType":"Mobile (4G/5G)","originalTitle":"Mobilais Internets","speed":null,"features":["4G un 5G bezvadu tehnoloģija;","bezmaksas iekārtas uz pakalpojuma lietošanas laiku;","neierobežots mobilo datu apjoms;","vienkārši uzstādīt un ērti paņemt līdzi."],"techInfo":null,"pricePerMonthEur":17.5,"currency":"EUR","terms":["Līgums uz 24 mēnešiem","Jauniem. 4G internets par 16.99 EUR ar 12 mēn. līg., 22-2/2022/818"],"promotion":true,"contractTermMonths":24,"promotionCode":"PROMO_4G_INTERNET_24M_818"}],"scrapedAt":"2025-08-28T23:28:09.248Z","source":"api"}
{"id":"node/12981479081","address":"Linu iela 10, Carnikava, Carnikavas pag., Ādažu nov.","properties":{"addr:street":"Linu iela","addr:housenumber":"10","addr:city":"Carnikava","addr:postcode":"LV-2163","addr:subdistrict":"Carnikavas pagasts","addr:district":"Ādažu novads","addr:country":"LV","ref:LV:addr":"107064328"},"geometry":{"type":"Point","coordinates":[24.2486432,57.1270156]},"offers":[{"connectionType":"Mobile (4G/5G)","originalTitle":"Mobilais Internets","speed":null,"features":["4G un 5G bezvadu tehnoloģija;","bezmaksas iekārtas uz pakalpojuma lietošanas laiku;","neierobežots mobilo datu apjoms;","vienkārši uzstādīt un ērti paņemt līdzi."],"techInfo":null,"pricePerMonthEur":23.5,"currency":"EUR","terms":null,"promotion":false,"contractTermMonths":0,"promotionCode":null},{"connectionType":"Mobile (4G/5G)","originalTitle":"Mobilais Internets","speed":null,"features":["4G un 5G bezvadu tehnoloģija;","bezmaksas iekārtas uz pakalpojuma lietošanas laiku;","neierobežots mobilo datu apjoms;","vienkārši uzstādīt un ērti paņemt līdzi."],"techInfo":null,"pricePerMonthEur":17.5,"currency":"EUR","terms":["Līgums uz 24 mēnešiem","Jauniem. 4G internets par 16.99 EUR ar 12 mēn. līg., 22-2/2022/818"],"promotion":true,"contractTermMonths":24,"promotionCode":"PROMO_4G_INTERNET_24M_818"}],"scrapedAt":"2025-08-28T23:28:09.269Z","source":"api"}
{"id":"node/12981479079","address":"Linu iela 14, Carnikava, Carnikavas pag., Ādažu nov.","properties":{"addr:street":"Linu iela","addr:housenumber":"14","addr:city":"Carnikava","addr:postcode":"LV-2163","addr:subdistrict":"Carnikavas pagasts","addr:district":"Ādažu novads","addr:country":"LV","ref:LV:addr":"107064344"},"geometry":{"type":"Point","coordinates":[24.2475223,57.127349]},"offers":[{"connectionType":"Mobile (4G/5G)","originalTitle":"Mobilais Internets","speed":null,"features":["4G un 5G bezvadu tehnoloģija;","bezmaksas iekārtas uz pakalpojuma lietošanas laiku;","neierobežots mobilo datu apjoms;","vienkārši uzstādīt un ērti paņemt līdzi."],"techInfo":null,"pricePerMonthEur":23.5,"currency":"EUR","terms":null,"promotion":false,"contractTermMonths":0,"promotionCode":null},{"connectionType":"Mobile (4G/5G)","originalTitle":"Mobilais Internets","speed":null,"features":["4G un 5G bezvadu tehnoloģija;","bezmaksas iekārtas uz pakalpojuma lietošanas laiku;","neierobežots mobilo datu apjoms;","vienkārši uzstādīt un ērti paņemt līdzi."],"techInfo":null,"pricePerMonthEur":17.5,"currency":"EUR","terms":["Līgums uz 24 mēnešiem","Jauniem. 4G internets par 16.99 EUR ar 12 mēn. līg., 22-2/2022/818"],"promotion":true,"contractTermMonths":24,"promotionCode":"PROMO_4G_INTERNET_24M_818"}],"scrapedAt":"2025-08-28T23:28:09.314Z","source":"api"}
{"id":"node/12981531009","address":"Linu iela 8, Carnikava, Carnikavas pag., Ādažu nov.","properties":{"addr:street":"Linu iela","addr:housenumber":"8","addr:city":"Carnikava","addr:postcode":"LV-2163","addr:subdistrict":"Carnikavas pagasts","addr:district":"Ādažu novads","addr:country":"LV","ref:LV:addr":"107064311"},"geometry":{"type":"Point","coordinates":[24.2490745,57.1269756]},"offers":[{"connectionType":"Mobile (4G/5G)","originalTitle":"Mobilais Internets","speed":null,"features":["4G un 5G bezvadu tehnoloģija;","bezmaksas iekārtas uz pakalpojuma lietošanas laiku;","neierobežots mobilo datu apjoms;","vienkārši uzstādīt un ērti paņemt līdzi."],"techInfo":null,"pricePerMonthEur":23.5,"currency":"EUR","terms":null,"promotion":false,"contractTermMonths":0,"promotionCode":null},{"connectionType":"Mobile (4G/5G)","originalTitle":"Mobilais Internets","speed":null,"features":["4G un 5G bezvadu tehnoloģija;","bezmaksas iekārtas uz pakalpojuma lietošanas laiku;","neierobežots mobilo datu apjoms;","vienkārši uzstādīt un ērti paņemt līdzi."],"techInfo":null,"pricePerMonthEur":17.5,"currency":"EUR","terms":["Līgums uz 24 mēnešiem","Jauniem. 4G internets par 16.99 EUR ar 12 mēn. līg., 22-2/2022/818"],"promotion":true,"contractTermMonths":24,"promotionCode":"PROMO_4G_INTERNET_24M_818"}],"scrapedAt":"2025-08-28T23:28:09.330Z","source":"api"}
{"id":"node/12981531025","address":"Linu iela 15, Carnikava, Carnikavas pag., Ādažu nov.","properties":{"addr:street":"Linu iela","addr:housenumber":"15","addr:city":"Carnikava","addr:postcode":"LV-2163","addr:subdistrict":"Carnikavas pagasts","addr:district":"Ādažu novads","addr:country":"LV","ref:LV:addr":"107064297"},"geometry":{"type":"Point","coordinates":[24.2476523,57.1269302]},"offers":[{"connectionType":"Mobile (4G/5G)","originalTitle":"Mobilais Internets","speed":null,"features":["4G un 5G bezvadu tehnoloģija;","bezmaksas iekārtas uz pakalpojuma lietošanas laiku;","neierobežots mobilo datu apjoms;","vienkārši uzstādīt un ērti paņemt līdzi."],"techInfo":null,"pricePerMonthEur":23.5,"currency":"EUR","terms":null,"promotion":false,"contractTermMonths":0,"promotionCode":null},{"connectionType":"Mobile (4G/5G)","originalTitle":"Mobilais Internets","speed":null,"features":["4G un 5G bezvadu tehnoloģija;","bezmaksas iekārtas uz pakalpojuma lietošanas laiku;","neierobežots mobilo datu apjoms;","vienkārši uzstādīt un ērti paņemt līdzi."],"techInfo":null,"pricePerMonthEur":17.5,"currency":"EUR","terms":["Līgums uz 24 mēnešiem","Jauniem. 4G internets par 16.99 EUR ar 12 mēn. līg., 22-2/2022/818"],"promotion":true,"contractTermMonths":24,"promotionCode":"PROMO_4G_INTERNET_24M_818"}],"scrapedAt":"2025-08-28T23:28:10.429Z","source":"api"}
{"id":"node/12981531010","address":"Linu iela 6, Carnikava, Carnikavas pag., Ādažu nov.","properties":{"addr:street":"Linu iela","addr:housenumber":"6","addr:city":"Carnikava","addr:postcode":"LV-2163","addr:subdistrict":"Carnikavas pagasts","addr:district":"Ādažu novads","addr:country":"LV","ref:LV:addr":"107064303"},"geometry":{"type":"Point","coordinates":[24.249528,57.1269536]},"offers":[{"connectionType":"Mobile (4G/5G)","originalTitle":"Mobilais Internets","speed":null,"features":["4G un 5G bezvadu tehnoloģija;","bezmaksas iekārtas uz pakalpojuma lietošanas laiku;","neierobežots mobilo datu apjoms;","vienkārši uzstādīt un ērti paņemt līdzi."],"techInfo":null,"pricePerMonthEur":23.5,"currency":"EUR","terms":null,"promotion":false,"contractTermMonths":0,"promotionCode":null},{"connectionType":"Mobile (4G/5G)","originalTitle":"Mobilais Internets","speed":null,"features":["4G un 5G bezvadu tehnoloģija;","bezmaksas iekārtas uz pakalpojuma lietošanas laiku;","neierobežots mobilo datu apjoms;","vienkārši uzstādīt un ērti paņemt līdzi."],"techInfo":null,"pricePerMonthEur":17.5,"currency":"EUR","terms":["Līgums uz 24 mēnešiem","Jauniem. 4G internets par 16.99 EUR ar 12 mēn. līg., 22-2/2022/818"],"promotion":true,"contractTermMonths":24,"promotionCode":"PROMO_4G_INTERNET_24M_818"}],"scrapedAt":"2025-08-28T23:28:10.766Z","source":"api"}
