{"id":"node/9887722285","address":"Salnas iela 1, Egļuciems, Babītes pag., Mārupes nov.","properties":{"addr:street":"Salnas iela","addr:housenumber":"1","addr:city":"Egļuciems","addr:postcode":"LV-2107","addr:subdistrict":"Babītes pagasts","addr:district":"Mārupes novads","addr:country":"LV","ref:LV:addr":"104919490"},"geometry":{"type":"Point","coordinates":[23.8614204,56.9570147]},"offers":[{"connectionType":"Mobile (4G/5G)","originalTitle":"Mobilais Internets","speed":null,"features":["4G un 5G bezvadu tehnoloģija;","bezmaksas iekārtas uz pakalpojuma lietošanas laiku;","neierobežots mobilo datu apjoms;","vienkārši uzstādīt un ērti paņemt līdzi."],"techInfo":null,"pricePerMonthEur":23.5,"currency":"EUR","terms":null,"promotion":false,"contractTermMonths":0,"promotionCode":null},{"connectionType":"Mobile (4G/5G)","originalTitle":"Mobilais Internets","speed":null,"features":["4G un 5G bezvadu tehnoloģija;","bezmaksas iekārtas uz pakalpojuma lietošanas laiku;","neierobežots mobilo datu apjoms;","vienkārši uzstādīt un ērti paņemt līdzi."],"techInfo":null,"pricePerMonthEur":17.5,"currency":"EUR","terms":["Līgums uz 24 mēnešiem","Jauniem. 4G internets par 16.99 EUR ar 12 mēn. līg., 22-2/2022/818"],"promotion":true,"contractTermMonths":24,"promotionCode":"PROMO_4G_INTERNET_24M_818"}],"scrapedAt":"2025-08-30T17:39:50.175Z","source":"api"}
{"id":"node/9887722287","address":"Salnas iela 2, Egļuciems, Babītes pag., Mārupes nov.","properties":{"addr:street":"Salnas iela","addr:housenumber":"2","addr:city":"Egļuciems","addr:postcode":"LV-2107","addr:subdistrict":"Babītes pagasts","addr:district":"Mārupes novads","addr:country":"LV","ref:LV:addr":"104919441"},"geometry":{"type":"Point","coordinates":[23.8614013,56.9565374]},"offers":[{"connectionType":"Mobile (4G/5G)","originalTitle":"Mobilais Internets","speed":null,"features":["4G un 5G bezvadu tehnoloģija;","bezmaksas iekārtas uz pakalpojuma lietošanas laiku;","neierobežots mobilo datu apjoms;","vienkārši uzstādīt un ērti paņemt līdzi."],"techInfo":null,"pricePerMonthEur":23.5,"currency":"EUR","terms":null,"promotion":false,"contractTermMonths":0,"promotionCode":null},{"connectionType":"Mobile (4G/5G)","originalTitle":"Mobilais Internets","speed":null,"features":["4G un 5G bezvadu tehnoloģija;","bezmaksas iekārtas uz pakalpojuma lietošanas laiku;","neierobežots mobilo datu apjoms;","vienkārši uzstādīt un ērti paņemt līdzi."],"techInfo":null,"pricePerMonthEur":17.5,"currency":"EUR","terms":["Līgums uz 24 mēnešiem","Jauniem. 4G internets par 16.99 EUR ar 12 mēn. līg., 22-2/2022/818"],"promotion":true,"contractTermMonths":24,"promotionCode":"PROMO_4G_INTERNET_24M_818"}],"scrapedAt":"2025-08-30T17:39:52.371Z","source":"api"}
{"id":"node/9887774120","address":"Salnas iela 4, Egļuciems, Babītes pag., Mārupes nov.","properties":{"addr:street":"Salnas iela","addr:housenumber":"4","addr:city":"Egļuciems","addr:postcode":"LV-2107","addr:subdistrict":"Babītes pagasts","addr:district":"Mārupes novads","addr:country":"LV","ref:LV:addr":"104919458"},"geometry":{"type":"Point","coordinates":[23.8615614,56.9563026]},"offers":[{"connectionType":"Mobile (4G/5G)","originalTitle":"Mobilais Internets","speed":null,"features":["4G un 5G bezvadu tehnoloģija;","bezmaksas iekārtas uz pakalpojuma lietošanas laiku;","neierobežots mobilo datu apjoms;","vienkārši uzstādīt un ērti paņemt līdzi."],"techInfo":null,"pricePerMonthEur":23.5,"currency":"EUR","terms":null,"promotion":false,"contractTermMonths":0,"promotionCode":null},{"connectionType":"Mobile (4G/5G)","originalTitle":"Mobilais Internets","speed":null,"features":["4G un 5G bezvadu tehnoloģija;","bezmaksas iekārtas uz pakalpojuma lietošanas laiku;","neierobežots mobilo datu apjoms;","vienkārši uzstādīt un ērti paņemt līdzi."],"techInfo":null,"pricePerMonthEur":17.5,"currency":"EUR","terms":["Līgums uz 24 mēnešiem","Jauniem. 4G internets par 16.99 EUR ar 12 mēn. līg., 22-2/2022/818"],"promotion":true,"contractTermMonths":24,"promotionCode":"PROMO_4G_INTERNET_24M_818"}],"scrapedAt":"2025-08-30T17:42:13.259Z","source":"api"}
{"id":"node/9887774118","address":"Salnas iela 8, Egļuciems, Babītes pag., Mārupes nov.","properties":{"addr:street":"Salnas iela","addr:housenumber":"8","addr:city":"Egļuciems","addr:postcode":"LV-2107","addr:subdistrict":"Babītes pagasts","addr:district":"Mārupes novads","addr:country":"LV","ref:LV:addr":"104919474"},"geometry":{"type":"Point","coordinates":[23.8611783,56.9560025]},"offers":[{"connectionType":"Mobile (4G/5G)","originalTitle":"Mobilais Internets","speed":null,"features":["4G un 5G bezvadu tehnoloģija;","bezmaksas iekārtas uz pakalpojuma lietošanas laiku;","neierobežots mobilo datu apjoms;","vienkārši uzstādīt un ērti paņemt līdzi."],"techInfo":null,"pricePerMonthEur":23.5,"currency":"EUR","terms":null,"promotion":false,"contractTermMonths":0,"promotionCode":null},{"connectionType":"Mobile (4G/5G)","originalTitle":"Mobilais Internets","speed":null,"features":["4G un 5G bezvadu tehnoloģija;","bezmaksas iekārtas uz pakalpojuma lietošanas laiku;","neierobežots mobilo datu apjoms;","vienkārši uzstādīt un ērti paņemt līdzi."],"techInfo":null,"pricePerMonthEur":17.5,"currency":"EUR","terms":["Līgums uz 24 mēnešiem","Jauniem. 4G internets par 16.99 EUR ar 12 mēn. līg., 22-2/2022/818"],"promotion":true,"contractTermMonths":24,"promotionCode":"PROMO_4G_INTERNET_24M_818"}],"scrapedAt":"2025-08-30T17:42:13.471Z","source":"api"}
{"id":"node/9887774119","address":"Salnas iela 6, Egļuciems, Babītes pag., Mārupes nov.","properties":{"addr:street":"Salnas iela","addr:housenumber":"6","addr:city":"Egļuciems","addr:postcode":"LV-2107","addr:subdistrict":"Babītes pagasts","addr:district":"Mārupes novads","addr:country":"LV","ref:LV:addr":"104919466"},"geometry":{"type":"Point","coordinates":[23.8617163,56.9560536]},"offers":[{"connectionType":"Mobile (4G/5G)","originalTitle":"Mobilais Internets","speed":null,"features":["4G un 5G bezvadu tehnoloģija;","bezmaksas iekārtas uz pakalpojuma lietošanas laiku;","neierobežots mobilo datu apjoms;","vienkārši uzstādīt un ērti paņemt līdzi."],"techInfo":null,"pricePerMonthEur":23.5,"currency":"EUR","terms":null,"promotion":false,"contractTermMonths":0,"promotionCode":null},{"connectionType":"Mobile (4G/5G)","originalTitle":"Mobilais Internets","speed":null,"features":["4G un 5G bezvadu tehnoloģija;","bezmaksas iekārtas uz pakalpojuma lietošanas laiku;","neierobežots mobilo datu apjoms;","vienkārši uzstādīt un ērti paņemt līdzi."],"techInfo":null,"pricePerMonthEur":17.5,"currency":"EUR","terms":["Līgums uz 24 mēnešiem","Jauniem. 4G internets par 16.99 EUR ar 12 mēn. līg., 22-2/2022/818"],"promotion":true,"contractTermMonths":24,"promotionCode":"PROMO_4G_INTERNET_24M_818"}],"scrapedAt":"2025-08-30T17:42:13.472Z","source":"api"}
{"id":"node/9887774123","address":"Mākoņu iela 22, Egļuciems, Babītes pag., Mārupes nov.","properties":{"addr:street":"Mākoņu iela","addr:housenumber":"22","addr:city":"Egļuciems","addr:postcode":"LV-2107","addr:subdistrict":"Babītes pagasts","addr:district":"Mārupes novads","addr:country":"LV","ref:LV:addr":"104917534"},"geometry":{"type":"Point","coordinates":[23.8602718,56.9567499]},"offers":[{"connectionType":"Mobile (4G/5G)","originalTitle":"Mobilais Internets","speed":null,"features":["4G un 5G bezvadu tehnoloģija;","bezmaksas iekārtas uz pakalpojuma lietošanas laiku;","neierobežots mobilo datu apjoms;","vienkārši uzstādīt un ērti paņemt līdzi."],"techInfo":null,"pricePerMonthEur":23.5,"currency":"EUR","terms":null,"promotion":false,"contractTermMonths":0,"promotionCode":null},{"connectionType":"Mobile (4G/5G)","originalTitle":"Mobilais Internets","speed":null,"features":["4G un 5G bezvadu tehnoloģija;","bezmaksas iekārtas uz pakalpojuma lietošanas laiku;","neierobežots mobilo datu apjoms;","vienkārši uzstādīt un ērti paņemt līdzi."],"techInfo":null,"pricePerMonthEur":17.5,"currency":"EUR","terms":["Līgums uz 24 mēnešiem","Jauniem. 4G internets par 16.99 EUR ar 12 mēn. līg., 22-2/2022/818"],"promotion":true,"contractTermMonths":24,"promotionCode":"PROMO_4G_INTERNET_24M_818"}],"scrapedAt":"2025-08-30T17:42:15.641Z","source":"api"}
{"id":"node/9887774125","address":"Mākoņu iela 18, Egļuciems, Babītes pag., Mārupes nov.","properties":{"addr:street":"Mākoņu iela","addr:housenumber":"18","addr:city":"Egļuciems","addr:postcode":"LV-2107","addr:subdistrict":"Babītes pagasts","addr:district":"Mārupes novads","addr:country":"LV","ref:LV:addr":"104917518"},"geometry":{"type":"Point","coordinates":[23.85988,56.9572594]},"offers":[{"connectionType":"Mobile (4G/5G)","originalTitle":"Mobilais Internets","speed":null,"features":["4G un 5G bezvadu tehnoloģija;","bezmaksas iekārtas uz pakalpojuma lietošanas laiku;","neierobežots mobilo datu apjoms;","vienkārši uzstādīt un ērti paņemt līdzi."],"techInfo":null,"pricePerMonthEur":23.5,"currency":"EUR","terms":null,"promotion":false,"contractTermMonths":0,"promotionCode":null},{"connectionType":"Mobile (4G/5G)","originalTitle":"Mobilais Internets","speed":null,"features":["4G un 5G bezvadu tehnoloģija;","bezmaksas iekārtas uz pakalpojuma lietošanas laiku;","neierobežots mobilo datu apjoms;","vienkārši uzstādīt un ērti paņemt līdzi."],"techInfo":null,"pricePerMonthEur":17.5,"currency":"EUR","terms":["Līgums uz 24 mēnešiem","Jauniem. 4G internets par 16.99 EUR ar 12 mēn. līg., 22-2/2022/818"],"promotion":true,"contractTermMonths":24,"promotionCode":"PROMO_4G_INTERNET_24M_818"}],"scrapedAt":"2025-08-30T17:42:15.854Z","source":"api"}
{"id":"node/9887774121","address":"Rasas iela 2, Egļuciems, Babītes pag., Mārupes nov.","properties":{"addr:street":"Rasas iela","addr:housenumber":"2","addr:city":"Egļuciems","addr:postcode":"LV-2107","addr:subdistrict":"Babītes pagasts","addr:district":"Mārupes novads","addr:country":"LV","ref:LV:addr":"104917606"},"geometry":{"type":"Point","coordinates":[23.858564,56.9604867]},"offers":[{"connectionType":"Mobile (4G/5G)","originalTitle":"Mobilais Internets","speed":null,"features":["4G un 5G bezvadu tehnoloģija;","bezmaksas iekārtas uz pakalpojuma lietošanas laiku;","neierobežots mobilo datu apjoms;","vienkārši uzstādīt un ērti paņemt līdzi."],"techInfo":null,"pricePerMonthEur":23.5,"currency":"EUR","terms":null,"promotion":false,"contractTermMonths":0,"promotionCode":null},{"connectionType":"Mobile (4G/5G)","originalTitle":"Mobilais Internets","speed":null,"features":["4G un 5G bezvadu tehnoloģija;","bezmaksas iekārtas uz pakalpojuma lietošanas laiku;","neierobežots mobilo datu apjoms;","vienkārši uzstādīt un ērti paņemt līdzi."],"techInfo":null,"pricePerMonthEur":17.5,"currency":"EUR","terms":["Līgums uz 24 mēnešiem","Jauniem. 4G internets par 16.99 EUR ar 12 mēn. līg., 22-2/2022/818"],"promotion":true,"contractTermMonths":24,"promotionCode":"PROMO_4G_INTERNET_24M_818"}],"scrapedAt":"2025-08-30T17:42:15.854Z","source":"api"}
{"id":"node/9887774124","address":"Mākoņu iela 20, Egļuciems, Babītes pag., Mārupes nov.","properties":{"addr:street":"Mākoņu iela","addr:housenumber":"20","addr:city":"Egļuciems","addr:postcode":"LV-2107","addr:subdistrict":"Babītes pagasts","addr:district":"Mārupes novads","addr:country":"LV","ref:LV:addr":"104917526"},"geometry":{"type":"Point","coordinates":[23.8597162,56.9569267]},"offers":[{"connectionType":"Mobile (4G/5G)","originalTitle":"Mobilais Internets","speed":null,"features":["4G un 5G bezvadu tehnoloģija;","bezmaksas iekārtas uz pakalpojuma lietošanas laiku;","neierobežots mobilo datu apjoms;","vienkārši uzstādīt un ērti paņemt līdzi."],"techInfo":null,"pricePerMonthEur":23.5,"currency":"EUR","terms":null,"promotion":false,"contractTermMonths":0,"promotionCode":null},{"connectionType":"Mobile (4G/5G)","originalTitle":"Mobilais Internets","speed":null,"features":["4G un 5G bezvadu tehnoloģija;","bezmaksas iekārtas uz pakalpojuma lietošanas laiku;","neierobežots mobilo datu apjoms;","vienkārši uzstādīt un ērti paņemt līdzi."],"techInfo":null,"pricePerMonthEur":17.5,"currency":"EUR","terms":["Līgums uz 24 mēnešiem","Jauniem. 4G internets par 16.99 EUR ar 12 mēn. līg., 22-2/2022/818"],"promotion":true,"contractTermMonths":24,"promotionCode":"PROMO_4G_INTERNET_24M_818"}],"scrapedAt":"2025-08-30T17:42:15.855Z","source":"api"}
{"id":"node/9887774122","address":"Mākoņu iela 24, Egļuciems, Babītes pag., Mārupes nov.","properties":{"addr:street":"Mākoņu iela","addr:housenumber":"24","addr:city":"Egļuciems","addr:postcode":"LV-2107","addr:subdistrict":"Babītes pagasts","addr:district":"Mārupes novads","addr:country":"LV","ref:LV:addr":"104917542"},"geometry":{"type":"Point","coordinates":[23.8596608,56.9566636]},"offers":[{"connectionType":"Mobile (4G/5G)","originalTitle":"Mobilais Internets","speed":null,"features":["4G un 5G bezvadu tehnoloģija;","bezmaksas iekārtas uz pakalpojuma lietošanas laiku;","neierobežots mobilo datu apjoms;","vienkārši uzstādīt un ērti paņemt līdzi."],"techInfo":null,"pricePerMonthEur":23.5,"currency":"EUR","terms":null,"promotion":false,"contractTermMonths":0,"promotionCode":null},{"connectionType":"Mobile (4G/5G)","originalTitle":"Mobilais Internets","speed":null,"features":["4G un 5G bezvadu tehnoloģija;","bezmaksas iekārtas uz pakalpojuma lietošanas laiku;","neierobežots mobilo datu apjoms;","vienkārši uzstādīt un ērti paņemt līdzi."],"techInfo":null,"pricePerMonthEur":17.5,"currency":"EUR","terms":["Līgums uz 24 mēnešiem","Jauniem. 4G internets par 16.99 EUR ar 12 mēn. līg., 22-2/2022/818"],"promotion":true,"contractTermMonths":24,"promotionCode":"PROMO_4G_INTERNET_24M_818"}],"scrapedAt":"2025-08-30T17:42:15.856Z","source":"api"}
{"id":"node/9887774130","address":"Mākoņu iela 35, Egļuciems, Babītes pag., Mārupes nov.","properties":{"addr:street":"Mākoņu iela","addr:housenumber":"35","addr:city":"Egļuciems","addr:postcode":"LV-2107","addr:subdistrict":"Babītes pagasts","addr:district":"Mārupes novads","addr:country":"LV","ref:LV:addr":"104917421"},"geometry":{"type":"Point","coordinates":[23.8608925,56.9563761]},"offers":[{"connectionType":"Mobile (4G/5G)","originalTitle":"Mobilais Internets","speed":null,"features":["4G un 5G bezvadu tehnoloģija;","bezmaksas iekārtas uz pakalpojuma lietošanas laiku;","neierobežots mobilo datu apjoms;","vienkārši uzstādīt un ērti paņemt līdzi."],"techInfo":null,"pricePerMonthEur":23.5,"currency":"EUR","terms":null,"promotion":false,"contractTermMonths":0,"promotionCode":null},{"connectionType":"Mobile (4G/5G)","originalTitle":"Mobilais Internets","speed":null,"features":["4G un 5G bezvadu tehnoloģija;","bezmaksas iekārtas uz pakalpojuma lietošanas laiku;","neierobežots mobilo datu apjoms;","vienkārši uzstādīt un ērti paņemt līdzi."],"techInfo":null,"pricePerMonthEur":17.5,"currency":"EUR","terms":["Līgums uz 24 mēnešiem","Jauniem. 4G internets par 16.99 EUR ar 12 mēn. līg., 22-2/2022/818"],"promotion":true,"contractTermMonths":24,"promotionCode":"PROMO_4G_INTERNET_24M_818"}],"scrapedAt":"2025-08-30T17:42:18.032Z","source":"api"}
{"id":"node/9887774128","address":"Mākoņu iela 39, Egļuciems, Babītes pag., Mārupes nov.","properties":{"addr:street":"Mākoņu iela","addr:housenumber":"39","addr:city":"Egļuciems","addr:postcode":"LV-2107","addr:subdistrict":"Babītes pagasts","addr:district":"Mārupes novads","addr:country":"LV","ref:LV:addr":"104917446"},"geometry":{"type":"Point","coordinates":[23.8604567,56.956067]},"offers":[{"connectionType":"Mobile (4G/5G)","originalTitle":"Mobilais Internets","speed":null,"features":["4G un 5G bezvadu tehnoloģija;","bezmaksas iekārtas uz pakalpojuma lietošanas laiku;","neierobežots mobilo datu apjoms;","vienkārši uzstādīt un ērti paņemt līdzi."],"techInfo":null,"pricePerMonthEur":23.5,"currency":"EUR","terms":null,"promotion":false,"contractTermMonths":0,"promotionCode":null},{"connectionType":"Mobile (4G/5G)","originalTitle":"Mobilais Internets","speed":null,"features":["4G un 5G bezvadu tehnoloģija;","bezmaksas iekārtas uz pakalpojuma lietošanas laiku;","neierobežots mobilo datu apjoms;","vienkārši uzstādīt un ērti paņemt līdzi."],"techInfo":null,"pricePerMonthEur":17.5,"currency":"EUR","terms":["Līgums uz 24 mēnešiem","Jauniem. 4G internets par 16.99 EUR ar 12 mēn. līg., 22-2/2022/818"],"promotion":true,"contractTermMonths":24,"promotionCode":"PROMO_4G_INTERNET_24M_818"}],"scrapedAt":"2025-08-30T17:42:18.248Z","source":"api"}
{"id":"node/9887774126","address":"Mākoņu iela 16, Egļuciems, Babītes pag., Mārupes nov.","properties":{"addr:street":"Mākoņu iela","addr:housenumber":"16","addr:city":"Egļuciems","addr:postcode":"LV-2107","addr:subdistrict":"Babītes pagasts","addr:district":"Mārupes novads","addr:country":"LV","ref:LV:addr":"104917501"},"geometry":{"type":"Point","coordinates":[23.8592489,56.9572776]},"offers":[{"connectionType":"Mobile (4G/5G)","originalTitle":"Mobilais Internets","speed":null,"features":["4G un 5G bezvadu tehnoloģija;","bezmaksas iekārtas uz pakalpojuma lietošanas laiku;","neierobežots mobilo datu apjoms;","vienkārši uzstādīt un ērti paņemt līdzi."],"techInfo":null,"pricePerMonthEur":23.5,"currency":"EUR","terms":null,"promotion":false,"contractTermMonths":0,"promotionCode":null},{"connectionType":"Mobile (4G/5G)","originalTitle":"Mobilais Internets","speed":null,"features":["4G un 5G bezvadu tehnoloģija;","bezmaksas iekārtas uz pakalpojuma lietošanas laiku;","neierobežots mobilo datu apjoms;","vienkārši uzstādīt un ērti paņemt līdzi."],"techInfo":null,"pricePerMonthEur":17.5,"currency":"EUR","terms":["Līgums uz 24 mēnešiem","Jauniem. 4G internets par 16.99 EUR ar 12 mēn. līg., 22-2/2022/818"],"promotion":true,"contractTermMonths":24,"promotionCode":"PROMO_4G_INTERNET_24M_818"}],"scrapedAt":"2025-08-30T17:42:18.249Z","source":"api"}
{"id":"node/9887774129","address":"Mākoņu iela 37, Egļuciems, Babītes pag., Mārupes nov.","properties":{"addr:street":"Mākoņu iela","addr:housenumber":"37","addr:city":"Egļuciems","addr:postcode":"LV-2107","addr:subdistrict":"Babītes pagasts","addr:district":"Mārupes novads","addr:country":"LV","ref:LV:addr":"104917438"},"geometry":{"type":"Point","coordinates":[23.8602385,56.9563273]},"offers":[{"connectionType":"Mobile (4G/5G)","originalTitle":"Mobilais Internets","speed":null,"features":["4G un 5G bezvadu tehnoloģija;","bezmaksas iekārtas uz pakalpojuma lietošanas laiku;","neierobežots mobilo datu apjoms;","vienkārši uzstādīt un ērti paņemt līdzi."],"techInfo":null,"pricePerMonthEur":23.5,"currency":"EUR","terms":null,"promotion":false,"contractTermMonths":0,"promotionCode":null},{"connectionType":"Mobile (4G/5G)","originalTitle":"Mobilais Internets","speed":null,"features":["4G un 5G bezvadu tehnoloģija;","bezmaksas iekārtas uz pakalpojuma lietošanas laiku;","neierobežots mobilo datu apjoms;","vienkārši uzstādīt un ērti paņemt līdzi."],"techInfo":null,"pricePerMonthEur":17.5,"currency":"EUR","terms":["Līgums uz 24 mēnešiem","Jauniem. 4G internets par 16.99 EUR ar 12 mēn. līg., 22-2/2022/818"],"promotion":true,"contractTermMonths":24,"promotionCode":"PROMO_4G_INTERNET_24M_818"}],"scrapedAt":"2025-08-30T17:42:18.249Z","source":"api"}
{"id":"node/9887774127","address":"Mākoņu iela 41, Egļuciems, Babītes pag., Mārupes nov.","properties":{"addr:street":"Mākoņu iela","addr:housenumber":"41","addr:city":"Egļuciems","addr:postcode":"LV-2107","addr:subdistrict":"Babītes pagasts","addr:district":"Mārupes novads","addr:country":"LV","ref:LV:addr":"104917454"},"geometry":{"type":"Point","coordinates":[23.8606297,56.9558197]},"offers":[{"connectionType":"Mobile (4G/5G)","originalTitle":"Mobilais Internets","speed":null,"features":["4G un 5G bezvadu tehnoloģija;","bezmaksas iekārtas uz pakalpojuma lietošanas laiku;","neierobežots mobilo datu apjoms;","vienkārši uzstādīt un ērti paņemt līdzi."],"techInfo":null,"pricePerMonthEur":23.5,"currency":"EUR","terms":null,"promotion":false,"contractTermMonths":0,"promotionCode":null},{"connectionType":"Mobile (4G/5G)","originalTitle":"Mobilais Internets","speed":null,"features":["4G un 5G bezvadu tehnoloģija;","bezmaksas iekārtas uz pakalpojuma lietošanas laiku;","neierobežots mobilo datu apjoms;","vienkārši uzstādīt un ērti paņemt līdzi."],"techInfo":null,"pricePerMonthEur":17.5,"currency":"EUR","terms":["Līgums uz 24 mēnešiem","Jauniem. 4G internets par 16.99 EUR ar 12 mēn. līg., 22-2/2022/818"],"promotion":true,"contractTermMonths":24,"promotionCode":"PROMO_4G_INTERNET_24M_818"}],"scrapedAt":"2025-08-30T17:42:18.489Z","source":"api"}
{"id":"node/9887774131","address":"Mākoņu iela 33, Egļuciems, Babītes pag., Mārupes nov.","properties":{"addr:street":"Mākoņu iela","addr:housenumber":"33","addr:city":"Egļuciems","addr:postcode":"LV-2107","addr:subdistrict":"Babītes pagasts","addr:district":"Mārupes novads","addr:country":"LV","ref:LV:addr":"104917405"},"geometry":{"type":"Point","coordinates":[23.8608945,56.9568991]},"offers":[{"connectionType":"Mobile (4G/5G)","originalTitle":"Mobilais Internets","speed":null,"features":["4G un 5G bezvadu tehnoloģija;","bezmaksas iekārtas uz pakalpojuma lietošanas laiku;","neierobežots mobilo datu apjoms;","vienkārši uzstādīt un ērti paņemt līdzi."],"techInfo":null,"pricePerMonthEur":23.5,"currency":"EUR","terms":null,"promotion":false,"contractTermMonths":0,"promotionCode":null},{"connectionType":"Mobile (4G/5G)","originalTitle":"Mobilais Internets","speed":null,"features":["4G un 5G bezvadu tehnoloģija;","bezmaksas iekārtas uz pakalpojuma lietošanas laiku;","neierobežots mobilo datu apjoms;","vienkārši uzstādīt un ērti paņemt līdzi."],"techInfo":null,"pricePerMonthEur":17.5,"currency":"EUR","terms":["Līgums uz 24 mēnešiem","Jauniem. 4G internets par 16.99 EUR ar 12 mēn. līg., 22-2/2022/818"],"promotion":true,"contractTermMonths":24,"promotionCode":"PROMO_4G_INTERNET_24M_818"}],"scrapedAt":"2025-08-30T17:42:20.467Z","source":"api"}
{"id":"node/9887774133","address":"Mākoņu iela 29, Egļuciems, Babītes pag., Mārupes nov.","properties":{"addr:street":"Mākoņu iela","addr:housenumber":"29","addr:city":"Egļuciems","addr:postcode":"LV-2107","addr:subdistrict":"Babītes pagasts","addr:district":"Mārupes novads","addr:country":"LV","ref:LV:addr":"104917382"},"geometry":{"type":"Point","coordinates":[23.8605289,56.9574448]},"offers":[{"connectionType":"Mobile (4G/5G)","originalTitle":"Mobilais Internets","speed":null,"features":["4G un 5G bezvadu tehnoloģija;","bezmaksas iekārtas uz pakalpojuma lietošanas laiku;","neierobežots mobilo datu apjoms;","vienkārši uzstādīt un ērti paņemt līdzi."],"techInfo":null,"pricePerMonthEur":23.5,"currency":"EUR","terms":null,"promotion":false,"contractTermMonths":0,"promotionCode":null},{"connectionType":"Mobile (4G/5G)","originalTitle":"Mobilais Internets","speed":null,"features":["4G un 5G bezvadu tehnoloģija;","bezmaksas iekārtas uz pakalpojuma lietošanas laiku;","neierobežots mobilo datu apjoms;","vienkārši uzstādīt un ērti paņemt līdzi."],"techInfo":null,"pricePerMonthEur":17.5,"currency":"EUR","terms":["Līgums uz 24 mēnešiem","Jauniem. 4G internets par 16.99 EUR ar 12 mēn. līg., 22-2/2022/818"],"promotion":true,"contractTermMonths":24,"promotionCode":"PROMO_4G_INTERNET_24M_818"}],"scrapedAt":"2025-08-30T17:42:20.682Z","source":"api"}
{"id":"node/9887774134","address":"Mākoņu iela 27, Egļuciems, Babītes pag., Mārupes nov.","properties":{"addr:street":"Mākoņu iela","addr:housenumber":"27","addr:city":"Egļuciems","addr:postcode":"LV-2107","addr:subdistrict":"Babītes pagasts","addr:district":"Mārupes novads","addr:country":"LV","ref:LV:addr":"104917374"},"geometry":{"type":"Point","coordinates":[23.8596738,56.9578154]},"offers":[{"connectionType":"Mobile (4G/5G)","originalTitle":"Mobilais Internets","speed":null,"features":["4G un 5G bezvadu tehnoloģija;","bezmaksas iekārtas uz pakalpojuma lietošanas laiku;","neierobežots mobilo datu apjoms;","vienkārši uzstādīt un ērti paņemt līdzi."],"techInfo":null,"pricePerMonthEur":23.5,"currency":"EUR","terms":null,"promotion":false,"contractTermMonths":0,"promotionCode":null},{"connectionType":"Mobile (4G/5G)","originalTitle":"Mobilais Internets","speed":null,"features":["4G un 5G bezvadu tehnoloģija;","bezmaksas iekārtas uz pakalpojuma lietošanas laiku;","neierobežots mobilo datu apjoms;","vienkārši uzstādīt un ērti paņemt līdzi."],"techInfo":null,"pricePerMonthEur":17.5,"currency":"EUR","terms":["Līgums uz 24 mēnešiem","Jauniem. 4G internets par 16.99 EUR ar 12 mēn. līg., 22-2/2022/818"],"promotion":true,"contractTermMonths":24,"promotionCode":"PROMO_4G_INTERNET_24M_818"}],"scrapedAt":"2025-08-30T17:42:20.681Z","source":"api"}
{"id":"node/9887774132","address":"Mākoņu iela 31, Egļuciems, Babītes pag., Mārupes nov.","properties":{"addr:street":"Mākoņu iela","addr:housenumber":"31","addr:city":"Egļuciems","addr:postcode":"LV-2107","addr:subdistrict":"Babītes pagasts","addr:district":"Mārupes novads","addr:country":"LV","ref:LV:addr":"104917390"},"geometry":{"type":"Point","coordinates":[23.8608764,56.9571864]},"offers":[{"connectionType":"Mobile (4G/5G)","originalTitle":"Mobilais Internets","speed":null,"features":["4G un 5G bezvadu tehnoloģija;","bezmaksas iekārtas uz pakalpojuma lietošanas laiku;","neierobežots mobilo datu apjoms;","vienkārši uzstādīt un ērti paņemt līdzi."],"techInfo":null,"pricePerMonthEur":23.5,"currency":"EUR","terms":null,"promotion":false,"contractTermMonths":0,"promotionCode":null},{"connectionType":"Mobile (4G/5G)","originalTitle":"Mobilais Internets","speed":null,"features":["4G un 5G bezvadu tehnoloģija;","bezmaksas iekārtas uz pakalpojuma lietošanas laiku;","neierobežots mobilo datu apjoms;","vienkārši uzstādīt un ērti paņemt līdzi."],"techInfo":null,"pricePerMonthEur":17.5,"currency":"EUR","terms":["Līgums uz 24 mēnešiem","Jauniem. 4G internets par 16.99 EUR ar 12 mēn. līg., 22-2/2022/818"],"promotion":true,"contractTermMonths":24,"promotionCode":"PROMO_4G_INTERNET_24M_818"}],"scrapedAt":"2025-08-30T17:42:20.684Z","source":"api"}
{"id":"node/9887774135","address":"Mākoņu iela 25, Egļuciems, Babītes pag., Mārupes nov.","properties":{"addr:street":"Mākoņu iela","addr:housenumber":"25","addr:city":"Egļuciems","addr:postcode":"LV-2107","addr:subdistrict":"Babītes pagasts","addr:district":"Mārupes novads","addr:country":"LV","ref:LV:addr":"104917366"},"geometry":{"type":"Point","coordinates":[23.8592522,56.9578542]},"offers":[{"connectionType":"Mobile (4G/5G)","originalTitle":"Mobilais Internets","speed":null,"features":["4G un 5G bezvadu tehnoloģija;","bezmaksas iekārtas uz pakalpojuma lietošanas laiku;","neierobežots mobilo datu apjoms;","vienkārši uzstādīt un ērti paņemt līdzi."],"techInfo":null,"pricePerMonthEur":23.5,"currency":"EUR","terms":null,"promotion":false,"contractTermMonths":0,"promotionCode":null},{"connectionType":"Mobile (4G/5G)","originalTitle":"Mobilais Internets","speed":null,"features":["4G un 5G bezvadu tehnoloģija;","bezmaksas iekārtas uz pakalpojuma lietošanas laiku;","neierobežots mobilo datu apjoms;","vienkārši uzstādīt un ērti paņemt līdzi."],"techInfo":null,"pricePerMonthEur":17.5,"currency":"EUR","terms":["Līgums uz 24 mēnešiem","Jauniem. 4G internets par 16.99 EUR ar 12 mēn. līg., 22-2/2022/818"],"promotion":true,"contractTermMonths":24,"promotionCode":"PROMO_4G_INTERNET_24M_818"}],"scrapedAt":"2025-08-30T17:42:20.683Z","source":"api"}
{"id":"node/9887774140","address":"Mākoņu iela 7, Egļuciems, Babītes pag., Mārupes nov.","properties":{"addr:street":"Mākoņu iela","addr:housenumber":"7","addr:city":"Egļuciems","addr:postcode":"LV-2107","addr:subdistrict":"Babītes pagasts","addr:district":"Mārupes novads","addr:country":"LV","ref:LV:addr":"104916147"},"geometry":{"type":"Point","coordinates":[23.8586454,56.960046]},"offers":[{"connectionType":"Mobile (4G/5G)","originalTitle":"Mobilais Internets","speed":null,"features":["4G un 5G bezvadu tehnoloģija;","bezmaksas iekārtas uz pakalpojuma lietošanas laiku;","neierobežots mobilo datu apjoms;","vienkārši uzstādīt un ērti paņemt līdzi."],"techInfo":null,"pricePerMonthEur":23.5,"currency":"EUR","terms":null,"promotion":false,"contractTermMonths":0,"promotionCode":null},{"connectionType":"Mobile (4G/5G)","originalTitle":"Mobilais Internets","speed":null,"features":["4G un 5G bezvadu tehnoloģija;","bezmaksas iekārtas uz pakalpojuma lietošanas laiku;","neierobežots mobilo datu apjoms;","vienkārši uzstādīt un ērti paņemt līdzi."],"techInfo":null,"pricePerMonthEur":17.5,"currency":"EUR","terms":["Līgums uz 24 mēnešiem","Jauniem. 4G internets par 16.99 EUR ar 12 mēn. līg., 22-2/2022/818"],"promotion":true,"contractTermMonths":24,"promotionCode":"PROMO_4G_INTERNET_24M_818"}],"scrapedAt":"2025-08-30T17:42:22.895Z","source":"api"}
{"id":"node/9887774136","address":"Mākoņu iela 23, Egļuciems, Babītes pag., Mārupes nov.","properties":{"addr:street":"Mākoņu iela","addr:housenumber":"23","addr:city":"Egļuciems","addr:postcode":"LV-2107","addr:subdistrict":"Babītes pagasts","addr:district":"Mārupes novads","addr:country":"LV","ref:LV:addr":"104917358"},"geometry":{"type":"Point","coordinates":[23.859036,56.9581493]},"offers":[{"connectionType":"Mobile (4G/5G)","originalTitle":"Mobilais Internets","speed":null,"features":["4G un 5G bezvadu tehnoloģija;","bezmaksas iekārtas uz pakalpojuma lietošanas laiku;","neierobežots mobilo datu apjoms;","vienkārši uzstādīt un ērti paņemt līdzi."],"techInfo":null,"pricePerMonthEur":23.5,"currency":"EUR","terms":null,"promotion":false,"contractTermMonths":0,"promotionCode":null},{"connectionType":"Mobile (4G/5G)","originalTitle":"Mobilais Internets","speed":null,"features":["4G un 5G bezvadu tehnoloģija;","bezmaksas iekārtas uz pakalpojuma lietošanas laiku;","neierobežots mobilo datu apjoms;","vienkārši uzstādīt un ērti paņemt līdzi."],"techInfo":null,"pricePerMonthEur":17.5,"currency":"EUR","terms":["Līgums uz 24 mēnešiem","Jauniem. 4G internets par 16.99 EUR ar 12 mēn. līg., 22-2/2022/818"],"promotion":true,"contractTermMonths":24,"promotionCode":"PROMO_4G_INTERNET_24M_818"}],"scrapedAt":"2025-08-30T17:42:23.140Z","source":"api"}
{"id":"node/9887774139","address":"Mākoņu iela 9, Egļuciems, Babītes pag., Mārupes nov.","properties":{"addr:street":"Mākoņu iela","addr:housenumber":"9","addr:city":"Egļuciems","addr:postcode":"LV-2107","addr:subdistrict":"Babītes pagasts","addr:district":"Mārupes novads","addr:country":"LV","ref:LV:addr":"104916155"},"geometry":{"type":"Point","coordinates":[23.858833,56.95983]},"offers":[{"connectionType":"Mobile (4G/5G)","originalTitle":"Mobilais Internets","speed":null,"features":["4G un 5G bezvadu tehnoloģija;","bezmaksas iekārtas uz pakalpojuma lietošanas laiku;","neierobežots mobilo datu apjoms;","vienkārši uzstādīt un ērti paņemt līdzi."],"techInfo":null,"pricePerMonthEur":23.5,"currency":"EUR","terms":null,"promotion":false,"contractTermMonths":0,"promotionCode":null},{"connectionType":"Mobile (4G/5G)","originalTitle":"Mobilais Internets","speed":null,"features":["4G un 5G bezvadu tehnoloģija;","bezmaksas iekārtas uz pakalpojuma lietošanas laiku;","neierobežots mobilo datu apjoms;","vienkārši uzstādīt un ērti paņemt līdzi."],"techInfo":null,"pricePerMonthEur":17.5,"currency":"EUR","terms":["Līgums uz 24 mēnešiem","Jauniem. 4G internets par 16.99 EUR ar 12 mēn. līg., 22-2/2022/818"],"promotion":true,"contractTermMonths":24,"promotionCode":"PROMO_4G_INTERNET_24M_818"}],"scrapedAt":"2025-08-30T17:42:23.141Z","source":"api"}
{"id":"node/9887774137","address":"Mākoņu iela 21, Egļuciems, Babītes pag., Mārupes nov.","properties":{"addr:street":"Mākoņu iela","addr:housenumber":"21","addr:city":"Egļuciems","addr:postcode":"LV-2107","addr:subdistrict":"Babītes pagasts","addr:district":"Mārupes novads","addr:country":"LV","ref:LV:addr":"104917341"},"geometry":{"type":"Point","coordinates":[23.8588813,56.9583602]},"offers":[{"connectionType":"Mobile (4G/5G)","originalTitle":"Mobilais Internets","speed":null,"features":["4G un 5G bezvadu tehnoloģija;","bezmaksas iekārtas uz pakalpojuma lietošanas laiku;","neierobežots mobilo datu apjoms;","vienkārši uzstādīt un ērti paņemt līdzi."],"techInfo":null,"pricePerMonthEur":23.5,"currency":"EUR","terms":null,"promotion":false,"contractTermMonths":0,"promotionCode":null},{"connectionType":"Mobile (4G/5G)","originalTitle":"Mobilais Internets","speed":null,"features":["4G un 5G bezvadu tehnoloģija;","bezmaksas iekārtas uz pakalpojuma lietošanas laiku;","neierobežots mobilo datu apjoms;","vienkārši uzstādīt un ērti paņemt līdzi."],"techInfo":null,"pricePerMonthEur":17.5,"currency":"EUR","terms":["Līgums uz 24 mēnešiem","Jauniem. 4G internets par 16.99 EUR ar 12 mēn. līg., 22-2/2022/818"],"promotion":true,"contractTermMonths":24,"promotionCode":"PROMO_4G_INTERNET_24M_818"}],"scrapedAt":"2025-08-30T17:42:23.142Z","source":"api"}
{"id":"node/9887774138","address":"Mākoņu iela 11, Egļuciems, Babītes pag., Mārupes nov.","properties":{"addr:street":"Mākoņu iela","addr:housenumber":"11","addr:city":"Egļuciems","addr:postcode":"LV-2107","addr:subdistrict":"Babītes pagasts","addr:district":"Mārupes novads","addr:country":"LV","ref:LV:addr":"104916163"},"geometry":{"type":"Point","coordinates":[23.8589843,56.959567]},"offers":[{"connectionType":"Mobile (4G/5G)","originalTitle":"Mobilais Internets","speed":null,"features":["4G un 5G bezvadu tehnoloģija;","bezmaksas iekārtas uz pakalpojuma lietošanas laiku;","neierobežots mobilo datu apjoms;","vienkārši uzstādīt un ērti paņemt līdzi."],"techInfo":null,"pricePerMonthEur":23.5,"currency":"EUR","terms":null,"promotion":false,"contractTermMonths":0,"promotionCode":null},{"connectionType":"Mobile (4G/5G)","originalTitle":"Mobilais Internets","speed":null,"features":["4G un 5G bezvadu tehnoloģija;","bezmaksas iekārtas uz pakalpojuma lietošanas laiku;","neierobežots mobilo datu apjoms;","vienkārši uzstādīt un ērti paņemt līdzi."],"techInfo":null,"pricePerMonthEur":17.5,"currency":"EUR","terms":["Līgums uz 24 mēnešiem","Jauniem. 4G internets par 16.99 EUR ar 12 mēn. līg., 22-2/2022/818"],"promotion":true,"contractTermMonths":24,"promotionCode":"PROMO_4G_INTERNET_24M_818"}],"scrapedAt":"2025-08-30T17:42:23.143Z","source":"api"}
{"id":"node/9887774141","address":"Mākoņu iela 5, Egļuciems, Babītes pag., Mārupes nov.","properties":{"addr:street":"Mākoņu iela","addr:housenumber":"5","addr:city":"Egļuciems","addr:postcode":"LV-2107","addr:subdistrict":"Babītes pagasts","addr:district":"Mārupes novads","addr:country":"LV","ref:LV:addr":"104916130"},"geometry":{"type":"Point","coordinates":[23.8580109,56.9603752]},"offers":[{"connectionType":"Mobile (4G/5G)","originalTitle":"Mobilais Internets","speed":null,"features":["4G un 5G bezvadu tehnoloģija;","bezmaksas iekārtas uz pakalpojuma lietošanas laiku;","neierobežots mobilo datu apjoms;","vienkārši uzstādīt un ērti paņemt līdzi."],"techInfo":null,"pricePerMonthEur":23.5,"currency":"EUR","terms":null,"promotion":false,"contractTermMonths":0,"promotionCode":null},{"connectionType":"Mobile (4G/5G)","originalTitle":"Mobilais Internets","speed":null,"features":["4G un 5G bezvadu tehnoloģija;","bezmaksas iekārtas uz pakalpojuma lietošanas laiku;","neierobežots mobilo datu apjoms;","vienkārši uzstādīt un ērti paņemt līdzi."],"techInfo":null,"pricePerMonthEur":17.5,"currency":"EUR","terms":["Līgums uz 24 mēnešiem","Jauniem. 4G internets par 16.99 EUR ar 12 mēn. līg., 22-2/2022/818"],"promotion":true,"contractTermMonths":24,"promotionCode":"PROMO_4G_INTERNET_24M_818"}],"scrapedAt":"2025-08-30T17:42:25.391Z","source":"api"}
{"id":"node/9887774142","address":"Mākoņu iela 3, Egļuciems, Babītes pag., Mārupes nov.","properties":{"addr:street":"Mākoņu iela","addr:housenumber":"3","addr:city":"Egļuciems","addr:postcode":"LV-2107","addr:subdistrict":"Babītes pagasts","addr:district":"Mārupes novads","addr:country":"LV","ref:LV:addr":"104916122"},"geometry":{"type":"Point","coordinates":[23.8574186,56.9602476]},"offers":[{"connectionType":"Mobile (4G/5G)","originalTitle":"Mobilais Internets","speed":null,"features":["4G un 5G bezvadu tehnoloģija;","bezmaksas iekārtas uz pakalpojuma lietošanas laiku;","neierobežots mobilo datu apjoms;","vienkārši uzstādīt un ērti paņemt līdzi."],"techInfo":null,"pricePerMonthEur":23.5,"currency":"EUR","terms":null,"promotion":false,"contractTermMonths":0,"promotionCode":null},{"connectionType":"Mobile (4G/5G)","originalTitle":"Mobilais Internets","speed":null,"features":["4G un 5G bezvadu tehnoloģija;","bezmaksas iekārtas uz pakalpojuma lietošanas laiku;","neierobežots mobilo datu apjoms;","vienkārši uzstādīt un ērti paņemt līdzi."],"techInfo":null,"pricePerMonthEur":17.5,"currency":"EUR","terms":["Līgums uz 24 mēnešiem","Jauniem. 4G internets par 16.99 EUR ar 12 mēn. līg., 22-2/2022/818"],"promotion":true,"contractTermMonths":24,"promotionCode":"PROMO_4G_INTERNET_24M_818"}],"scrapedAt":"2025-08-30T17:42:25.722Z","source":"api"}
{"id":"node/9887774145","address":"Mākoņu iela 17, Egļuciems, Babītes pag., Mārupes nov.","properties":{"addr:street":"Mākoņu iela","addr:housenumber":"17","addr:city":"Egļuciems","addr:postcode":"LV-2107","addr:subdistrict":"Babītes pagasts","addr:district":"Mārupes novads","addr:country":"LV","ref:LV:addr":"104916661"},"geometry":{"type":"Point","coordinates":[23.8585044,56.9588006]},"offers":[{"connectionType":"Mobile (4G/5G)","originalTitle":"Mobilais Internets","speed":null,"features":["4G un 5G bezvadu tehnoloģija;","bezmaksas iekārtas uz pakalpojuma lietošanas laiku;","neierobežots mobilo datu apjoms;","vienkārši uzstādīt un ērti paņemt līdzi."],"techInfo":null,"pricePerMonthEur":23.5,"currency":"EUR","terms":null,"promotion":false,"contractTermMonths":0,"promotionCode":null},{"connectionType":"Mobile (4G/5G)","originalTitle":"Mobilais Internets","speed":null,"features":["4G un 5G bezvadu tehnoloģija;","bezmaksas iekārtas uz pakalpojuma lietošanas laiku;","neierobežots mobilo datu apjoms;","vienkārši uzstādīt un ērti paņemt līdzi."],"techInfo":null,"pricePerMonthEur":17.5,"currency":"EUR","terms":["Līgums uz 24 mēnešiem","Jauniem. 4G internets par 16.99 EUR ar 12 mēn. līg., 22-2/2022/818"],"promotion":true,"contractTermMonths":24,"promotionCode":"PROMO_4G_INTERNET_24M_818"}],"scrapedAt":"2025-08-30T17:42:25.724Z","source":"api"}
{"id":"node/9887774144","address":"Mākoņu iela 19, Egļuciems, Babītes pag., Mārupes nov.","properties":{"addr:street":"Mākoņu iela","addr:housenumber":"19","addr:city":"Egļuciems","addr:postcode":"LV-2107","addr:subdistrict":"Babītes pagasts","addr:district":"Mārupes novads","addr:country":"LV","ref:LV:addr":"104916678"},"geometry":{"type":"Point","coordinates":[23.8587021,56.958579]},"offers":[{"connectionType":"Mobile (4G/5G)","originalTitle":"Mobilais Internets","speed":null,"features":["4G un 5G bezvadu tehnoloģija;","bezmaksas iekārtas uz pakalpojuma lietošanas laiku;","neierobežots mobilo datu apjoms;","vienkārši uzstādīt un ērti paņemt līdzi."],"techInfo":null,"pricePerMonthEur":23.5,"currency":"EUR","terms":null,"promotion":false,"contractTermMonths":0,"promotionCode":null},{"connectionType":"Mobile (4G/5G)","originalTitle":"Mobilais Internets","speed":null,"features":["4G un 5G bezvadu tehnoloģija;","bezmaksas iekārtas uz pakalpojuma lietošanas laiku;","neierobežots mobilo datu apjoms;","vienkārši uzstādīt un ērti paņemt līdzi."],"techInfo":null,"pricePerMonthEur":17.5,"currency":"EUR","terms":["Līgums uz 24 mēnešiem","Jauniem. 4G internets par 16.99 EUR ar 12 mēn. līg., 22-2/2022/818"],"promotion":true,"contractTermMonths":24,"promotionCode":"PROMO_4G_INTERNET_24M_818"}],"scrapedAt":"2025-08-30T17:42:25.725Z","source":"api"}
{"id":"node/9887774143","address":"Mākoņu iela 1, Egļuciems, Babītes pag., Mārupes nov.","properties":{"addr:street":"Mākoņu iela","addr:housenumber":"1","addr:city":"Egļuciems","addr:postcode":"LV-2107","addr:subdistrict":"Babītes pagasts","addr:district":"Mārupes novads","addr:country":"LV","ref:LV:addr":"104916114"},"geometry":{"type":"Point","coordinates":[23.8577186,56.9607692]},"offers":[{"connectionType":"Mobile (4G/5G)","originalTitle":"Mobilais Internets","speed":null,"features":["4G un 5G bezvadu tehnoloģija;","bezmaksas iekārtas uz pakalpojuma lietošanas laiku;","neierobežots mobilo datu apjoms;","vienkārši uzstādīt un ērti paņemt līdzi."],"techInfo":null,"pricePerMonthEur":23.5,"currency":"EUR","terms":null,"promotion":false,"contractTermMonths":0,"promotionCode":null},{"connectionType":"Mobile (4G/5G)","originalTitle":"Mobilais Internets","speed":null,"features":["4G un 5G bezvadu tehnoloģija;","bezmaksas iekārtas uz pakalpojuma lietošanas laiku;","neierobežots mobilo datu apjoms;","vienkārši uzstādīt un ērti paņemt līdzi."],"techInfo":null,"pricePerMonthEur":17.5,"currency":"EUR","terms":["Līgums uz 24 mēnešiem","Jauniem. 4G internets par 16.99 EUR ar 12 mēn. līg., 22-2/2022/818"],"promotion":true,"contractTermMonths":24,"promotionCode":"PROMO_4G_INTERNET_24M_818"}],"scrapedAt":"2025-08-30T17:42:25.726Z","source":"api"}
{"id":"node/9887774147","address":"Mākoņu iela 8, Egļuciems, Babītes pag., Mārupes nov.","properties":{"addr:street":"Mākoņu iela","addr:housenumber":"8","addr:city":"Egļuciems","addr:postcode":"LV-2107","addr:subdistrict":"Babītes pagasts","addr:district":"Mārupes novads","addr:country":"LV","ref:LV:addr":"104916557"},"geometry":{"type":"Point","coordinates":[23.8577734,56.9593088]},"offers":[{"connectionType":"Mobile (4G/5G)","originalTitle":"Mobilais Internets","speed":null,"features":["4G un 5G bezvadu tehnoloģija;","bezmaksas iekārtas uz pakalpojuma lietošanas laiku;","neierobežots mobilo datu apjoms;","vienkārši uzstādīt un ērti paņemt līdzi."],"techInfo":null,"pricePerMonthEur":23.5,"currency":"EUR","terms":null,"promotion":false,"contractTermMonths":0,"promotionCode":null},{"connectionType":"Mobile (4G/5G)","originalTitle":"Mobilais Internets","speed":null,"features":["4G un 5G bezvadu tehnoloģija;","bezmaksas iekārtas uz pakalpojuma lietošanas laiku;","neierobežots mobilo datu apjoms;","vienkārši uzstādīt un ērti paņemt līdzi."],"techInfo":null,"pricePerMonthEur":17.5,"currency":"EUR","terms":["Līgums uz 24 mēnešiem","Jauniem. 4G internets par 16.99 EUR ar 12 mēn. līg., 22-2/2022/818"],"promotion":true,"contractTermMonths":24,"promotionCode":"PROMO_4G_INTERNET_24M_818"}],"scrapedAt":"2025-08-30T17:42:27.948Z","source":"api"}
{"id":"node/9887774146","address":"Mākoņu iela 15, Egļuciems, Babītes pag., Mārupes nov.","properties":{"addr:street":"Mākoņu iela","addr:housenumber":"15","addr:city":"Egļuciems","addr:postcode":"LV-2107","addr:subdistrict":"Babītes pagasts","addr:district":"Mārupes novads","addr:country":"LV","ref:LV:addr":"104916653"},"geometry":{"type":"Point","coordinates":[23.858564,56.9590613]},"offers":[{"connectionType":"Mobile (4G/5G)","originalTitle":"Mobilais Internets","speed":null,"features":["4G un 5G bezvadu tehnoloģija;","bezmaksas iekārtas uz pakalpojuma lietošanas laiku;","neierobežots mobilo datu apjoms;","vienkārši uzstādīt un ērti paņemt līdzi."],"techInfo":null,"pricePerMonthEur":23.5,"currency":"EUR","terms":null,"promotion":false,"contractTermMonths":0,"promotionCode":null},{"connectionType":"Mobile (4G/5G)","originalTitle":"Mobilais Internets","speed":null,"features":["4G un 5G bezvadu tehnoloģija;","bezmaksas iekārtas uz pakalpojuma lietošanas laiku;","neierobežots mobilo datu apjoms;","vienkārši uzstādīt un ērti paņemt līdzi."],"techInfo":null,"pricePerMonthEur":17.5,"currency":"EUR","terms":["Līgums uz 24 mēnešiem","Jauniem. 4G internets par 16.99 EUR ar 12 mēn. līg., 22-2/2022/818"],"promotion":true,"contractTermMonths":24,"promotionCode":"PROMO_4G_INTERNET_24M_818"}],"scrapedAt":"2025-08-30T17:42:28.155Z","source":"api"}
{"id":"node/9887774148","address":"Mākoņu iela 6, Egļuciems, Babītes pag., Mārupes nov.","properties":{"addr:street":"Mākoņu iela","addr:housenumber":"6","addr:city":"Egļuciems","addr:postcode":"LV-2107","addr:subdistrict":"Babītes pagasts","addr:district":"Mārupes novads","addr:country":"LV","ref:LV:addr":"104916540"},"geometry":{"type":"Point","coordinates":[23.8581883,56.9594803]},"offers":[{"connectionType":"Mobile (4G/5G)","originalTitle":"Mobilais Internets","speed":null,"features":["4G un 5G bezvadu tehnoloģija;","bezmaksas iekārtas uz pakalpojuma lietošanas laiku;","neierobežots mobilo datu apjoms;","vienkārši uzstādīt un ērti paņemt līdzi."],"techInfo":null,"pricePerMonthEur":23.5,"currency":"EUR","terms":null,"promotion":false,"contractTermMonths":0,"promotionCode":null},{"connectionType":"Mobile (4G/5G)","originalTitle":"Mobilais Internets","speed":null,"features":["4G un 5G bezvadu tehnoloģija;","bezmaksas iekārtas uz pakalpojuma lietošanas laiku;","neierobežots mobilo datu apjoms;","vienkārši uzstādīt un ērti paņemt līdzi."],"techInfo":null,"pricePerMonthEur":17.5,"currency":"EUR","terms":["Līgums uz 24 mēnešiem","Jauniem. 4G internets par 16.99 EUR ar 12 mēn. līg., 22-2/2022/818"],"promotion":true,"contractTermMonths":24,"promotionCode":"PROMO_4G_INTERNET_24M_818"}],"scrapedAt":"2025-08-30T17:42:28.156Z","source":"api"}
{"id":"node/9887774150","address":"Mākoņu iela 2, Egļuciems, Babītes pag., Mārupes nov.","properties":{"addr:street":"Mākoņu iela","addr:housenumber":"2","addr:city":"Egļuciems","addr:postcode":"LV-2107","addr:subdistrict":"Babītes pagasts","addr:district":"Mārupes novads","addr:country":"LV","ref:LV:addr":"104916516"},"geometry":{"type":"Point","coordinates":[23.8574891,56.9597375]},"offers":[{"connectionType":"Mobile (4G/5G)","originalTitle":"Mobilais Internets","speed":null,"features":["4G un 5G bezvadu tehnoloģija;","bezmaksas iekārtas uz pakalpojuma lietošanas laiku;","neierobežots mobilo datu apjoms;","vienkārši uzstādīt un ērti paņemt līdzi."],"techInfo":null,"pricePerMonthEur":23.5,"currency":"EUR","terms":null,"promotion":false,"contractTermMonths":0,"promotionCode":null},{"connectionType":"Mobile (4G/5G)","originalTitle":"Mobilais Internets","speed":null,"features":["4G un 5G bezvadu tehnoloģija;","bezmaksas iekārtas uz pakalpojuma lietošanas laiku;","neierobežots mobilo datu apjoms;","vienkārši uzstādīt un ērti paņemt līdzi."],"techInfo":null,"pricePerMonthEur":17.5,"currency":"EUR","terms":["Līgums uz 24 mēnešiem","Jauniem. 4G internets par 16.99 EUR ar 12 mēn. līg., 22-2/2022/818"],"promotion":true,"contractTermMonths":24,"promotionCode":"PROMO_4G_INTERNET_24M_818"}],"scrapedAt":"2025-08-30T17:42:28.381Z","source":"api"}
{"id":"node/9887774149","address":"Mākoņu iela 4, Egļuciems, Babītes pag., Mārupes nov.","properties":{"addr:street":"Mākoņu iela","addr:housenumber":"4","addr:city":"Egļuciems","addr:postcode":"LV-2107","addr:subdistrict":"Babītes pagasts","addr:district":"Mārupes novads","addr:country":"LV","ref:LV:addr":"104916532"},"geometry":{"type":"Point","coordinates":[23.8579653,56.9598563]},"offers":[{"connectionType":"Mobile (4G/5G)","originalTitle":"Mobilais Internets","speed":null,"features":["4G un 5G bezvadu tehnoloģija;","bezmaksas iekārtas uz pakalpojuma lietošanas laiku;","neierobežots mobilo datu apjoms;","vienkārši uzstādīt un ērti paņemt līdzi."],"techInfo":null,"pricePerMonthEur":23.5,"currency":"EUR","terms":null,"promotion":false,"contractTermMonths":0,"promotionCode":null},{"connectionType":"Mobile (4G/5G)","originalTitle":"Mobilais Internets","speed":null,"features":["4G un 5G bezvadu tehnoloģija;","bezmaksas iekārtas uz pakalpojuma lietošanas laiku;","neierobežots mobilo datu apjoms;","vienkārši uzstādīt un ērti paņemt līdzi."],"techInfo":null,"pricePerMonthEur":17.5,"currency":"EUR","terms":["Līgums uz 24 mēnešiem","Jauniem. 4G internets par 16.99 EUR ar 12 mēn. līg., 22-2/2022/818"],"promotion":true,"contractTermMonths":24,"promotionCode":"PROMO_4G_INTERNET_24M_818"}],"scrapedAt":"2025-08-30T17:42:28.382Z","source":"api"}
{"id":"node/9887774167","address":"Puķu iela 8, Egļuciems, Babītes pag., Mārupes nov.","properties":{"addr:street":"Puķu iela","addr:housenumber":"8","addr:city":"Egļuciems","addr:postcode":"LV-2107","addr:subdistrict":"Babītes pagasts","addr:district":"Mārupes novads","addr:country":"LV","ref:LV:addr":"104919353"},"geometry":{"type":"Point","coordinates":[23.8598776,56.9584231]},"offers":[{"connectionType":"Mobile (4G/5G)","originalTitle":"Mobilais Internets","speed":null,"features":["4G un 5G bezvadu tehnoloģija;","bezmaksas iekārtas uz pakalpojuma lietošanas laiku;","neierobežots mobilo datu apjoms;","vienkārši uzstādīt un ērti paņemt līdzi."],"techInfo":null,"pricePerMonthEur":23.5,"currency":"EUR","terms":null,"promotion":false,"contractTermMonths":0,"promotionCode":null},{"connectionType":"Mobile (4G/5G)","originalTitle":"Mobilais Internets","speed":null,"features":["4G un 5G bezvadu tehnoloģija;","bezmaksas iekārtas uz pakalpojuma lietošanas laiku;","neierobežots mobilo datu apjoms;","vienkārši uzstādīt un ērti paņemt līdzi."],"techInfo":null,"pricePerMonthEur":17.5,"currency":"EUR","terms":["Līgums uz 24 mēnešiem","Jauniem. 4G internets par 16.99 EUR ar 12 mēn. līg., 22-2/2022/818"],"promotion":true,"contractTermMonths":24,"promotionCode":"PROMO_4G_INTERNET_24M_818"}],"scrapedAt":"2025-08-30T17:42:31.005Z","source":"api"}
{"id":"node/9887774164","address":"Puķu iela 9, Egļuciems, Babītes pag., Mārupes nov.","properties":{"addr:street":"Puķu iela","addr:housenumber":"9","addr:city":"Egļuciems","addr:postcode":"LV-2107","addr:subdistrict":"Babītes pagasts","addr:district":"Mārupes novads","addr:country":"LV","ref:LV:addr":"104919394"},"geometry":{"type":"Point","coordinates":[23.8609827,56.9576567]},"offers":[{"connectionType":"Mobile (4G/5G)","originalTitle":"Mobilais Internets","speed":null,"features":["4G un 5G bezvadu tehnoloģija;","bezmaksas iekārtas uz pakalpojuma lietošanas laiku;","neierobežots mobilo datu apjoms;","vienkārši uzstādīt un ērti paņemt līdzi."],"techInfo":null,"pricePerMonthEur":23.5,"currency":"EUR","terms":null,"promotion":false,"contractTermMonths":0,"promotionCode":null},{"connectionType":"Mobile (4G/5G)","originalTitle":"Mobilais Internets","speed":null,"features":["4G un 5G bezvadu tehnoloģija;","bezmaksas iekārtas uz pakalpojuma lietošanas laiku;","neierobežots mobilo datu apjoms;","vienkārši uzstādīt un ērti paņemt līdzi."],"techInfo":null,"pricePerMonthEur":17.5,"currency":"EUR","terms":["Līgums uz 24 mēnešiem","Jauniem. 4G internets par 16.99 EUR ar 12 mēn. līg., 22-2/2022/818"],"promotion":true,"contractTermMonths":24,"promotionCode":"PROMO_4G_INTERNET_24M_818"}],"scrapedAt":"2025-08-30T17:42:31.224Z","source":"api"}
{"id":"node/9887774165","address":"Puķu iela 12, Egļuciems, Babītes pag., Mārupes nov.","properties":{"addr:street":"Puķu iela","addr:housenumber":"12","addr:city":"Egļuciems","addr:postcode":"LV-2107","addr:subdistrict":"Babītes pagasts","addr:district":"Mārupes novads","addr:country":"LV","ref:LV:addr":"104919378"},"geometry":{"type":"Point","coordinates":[23.8599986,56.9578889]},"offers":[{"connectionType":"Mobile (4G/5G)","originalTitle":"Mobilais Internets","speed":null,"features":["4G un 5G bezvadu tehnoloģija;","bezmaksas iekārtas uz pakalpojuma lietošanas laiku;","neierobežots mobilo datu apjoms;","vienkārši uzstādīt un ērti paņemt līdzi."],"techInfo":null,"pricePerMonthEur":23.5,"currency":"EUR","terms":null,"promotion":false,"contractTermMonths":0,"promotionCode":null},{"connectionType":"Mobile (4G/5G)","originalTitle":"Mobilais Internets","speed":null,"features":["4G un 5G bezvadu tehnoloģija;","bezmaksas iekārtas uz pakalpojuma lietošanas laiku;","neierobežots mobilo datu apjoms;","vienkārši uzstādīt un ērti paņemt līdzi."],"techInfo":null,"pricePerMonthEur":17.5,"currency":"EUR","terms":["Līgums uz 24 mēnešiem","Jauniem. 4G internets par 16.99 EUR ar 12 mēn. līg., 22-2/2022/818"],"promotion":true,"contractTermMonths":24,"promotionCode":"PROMO_4G_INTERNET_24M_818"}],"scrapedAt":"2025-08-30T17:42:31.225Z","source":"api"}
{"id":"node/9887774168","address":"Puķu iela 6, Egļuciems, Babītes pag., Mārupes nov.","properties":{"addr:street":"Puķu iela","addr:housenumber":"6","addr:city":"Egļuciems","addr:postcode":"LV-2107","addr:subdistrict":"Babītes pagasts","addr:district":"Mārupes novads","addr:country":"LV","ref:LV:addr":"104919345"},"geometry":{"type":"Point","coordinates":[23.8597605,56.9585963]},"offers":[{"connectionType":"Mobile (4G/5G)","originalTitle":"Mobilais Internets","speed":null,"features":["4G un 5G bezvadu tehnoloģija;","bezmaksas iekārtas uz pakalpojuma lietošanas laiku;","neierobežots mobilo datu apjoms;","vienkārši uzstādīt un ērti paņemt līdzi."],"techInfo":null,"pricePerMonthEur":23.5,"currency":"EUR","terms":null,"promotion":false,"contractTermMonths":0,"promotionCode":null},{"connectionType":"Mobile (4G/5G)","originalTitle":"Mobilais Internets","speed":null,"features":["4G un 5G bezvadu tehnoloģija;","bezmaksas iekārtas uz pakalpojuma lietošanas laiku;","neierobežots mobilo datu apjoms;","vienkārši uzstādīt un ērti paņemt līdzi."],"techInfo":null,"pricePerMonthEur":17.5,"currency":"EUR","terms":["Līgums uz 24 mēnešiem","Jauniem. 4G internets par 16.99 EUR ar 12 mēn. līg., 22-2/2022/818"],"promotion":true,"contractTermMonths":24,"promotionCode":"PROMO_4G_INTERNET_24M_818"}],"scrapedAt":"2025-08-30T17:42:31.226Z","source":"api"}
{"id":"node/9887774166","address":"Puķu iela 10, Egļuciems, Babītes pag., Mārupes nov.","properties":{"addr:street":"Puķu iela","addr:housenumber":"10","addr:city":"Egļuciems","addr:postcode":"LV-2107","addr:subdistrict":"Babītes pagasts","addr:district":"Mārupes novads","addr:country":"LV","ref:LV:addr":"104919361"},"geometry":{"type":"Point","coordinates":[23.86019,56.9581115]},"offers":[{"connectionType":"Mobile (4G/5G)","originalTitle":"Mobilais Internets","speed":null,"features":["4G un 5G bezvadu tehnoloģija;","bezmaksas iekārtas uz pakalpojuma lietošanas laiku;","neierobežots mobilo datu apjoms;","vienkārši uzstādīt un ērti paņemt līdzi."],"techInfo":null,"pricePerMonthEur":23.5,"currency":"EUR","terms":null,"promotion":false,"contractTermMonths":0,"promotionCode":null},{"connectionType":"Mobile (4G/5G)","originalTitle":"Mobilais Internets","speed":null,"features":["4G un 5G bezvadu tehnoloģija;","bezmaksas iekārtas uz pakalpojuma lietošanas laiku;","neierobežots mobilo datu apjoms;","vienkārši uzstādīt un ērti paņemt līdzi."],"techInfo":null,"pricePerMonthEur":17.5,"currency":"EUR","terms":["Līgums uz 24 mēnešiem","Jauniem. 4G internets par 16.99 EUR ar 12 mēn. līg., 22-2/2022/818"],"promotion":true,"contractTermMonths":24,"promotionCode":"PROMO_4G_INTERNET_24M_818"}],"scrapedAt":"2025-08-30T17:42:31.227Z","source":"api"}
{"id":"node/9887774170","address":"Puķu iela 2, Egļuciems, Babītes pag., Mārupes nov.","properties":{"addr:street":"Puķu iela","addr:housenumber":"2","addr:city":"Egļuciems","addr:postcode":"LV-2107","addr:subdistrict":"Babītes pagasts","addr:district":"Mārupes novads","addr:country":"LV","ref:LV:addr":"104919320"},"geometry":{"type":"Point","coordinates":[23.8594808,56.9590264]},"offers":[{"connectionType":"Mobile (4G/5G)","originalTitle":"Mobilais Internets","speed":null,"features":["4G un 5G bezvadu tehnoloģija;","bezmaksas iekārtas uz pakalpojuma lietošanas laiku;","neierobežots mobilo datu apjoms;","vienkārši uzstādīt un ērti paņemt līdzi."],"techInfo":null,"pricePerMonthEur":23.5,"currency":"EUR","terms":null,"promotion":false,"contractTermMonths":0,"promotionCode":null},{"connectionType":"Mobile (4G/5G)","originalTitle":"Mobilais Internets","speed":null,"features":["4G un 5G bezvadu tehnoloģija;","bezmaksas iekārtas uz pakalpojuma lietošanas laiku;","neierobežots mobilo datu apjoms;","vienkārši uzstādīt un ērti paņemt līdzi."],"techInfo":null,"pricePerMonthEur":17.5,"currency":"EUR","terms":["Līgums uz 24 mēnešiem","Jauniem. 4G internets par 16.99 EUR ar 12 mēn. līg., 22-2/2022/818"],"promotion":true,"contractTermMonths":24,"promotionCode":"PROMO_4G_INTERNET_24M_818"}],"scrapedAt":"2025-08-30T17:42:33.572Z","source":"api"}
{"id":"node/9887774169","address":"Puķu iela 4, Egļuciems, Babītes pag., Mārupes nov.","properties":{"addr:street":"Puķu iela","addr:housenumber":"4","addr:city":"Egļuciems","addr:postcode":"LV-2107","addr:subdistrict":"Babītes pagasts","addr:district":"Mārupes novads","addr:country":"LV","ref:LV:addr":"104919337"},"geometry":{"type":"Point","coordinates":[23.8596116,56.9588102]},"offers":[{"connectionType":"Mobile (4G/5G)","originalTitle":"Mobilais Internets","speed":null,"features":["4G un 5G bezvadu tehnoloģija;","bezmaksas iekārtas uz pakalpojuma lietošanas laiku;","neierobežots mobilo datu apjoms;","vienkārši uzstādīt un ērti paņemt līdzi."],"techInfo":null,"pricePerMonthEur":23.5,"currency":"EUR","terms":null,"promotion":false,"contractTermMonths":0,"promotionCode":null},{"connectionType":"Mobile (4G/5G)","originalTitle":"Mobilais Internets","speed":null,"features":["4G un 5G bezvadu tehnoloģija;","bezmaksas iekārtas uz pakalpojuma lietošanas laiku;","neierobežots mobilo datu apjoms;","vienkārši uzstādīt un ērti paņemt līdzi."],"techInfo":null,"pricePerMonthEur":17.5,"currency":"EUR","terms":["Līgums uz 24 mēnešiem","Jauniem. 4G internets par 16.99 EUR ar 12 mēn. līg., 22-2/2022/818"],"promotion":true,"contractTermMonths":24,"promotionCode":"PROMO_4G_INTERNET_24M_818"}],"scrapedAt":"2025-08-30T17:42:33.789Z","source":"api"}
{"id":"node/9887774171","address":"Puķu iela 1, Egļuciems, Babītes pag., Mārupes nov.","properties":{"addr:street":"Puķu iela","addr:housenumber":"1","addr:city":"Egļuciems","addr:postcode":"LV-2107","addr:subdistrict":"Babītes pagasts","addr:district":"Mārupes novads","addr:country":"LV","ref:LV:addr":"104919298"},"geometry":{"type":"Point","coordinates":[23.8595841,56.9595959]},"offers":[{"connectionType":"Mobile (4G/5G)","originalTitle":"Mobilais Internets","speed":null,"features":["4G un 5G bezvadu tehnoloģija;","bezmaksas iekārtas uz pakalpojuma lietošanas laiku;","neierobežots mobilo datu apjoms;","vienkārši uzstādīt un ērti paņemt līdzi."],"techInfo":null,"pricePerMonthEur":23.5,"currency":"EUR","terms":null,"promotion":false,"contractTermMonths":0,"promotionCode":null},{"connectionType":"Mobile (4G/5G)","originalTitle":"Mobilais Internets","speed":null,"features":["4G un 5G bezvadu tehnoloģija;","bezmaksas iekārtas uz pakalpojuma lietošanas laiku;","neierobežots mobilo datu apjoms;","vienkārši uzstādīt un ērti paņemt līdzi."],"techInfo":null,"pricePerMonthEur":17.5,"currency":"EUR","terms":["Līgums uz 24 mēnešiem","Jauniem. 4G internets par 16.99 EUR ar 12 mēn. līg., 22-2/2022/818"],"promotion":true,"contractTermMonths":24,"promotionCode":"PROMO_4G_INTERNET_24M_818"}],"scrapedAt":"2025-08-30T17:42:33.790Z","source":"api"}
{"id":"node/9887776287","address":"Mākoņu iela 14, Egļuciems, Babītes pag., Mārupes nov.","properties":{"addr:street":"Mākoņu iela","addr:housenumber":"14","addr:city":"Egļuciems","addr:postcode":"LV-2107","addr:subdistrict":"Babītes pagasts","addr:district":"Mārupes novads","addr:country":"LV","ref:LV:addr":"104916758"},"geometry":{"type":"Point","coordinates":[23.8590853,56.9591631]},"offers":[{"connectionType":"Mobile (4G/5G)","originalTitle":"Mobilais Internets","speed":null,"features":["4G un 5G bezvadu tehnoloģija;","bezmaksas iekārtas uz pakalpojuma lietošanas laiku;","neierobežots mobilo datu apjoms;","vienkārši uzstādīt un ērti paņemt līdzi."],"techInfo":null,"pricePerMonthEur":23.5,"currency":"EUR","terms":null,"promotion":false,"contractTermMonths":0,"promotionCode":null},{"connectionType":"Mobile (4G/5G)","originalTitle":"Mobilais Internets","speed":null,"features":["4G un 5G bezvadu tehnoloģija;","bezmaksas iekārtas uz pakalpojuma lietošanas laiku;","neierobežots mobilo datu apjoms;","vienkārši uzstādīt un ērti paņemt līdzi."],"techInfo":null,"pricePerMonthEur":17.5,"currency":"EUR","terms":["Līgums uz 24 mēnešiem","Jauniem. 4G internets par 16.99 EUR ar 12 mēn. līg., 22-2/2022/818"],"promotion":true,"contractTermMonths":24,"promotionCode":"PROMO_4G_INTERNET_24M_818"}],"scrapedAt":"2025-08-30T17:48:39.514Z","source":"api"}
{"id":"node/9887776286","address":"Rasas iela 5, Egļuciems, Babītes pag., Mārupes nov.","properties":{"addr:street":"Rasas iela","addr:housenumber":"5","addr:city":"Egļuciems","addr:postcode":"LV-2107","addr:subdistrict":"Babītes pagasts","addr:district":"Mārupes novads","addr:country":"LV","ref:LV:addr":"104917622"},"geometry":{"type":"Point","coordinates":[23.8592639,56.9600813]},"offers":[{"connectionType":"Mobile (4G/5G)","originalTitle":"Mobilais Internets","speed":null,"features":["4G un 5G bezvadu tehnoloģija;","bezmaksas iekārtas uz pakalpojuma lietošanas laiku;","neierobežots mobilo datu apjoms;","vienkārši uzstādīt un ērti paņemt līdzi."],"techInfo":null,"pricePerMonthEur":23.5,"currency":"EUR","terms":null,"promotion":false,"contractTermMonths":0,"promotionCode":null},{"connectionType":"Mobile (4G/5G)","originalTitle":"Mobilais Internets","speed":null,"features":["4G un 5G bezvadu tehnoloģija;","bezmaksas iekārtas uz pakalpojuma lietošanas laiku;","neierobežots mobilo datu apjoms;","vienkārši uzstādīt un ērti paņemt līdzi."],"techInfo":null,"pricePerMonthEur":17.5,"currency":"EUR","terms":["Līgums uz 24 mēnešiem","Jauniem. 4G internets par 16.99 EUR ar 12 mēn. līg., 22-2/2022/818"],"promotion":true,"contractTermMonths":24,"promotionCode":"PROMO_4G_INTERNET_24M_818"}],"scrapedAt":"2025-08-30T17:48:39.791Z","source":"api"}
