{"id":"way/1080688152","address":"Ošu iela 2, Gātciems, Salas pag., Mārupes nov.","properties":{"addr:street":"Ošu iela","addr:housenumber":"2","addr:city":"Gātciems","addr:postcode":"LV-2105","addr:subdistrict":"Salas pagasts","addr:district":"Mārupes novads","addr:country":"LV","ref:LV:addr":"106738374"},"geometry":{"type":"Polygon","coordinates":[[[23.6178008,56.9222015],[23.6179607,56.9222835],[23.617946,56.9222921],[23.6180344,56.9223374],[23.6179624,56.9223792],[23.6178757,56.9223348],[23.61786,56.9223439],[23.6178079,56.9223172],[23.6178219,56.9223091],[23.6177753,56.9222852],[23.6177643,56.9222916],[23.6177013,56.9222593],[23.6178008,56.9222015]]]},"offers":[{"connectionType":"Mobile (4G/5G)","originalTitle":"Mobilais Internets","speed":null,"features":["4G un 5G bezvadu tehnoloģija;","bezmaksas iekārtas uz pakalpojuma lietošanas laiku;","neierobežots mobilo datu apjoms;","vienkārši uzstādīt un ērti paņemt līdzi."],"techInfo":null,"pricePerMonthEur":23.5,"currency":"EUR","terms":null,"promotion":false,"contractTermMonths":0,"promotionCode":null},{"connectionType":"Mobile (4G/5G)","originalTitle":"Mobilais Internets","speed":null,"features":["4G un 5G bezvadu tehnoloģija;","bezmaksas iekārtas uz pakalpojuma lietošanas laiku;","neierobežots mobilo datu apjoms;","vienkārši uzstādīt un ērti paņemt līdzi."],"techInfo":null,"pricePerMonthEur":17.5,"currency":"EUR","terms":["Līgums uz 24 mēnešiem","Jauniem. 4G internets par 16.99 EUR ar 12 mēn. līg., 22-2/2022/818"],"promotion":true,"contractTermMonths":24,"promotionCode":"PROMO_4G_INTERNET_24M_818"}],"scrapedAt":"2025-08-30T17:06:49.032Z","source":"api"}
{"id":"node/9887774444","address":"Gulbju ceļš 13, Gātciems, Salas pag., Mārupes nov.","properties":{"addr:street":"Gulbju ceļš","addr:housenumber":"13","addr:city":"Gātciems","addr:postcode":"LV-2105","addr:subdistrict":"Salas pagasts","addr:district":"Mārupes novads","addr:country":"LV","ref:LV:addr":"105148387"},"geometry":{"type":"Point","coordinates":[23.6313179,56.9233671]},"offers":[{"connectionType":"Mobile (4G/5G)","originalTitle":"Mobilais Internets","speed":null,"features":["4G un 5G bezvadu tehnoloģija;","bezmaksas iekārtas uz pakalpojuma lietošanas laiku;","neierobežots mobilo datu apjoms;","vienkārši uzstādīt un ērti paņemt līdzi."],"techInfo":null,"pricePerMonthEur":23.5,"currency":"EUR","terms":null,"promotion":false,"contractTermMonths":0,"promotionCode":null},{"connectionType":"Mobile (4G/5G)","originalTitle":"Mobilais Internets","speed":null,"features":["4G un 5G bezvadu tehnoloģija;","bezmaksas iekārtas uz pakalpojuma lietošanas laiku;","neierobežots mobilo datu apjoms;","vienkārši uzstādīt un ērti paņemt līdzi."],"techInfo":null,"pricePerMonthEur":17.5,"currency":"EUR","terms":["Līgums uz 24 mēnešiem","Jauniem. 4G internets par 16.99 EUR ar 12 mēn. līg., 22-2/2022/818"],"promotion":true,"contractTermMonths":24,"promotionCode":"PROMO_4G_INTERNET_24M_818"}],"scrapedAt":"2025-08-30T17:43:07.343Z","source":"api"}
{"id":"node/9887774445","address":"Gulbju ceļš 12, Gātciems, Salas pag., Mārupes nov.","properties":{"addr:street":"Gulbju ceļš","addr:housenumber":"12","addr:city":"Gātciems","addr:postcode":"LV-2105","addr:subdistrict":"Salas pagasts","addr:district":"Mārupes novads","addr:country":"LV","ref:LV:addr":"105148370"},"geometry":{"type":"Point","coordinates":[23.6316089,56.9230836]},"offers":[{"connectionType":"Mobile (4G/5G)","originalTitle":"Mobilais Internets","speed":null,"features":["4G un 5G bezvadu tehnoloģija;","bezmaksas iekārtas uz pakalpojuma lietošanas laiku;","neierobežots mobilo datu apjoms;","vienkārši uzstādīt un ērti paņemt līdzi."],"techInfo":null,"pricePerMonthEur":23.5,"currency":"EUR","terms":null,"promotion":false,"contractTermMonths":0,"promotionCode":null},{"connectionType":"Mobile (4G/5G)","originalTitle":"Mobilais Internets","speed":null,"features":["4G un 5G bezvadu tehnoloģija;","bezmaksas iekārtas uz pakalpojuma lietošanas laiku;","neierobežots mobilo datu apjoms;","vienkārši uzstādīt un ērti paņemt līdzi."],"techInfo":null,"pricePerMonthEur":17.5,"currency":"EUR","terms":["Līgums uz 24 mēnešiem","Jauniem. 4G internets par 16.99 EUR ar 12 mēn. līg., 22-2/2022/818"],"promotion":true,"contractTermMonths":24,"promotionCode":"PROMO_4G_INTERNET_24M_818"}],"scrapedAt":"2025-08-30T17:43:07.344Z","source":"api"}
{"id":"node/9887774450","address":"Gulbju ceļš 5, Gātciems, Salas pag., Mārupes nov.","properties":{"addr:street":"Gulbju ceļš","addr:housenumber":"5","addr:city":"Gātciems","addr:postcode":"LV-2105","addr:subdistrict":"Salas pagasts","addr:district":"Mārupes novads","addr:country":"LV","ref:LV:addr":"105148305"},"geometry":{"type":"Point","coordinates":[23.6306913,56.9207214]},"offers":[{"connectionType":"Mobile (4G/5G)","originalTitle":"Mobilais Internets","speed":null,"features":["4G un 5G bezvadu tehnoloģija;","bezmaksas iekārtas uz pakalpojuma lietošanas laiku;","neierobežots mobilo datu apjoms;","vienkārši uzstādīt un ērti paņemt līdzi."],"techInfo":null,"pricePerMonthEur":23.5,"currency":"EUR","terms":null,"promotion":false,"contractTermMonths":0,"promotionCode":null},{"connectionType":"Mobile (4G/5G)","originalTitle":"Mobilais Internets","speed":null,"features":["4G un 5G bezvadu tehnoloģija;","bezmaksas iekārtas uz pakalpojuma lietošanas laiku;","neierobežots mobilo datu apjoms;","vienkārši uzstādīt un ērti paņemt līdzi."],"techInfo":null,"pricePerMonthEur":17.5,"currency":"EUR","terms":["Līgums uz 24 mēnešiem","Jauniem. 4G internets par 16.99 EUR ar 12 mēn. līg., 22-2/2022/818"],"promotion":true,"contractTermMonths":24,"promotionCode":"PROMO_4G_INTERNET_24M_818"}],"scrapedAt":"2025-08-30T17:43:09.217Z","source":"api"}
{"id":"node/9887774448","address":"Gulbju ceļš 8, Gātciems, Salas pag., Mārupes nov.","properties":{"addr:street":"Gulbju ceļš","addr:housenumber":"8","addr:city":"Gātciems","addr:postcode":"LV-2105","addr:subdistrict":"Salas pagasts","addr:district":"Mārupes novads","addr:country":"LV","ref:LV:addr":"105148338"},"geometry":{"type":"Point","coordinates":[23.6309094,56.9217459]},"offers":[{"connectionType":"Mobile (4G/5G)","originalTitle":"Mobilais Internets","speed":null,"features":["4G un 5G bezvadu tehnoloģija;","bezmaksas iekārtas uz pakalpojuma lietošanas laiku;","neierobežots mobilo datu apjoms;","vienkārši uzstādīt un ērti paņemt līdzi."],"techInfo":null,"pricePerMonthEur":23.5,"currency":"EUR","terms":null,"promotion":false,"contractTermMonths":0,"promotionCode":null},{"connectionType":"Mobile (4G/5G)","originalTitle":"Mobilais Internets","speed":null,"features":["4G un 5G bezvadu tehnoloģija;","bezmaksas iekārtas uz pakalpojuma lietošanas laiku;","neierobežots mobilo datu apjoms;","vienkārši uzstādīt un ērti paņemt līdzi."],"techInfo":null,"pricePerMonthEur":17.5,"currency":"EUR","terms":["Līgums uz 24 mēnešiem","Jauniem. 4G internets par 16.99 EUR ar 12 mēn. līg., 22-2/2022/818"],"promotion":true,"contractTermMonths":24,"promotionCode":"PROMO_4G_INTERNET_24M_818"}],"scrapedAt":"2025-08-30T17:43:09.422Z","source":"api"}
{"id":"node/9887774449","address":"Gulbju ceļš 7, Gātciems, Salas pag., Mārupes nov.","properties":{"addr:street":"Gulbju ceļš","addr:housenumber":"7","addr:city":"Gātciems","addr:postcode":"LV-2105","addr:subdistrict":"Salas pagasts","addr:district":"Mārupes novads","addr:country":"LV","ref:LV:addr":"105148321"},"geometry":{"type":"Point","coordinates":[23.630878,56.9213927]},"offers":[{"connectionType":"Mobile (4G/5G)","originalTitle":"Mobilais Internets","speed":null,"features":["4G un 5G bezvadu tehnoloģija;","bezmaksas iekārtas uz pakalpojuma lietošanas laiku;","neierobežots mobilo datu apjoms;","vienkārši uzstādīt un ērti paņemt līdzi."],"techInfo":null,"pricePerMonthEur":23.5,"currency":"EUR","terms":null,"promotion":false,"contractTermMonths":0,"promotionCode":null},{"connectionType":"Mobile (4G/5G)","originalTitle":"Mobilais Internets","speed":null,"features":["4G un 5G bezvadu tehnoloģija;","bezmaksas iekārtas uz pakalpojuma lietošanas laiku;","neierobežots mobilo datu apjoms;","vienkārši uzstādīt un ērti paņemt līdzi."],"techInfo":null,"pricePerMonthEur":17.5,"currency":"EUR","terms":["Līgums uz 24 mēnešiem","Jauniem. 4G internets par 16.99 EUR ar 12 mēn. līg., 22-2/2022/818"],"promotion":true,"contractTermMonths":24,"promotionCode":"PROMO_4G_INTERNET_24M_818"}],"scrapedAt":"2025-08-30T17:43:09.643Z","source":"api"}
{"id":"node/9887774447","address":"Gulbju ceļš 9, Gātciems, Salas pag., Mārupes nov.","properties":{"addr:street":"Gulbju ceļš","addr:housenumber":"9","addr:city":"Gātciems","addr:postcode":"LV-2105","addr:subdistrict":"Salas pagasts","addr:district":"Mārupes novads","addr:country":"LV","ref:LV:addr":"105148346"},"geometry":{"type":"Point","coordinates":[23.6309803,56.9220924]},"offers":[{"connectionType":"Mobile (4G/5G)","originalTitle":"Mobilais Internets","speed":null,"features":["4G un 5G bezvadu tehnoloģija;","bezmaksas iekārtas uz pakalpojuma lietošanas laiku;","neierobežots mobilo datu apjoms;","vienkārši uzstādīt un ērti paņemt līdzi."],"techInfo":null,"pricePerMonthEur":23.5,"currency":"EUR","terms":null,"promotion":false,"contractTermMonths":0,"promotionCode":null},{"connectionType":"Mobile (4G/5G)","originalTitle":"Mobilais Internets","speed":null,"features":["4G un 5G bezvadu tehnoloģija;","bezmaksas iekārtas uz pakalpojuma lietošanas laiku;","neierobežots mobilo datu apjoms;","vienkārši uzstādīt un ērti paņemt līdzi."],"techInfo":null,"pricePerMonthEur":17.5,"currency":"EUR","terms":["Līgums uz 24 mēnešiem","Jauniem. 4G internets par 16.99 EUR ar 12 mēn. līg., 22-2/2022/818"],"promotion":true,"contractTermMonths":24,"promotionCode":"PROMO_4G_INTERNET_24M_818"}],"scrapedAt":"2025-08-30T17:43:09.644Z","source":"api"}
{"id":"node/9887774446","address":"Gulbju ceļš 11, Gātciems, Salas pag., Mārupes nov.","properties":{"addr:street":"Gulbju ceļš","addr:housenumber":"11","addr:city":"Gātciems","addr:postcode":"LV-2105","addr:subdistrict":"Salas pagasts","addr:district":"Mārupes novads","addr:country":"LV","ref:LV:addr":"105148362"},"geometry":{"type":"Point","coordinates":[23.6315121,56.9227429]},"offers":[{"connectionType":"Mobile (4G/5G)","originalTitle":"Mobilais Internets","speed":null,"features":["4G un 5G bezvadu tehnoloģija;","bezmaksas iekārtas uz pakalpojuma lietošanas laiku;","neierobežots mobilo datu apjoms;","vienkārši uzstādīt un ērti paņemt līdzi."],"techInfo":null,"pricePerMonthEur":23.5,"currency":"EUR","terms":null,"promotion":false,"contractTermMonths":0,"promotionCode":null},{"connectionType":"Mobile (4G/5G)","originalTitle":"Mobilais Internets","speed":null,"features":["4G un 5G bezvadu tehnoloģija;","bezmaksas iekārtas uz pakalpojuma lietošanas laiku;","neierobežots mobilo datu apjoms;","vienkārši uzstādīt un ērti paņemt līdzi."],"techInfo":null,"pricePerMonthEur":17.5,"currency":"EUR","terms":["Līgums uz 24 mēnešiem","Jauniem. 4G internets par 16.99 EUR ar 12 mēn. līg., 22-2/2022/818"],"promotion":true,"contractTermMonths":24,"promotionCode":"PROMO_4G_INTERNET_24M_818"}],"scrapedAt":"2025-08-30T17:43:10.093Z","source":"api"}
{"id":"node/9887774451","address":"Gulbju ceļš 3, Gātciems, Salas pag., Mārupes nov.","properties":{"addr:street":"Gulbju ceļš","addr:housenumber":"3","addr:city":"Gātciems","addr:postcode":"LV-2105","addr:subdistrict":"Salas pagasts","addr:district":"Mārupes novads","addr:country":"LV","ref:LV:addr":"105148282"},"geometry":{"type":"Point","coordinates":[23.6305171,56.9200695]},"offers":[{"connectionType":"Mobile (4G/5G)","originalTitle":"Mobilais Internets","speed":null,"features":["4G un 5G bezvadu tehnoloģija;","bezmaksas iekārtas uz pakalpojuma lietošanas laiku;","neierobežots mobilo datu apjoms;","vienkārši uzstādīt un ērti paņemt līdzi."],"techInfo":null,"pricePerMonthEur":23.5,"currency":"EUR","terms":null,"promotion":false,"contractTermMonths":0,"promotionCode":null},{"connectionType":"Mobile (4G/5G)","originalTitle":"Mobilais Internets","speed":null,"features":["4G un 5G bezvadu tehnoloģija;","bezmaksas iekārtas uz pakalpojuma lietošanas laiku;","neierobežots mobilo datu apjoms;","vienkārši uzstādīt un ērti paņemt līdzi."],"techInfo":null,"pricePerMonthEur":17.5,"currency":"EUR","terms":["Līgums uz 24 mēnešiem","Jauniem. 4G internets par 16.99 EUR ar 12 mēn. līg., 22-2/2022/818"],"promotion":true,"contractTermMonths":24,"promotionCode":"PROMO_4G_INTERNET_24M_818"}],"scrapedAt":"2025-08-30T17:43:11.824Z","source":"api"}
{"id":"node/9887774738","address":"Gulbju ceļš 6, Gātciems, Salas pag., Mārupes nov.","properties":{"addr:street":"Gulbju ceļš","addr:housenumber":"6","addr:city":"Gātciems","addr:postcode":"LV-2105","addr:subdistrict":"Salas pagasts","addr:district":"Mārupes novads","addr:country":"LV","ref:LV:addr":"105148313"},"geometry":{"type":"Point","coordinates":[23.6307926,56.9210648]},"offers":[{"connectionType":"Mobile (4G/5G)","originalTitle":"Mobilais Internets","speed":null,"features":["4G un 5G bezvadu tehnoloģija;","bezmaksas iekārtas uz pakalpojuma lietošanas laiku;","neierobežots mobilo datu apjoms;","vienkārši uzstādīt un ērti paņemt līdzi."],"techInfo":null,"pricePerMonthEur":23.5,"currency":"EUR","terms":null,"promotion":false,"contractTermMonths":0,"promotionCode":null},{"connectionType":"Mobile (4G/5G)","originalTitle":"Mobilais Internets","speed":null,"features":["4G un 5G bezvadu tehnoloģija;","bezmaksas iekārtas uz pakalpojuma lietošanas laiku;","neierobežots mobilo datu apjoms;","vienkārši uzstādīt un ērti paņemt līdzi."],"techInfo":null,"pricePerMonthEur":17.5,"currency":"EUR","terms":["Līgums uz 24 mēnešiem","Jauniem. 4G internets par 16.99 EUR ar 12 mēn. līg., 22-2/2022/818"],"promotion":true,"contractTermMonths":24,"promotionCode":"PROMO_4G_INTERNET_24M_818"}],"scrapedAt":"2025-08-30T17:44:16.727Z","source":"api"}
{"id":"node/9887774737","address":"Gulbju ceļš 10, Gātciems, Salas pag., Mārupes nov.","properties":{"addr:street":"Gulbju ceļš","addr:housenumber":"10","addr:city":"Gātciems","addr:postcode":"LV-2105","addr:subdistrict":"Salas pagasts","addr:district":"Mārupes novads","addr:country":"LV","ref:LV:addr":"105148354"},"geometry":{"type":"Point","coordinates":[23.6310859,56.9224172]},"offers":[{"connectionType":"Mobile (4G/5G)","originalTitle":"Mobilais Internets","speed":null,"features":["4G un 5G bezvadu tehnoloģija;","bezmaksas iekārtas uz pakalpojuma lietošanas laiku;","neierobežots mobilo datu apjoms;","vienkārši uzstādīt un ērti paņemt līdzi."],"techInfo":null,"pricePerMonthEur":23.5,"currency":"EUR","terms":null,"promotion":false,"contractTermMonths":0,"promotionCode":null},{"connectionType":"Mobile (4G/5G)","originalTitle":"Mobilais Internets","speed":null,"features":["4G un 5G bezvadu tehnoloģija;","bezmaksas iekārtas uz pakalpojuma lietošanas laiku;","neierobežots mobilo datu apjoms;","vienkārši uzstādīt un ērti paņemt līdzi."],"techInfo":null,"pricePerMonthEur":17.5,"currency":"EUR","terms":["Līgums uz 24 mēnešiem","Jauniem. 4G internets par 16.99 EUR ar 12 mēn. līg., 22-2/2022/818"],"promotion":true,"contractTermMonths":24,"promotionCode":"PROMO_4G_INTERNET_24M_818"}],"scrapedAt":"2025-08-30T17:44:17.197Z","source":"api"}
{"id":"node/9887774739","address":"Gulbju ceļš 4, Gātciems, Salas pag., Mārupes nov.","properties":{"addr:street":"Gulbju ceļš","addr:housenumber":"4","addr:city":"Gātciems","addr:postcode":"LV-2105","addr:subdistrict":"Salas pagasts","addr:district":"Mārupes novads","addr:country":"LV","ref:LV:addr":"105148290"},"geometry":{"type":"Point","coordinates":[23.6306211,56.9204219]},"offers":[{"connectionType":"Mobile (4G/5G)","originalTitle":"Mobilais Internets","speed":null,"features":["4G un 5G bezvadu tehnoloģija;","bezmaksas iekārtas uz pakalpojuma lietošanas laiku;","neierobežots mobilo datu apjoms;","vienkārši uzstādīt un ērti paņemt līdzi."],"techInfo":null,"pricePerMonthEur":23.5,"currency":"EUR","terms":null,"promotion":false,"contractTermMonths":0,"promotionCode":null},{"connectionType":"Mobile (4G/5G)","originalTitle":"Mobilais Internets","speed":null,"features":["4G un 5G bezvadu tehnoloģija;","bezmaksas iekārtas uz pakalpojuma lietošanas laiku;","neierobežots mobilo datu apjoms;","vienkārši uzstādīt un ērti paņemt līdzi."],"techInfo":null,"pricePerMonthEur":17.5,"currency":"EUR","terms":["Līgums uz 24 mēnešiem","Jauniem. 4G internets par 16.99 EUR ar 12 mēn. līg., 22-2/2022/818"],"promotion":true,"contractTermMonths":24,"promotionCode":"PROMO_4G_INTERNET_24M_818"}],"scrapedAt":"2025-08-30T17:44:18.993Z","source":"api"}
{"id":"node/9887774741","address":"Gulbju ceļš 1, Gātciems, Salas pag., Mārupes nov.","properties":{"addr:street":"Gulbju ceļš","addr:housenumber":"1","addr:city":"Gātciems","addr:postcode":"LV-2105","addr:subdistrict":"Salas pagasts","addr:district":"Mārupes novads","addr:country":"LV","ref:LV:addr":"105148266"},"geometry":{"type":"Point","coordinates":[23.6302892,56.9194414]},"offers":[{"connectionType":"Mobile (4G/5G)","originalTitle":"Mobilais Internets","speed":null,"features":["4G un 5G bezvadu tehnoloģija;","bezmaksas iekārtas uz pakalpojuma lietošanas laiku;","neierobežots mobilo datu apjoms;","vienkārši uzstādīt un ērti paņemt līdzi."],"techInfo":null,"pricePerMonthEur":23.5,"currency":"EUR","terms":null,"promotion":false,"contractTermMonths":0,"promotionCode":null},{"connectionType":"Mobile (4G/5G)","originalTitle":"Mobilais Internets","speed":null,"features":["4G un 5G bezvadu tehnoloģija;","bezmaksas iekārtas uz pakalpojuma lietošanas laiku;","neierobežots mobilo datu apjoms;","vienkārši uzstādīt un ērti paņemt līdzi."],"techInfo":null,"pricePerMonthEur":17.5,"currency":"EUR","terms":["Līgums uz 24 mēnešiem","Jauniem. 4G internets par 16.99 EUR ar 12 mēn. līg., 22-2/2022/818"],"promotion":true,"contractTermMonths":24,"promotionCode":"PROMO_4G_INTERNET_24M_818"}],"scrapedAt":"2025-08-30T17:44:19.257Z","source":"api"}
{"id":"node/9887774740","address":"Gulbju ceļš 2, Gātciems, Salas pag., Mārupes nov.","properties":{"addr:street":"Gulbju ceļš","addr:housenumber":"2","addr:city":"Gātciems","addr:postcode":"LV-2105","addr:subdistrict":"Salas pagasts","addr:district":"Mārupes novads","addr:country":"LV","ref:LV:addr":"105148274"},"geometry":{"type":"Point","coordinates":[23.6304492,56.9197508]},"offers":[{"connectionType":"Mobile (4G/5G)","originalTitle":"Mobilais Internets","speed":null,"features":["4G un 5G bezvadu tehnoloģija;","bezmaksas iekārtas uz pakalpojuma lietošanas laiku;","neierobežots mobilo datu apjoms;","vienkārši uzstādīt un ērti paņemt līdzi."],"techInfo":null,"pricePerMonthEur":23.5,"currency":"EUR","terms":null,"promotion":false,"contractTermMonths":0,"promotionCode":null},{"connectionType":"Mobile (4G/5G)","originalTitle":"Mobilais Internets","speed":null,"features":["4G un 5G bezvadu tehnoloģija;","bezmaksas iekārtas uz pakalpojuma lietošanas laiku;","neierobežots mobilo datu apjoms;","vienkārši uzstādīt un ērti paņemt līdzi."],"techInfo":null,"pricePerMonthEur":17.5,"currency":"EUR","terms":["Līgums uz 24 mēnešiem","Jauniem. 4G internets par 16.99 EUR ar 12 mēn. līg., 22-2/2022/818"],"promotion":true,"contractTermMonths":24,"promotionCode":"PROMO_4G_INTERNET_24M_818"}],"scrapedAt":"2025-08-30T17:44:19.496Z","source":"api"}
{"id":"node/9887774746","address":"Mazais Gulbju ceļš 1, Gātciems, Salas pag., Mārupes nov.","properties":{"addr:street":"Mazais Gulbju ceļš","addr:housenumber":"1","addr:city":"Gātciems","addr:postcode":"LV-2105","addr:subdistrict":"Salas pagasts","addr:district":"Mārupes novads","addr:country":"LV","ref:LV:addr":"105148395"},"geometry":{"type":"Point","coordinates":[23.6301459,56.9192208]},"offers":[{"connectionType":"Mobile (4G/5G)","originalTitle":"Mobilais Internets","speed":null,"features":["4G un 5G bezvadu tehnoloģija;","bezmaksas iekārtas uz pakalpojuma lietošanas laiku;","neierobežots mobilo datu apjoms;","vienkārši uzstādīt un ērti paņemt līdzi."],"techInfo":null,"pricePerMonthEur":23.5,"currency":"EUR","terms":null,"promotion":false,"contractTermMonths":0,"promotionCode":null},{"connectionType":"Mobile (4G/5G)","originalTitle":"Mobilais Internets","speed":null,"features":["4G un 5G bezvadu tehnoloģija;","bezmaksas iekārtas uz pakalpojuma lietošanas laiku;","neierobežots mobilo datu apjoms;","vienkārši uzstādīt un ērti paņemt līdzi."],"techInfo":null,"pricePerMonthEur":17.5,"currency":"EUR","terms":["Līgums uz 24 mēnešiem","Jauniem. 4G internets par 16.99 EUR ar 12 mēn. līg., 22-2/2022/818"],"promotion":true,"contractTermMonths":24,"promotionCode":"PROMO_4G_INTERNET_24M_818"}],"scrapedAt":"2025-08-30T17:44:19.734Z","source":"api"}
{"id":"node/9887775523","address":"Ošu iela 7, Gātciems, Salas pag., Mārupes nov.","properties":{"addr:street":"Ošu iela","addr:housenumber":"7","addr:city":"Gātciems","addr:postcode":"LV-2105","addr:subdistrict":"Salas pagasts","addr:district":"Mārupes novads","addr:country":"LV","ref:LV:addr":"106738421"},"geometry":{"type":"Point","coordinates":[23.617728,56.9242952]},"offers":[{"connectionType":"Mobile (4G/5G)","originalTitle":"Mobilais Internets","speed":null,"features":["4G un 5G bezvadu tehnoloģija;","bezmaksas iekārtas uz pakalpojuma lietošanas laiku;","neierobežots mobilo datu apjoms;","vienkārši uzstādīt un ērti paņemt līdzi."],"techInfo":null,"pricePerMonthEur":23.5,"currency":"EUR","terms":null,"promotion":false,"contractTermMonths":0,"promotionCode":null},{"connectionType":"Mobile (4G/5G)","originalTitle":"Mobilais Internets","speed":null,"features":["4G un 5G bezvadu tehnoloģija;","bezmaksas iekārtas uz pakalpojuma lietošanas laiku;","neierobežots mobilo datu apjoms;","vienkārši uzstādīt un ērti paņemt līdzi."],"techInfo":null,"pricePerMonthEur":17.5,"currency":"EUR","terms":["Līgums uz 24 mēnešiem","Jauniem. 4G internets par 16.99 EUR ar 12 mēn. līg., 22-2/2022/818"],"promotion":true,"contractTermMonths":24,"promotionCode":"PROMO_4G_INTERNET_24M_818"}],"scrapedAt":"2025-08-30T17:46:52.119Z","source":"api"}
{"id":"node/9887775521","address":"Ošu iela 9, Gātciems, Salas pag., Mārupes nov.","properties":{"addr:street":"Ošu iela","addr:housenumber":"9","addr:city":"Gātciems","addr:postcode":"LV-2105","addr:subdistrict":"Salas pagasts","addr:district":"Mārupes novads","addr:country":"LV","ref:LV:addr":"106738446"},"geometry":{"type":"Point","coordinates":[23.617791,56.9249173]},"offers":[{"connectionType":"Mobile (4G/5G)","originalTitle":"Mobilais Internets","speed":null,"features":["4G un 5G bezvadu tehnoloģija;","bezmaksas iekārtas uz pakalpojuma lietošanas laiku;","neierobežots mobilo datu apjoms;","vienkārši uzstādīt un ērti paņemt līdzi."],"techInfo":null,"pricePerMonthEur":23.5,"currency":"EUR","terms":null,"promotion":false,"contractTermMonths":0,"promotionCode":null},{"connectionType":"Mobile (4G/5G)","originalTitle":"Mobilais Internets","speed":null,"features":["4G un 5G bezvadu tehnoloģija;","bezmaksas iekārtas uz pakalpojuma lietošanas laiku;","neierobežots mobilo datu apjoms;","vienkārši uzstādīt un ērti paņemt līdzi."],"techInfo":null,"pricePerMonthEur":17.5,"currency":"EUR","terms":["Līgums uz 24 mēnešiem","Jauniem. 4G internets par 16.99 EUR ar 12 mēn. līg., 22-2/2022/818"],"promotion":true,"contractTermMonths":24,"promotionCode":"PROMO_4G_INTERNET_24M_818"}],"scrapedAt":"2025-08-30T17:46:52.327Z","source":"api"}
{"id":"node/9887775522","address":"Ošu iela 8, Gātciems, Salas pag., Mārupes nov.","properties":{"addr:street":"Ošu iela","addr:housenumber":"8","addr:city":"Gātciems","addr:postcode":"LV-2105","addr:subdistrict":"Salas pagasts","addr:district":"Mārupes novads","addr:country":"LV","ref:LV:addr":"106738438"},"geometry":{"type":"Point","coordinates":[23.6185407,56.9241283]},"offers":[{"connectionType":"Mobile (4G/5G)","originalTitle":"Mobilais Internets","speed":null,"features":["4G un 5G bezvadu tehnoloģija;","bezmaksas iekārtas uz pakalpojuma lietošanas laiku;","neierobežots mobilo datu apjoms;","vienkārši uzstādīt un ērti paņemt līdzi."],"techInfo":null,"pricePerMonthEur":23.5,"currency":"EUR","terms":null,"promotion":false,"contractTermMonths":0,"promotionCode":null},{"connectionType":"Mobile (4G/5G)","originalTitle":"Mobilais Internets","speed":null,"features":["4G un 5G bezvadu tehnoloģija;","bezmaksas iekārtas uz pakalpojuma lietošanas laiku;","neierobežots mobilo datu apjoms;","vienkārši uzstādīt un ērti paņemt līdzi."],"techInfo":null,"pricePerMonthEur":17.5,"currency":"EUR","terms":["Līgums uz 24 mēnešiem","Jauniem. 4G internets par 16.99 EUR ar 12 mēn. līg., 22-2/2022/818"],"promotion":true,"contractTermMonths":24,"promotionCode":"PROMO_4G_INTERNET_24M_818"}],"scrapedAt":"2025-08-30T17:46:52.557Z","source":"api"}
{"id":"node/9887775520","address":"Ošu iela 10, Gātciems, Salas pag., Mārupes nov.","properties":{"addr:street":"Ošu iela","addr:housenumber":"10","addr:city":"Gātciems","addr:postcode":"LV-2105","addr:subdistrict":"Salas pagasts","addr:district":"Mārupes novads","addr:country":"LV","ref:LV:addr":"106738454"},"geometry":{"type":"Point","coordinates":[23.6187129,56.9245967]},"offers":[{"connectionType":"Mobile (4G/5G)","originalTitle":"Mobilais Internets","speed":null,"features":["4G un 5G bezvadu tehnoloģija;","bezmaksas iekārtas uz pakalpojuma lietošanas laiku;","neierobežots mobilo datu apjoms;","vienkārši uzstādīt un ērti paņemt līdzi."],"techInfo":null,"pricePerMonthEur":23.5,"currency":"EUR","terms":null,"promotion":false,"contractTermMonths":0,"promotionCode":null},{"connectionType":"Mobile (4G/5G)","originalTitle":"Mobilais Internets","speed":null,"features":["4G un 5G bezvadu tehnoloģija;","bezmaksas iekārtas uz pakalpojuma lietošanas laiku;","neierobežots mobilo datu apjoms;","vienkārši uzstādīt un ērti paņemt līdzi."],"techInfo":null,"pricePerMonthEur":17.5,"currency":"EUR","terms":["Līgums uz 24 mēnešiem","Jauniem. 4G internets par 16.99 EUR ar 12 mēn. līg., 22-2/2022/818"],"promotion":true,"contractTermMonths":24,"promotionCode":"PROMO_4G_INTERNET_24M_818"}],"scrapedAt":"2025-08-30T17:46:52.558Z","source":"api"}
{"id":"node/9887775524","address":"Ošu iela 6, Gātciems, Salas pag., Mārupes nov.","properties":{"addr:street":"Ošu iela","addr:housenumber":"6","addr:city":"Gātciems","addr:postcode":"LV-2105","addr:subdistrict":"Salas pagasts","addr:district":"Mārupes novads","addr:country":"LV","ref:LV:addr":"106738413"},"geometry":{"type":"Point","coordinates":[23.6186367,56.9237252]},"offers":[{"connectionType":"Mobile (4G/5G)","originalTitle":"Mobilais Internets","speed":null,"features":["4G un 5G bezvadu tehnoloģija;","bezmaksas iekārtas uz pakalpojuma lietošanas laiku;","neierobežots mobilo datu apjoms;","vienkārši uzstādīt un ērti paņemt līdzi."],"techInfo":null,"pricePerMonthEur":23.5,"currency":"EUR","terms":null,"promotion":false,"contractTermMonths":0,"promotionCode":null},{"connectionType":"Mobile (4G/5G)","originalTitle":"Mobilais Internets","speed":null,"features":["4G un 5G bezvadu tehnoloģija;","bezmaksas iekārtas uz pakalpojuma lietošanas laiku;","neierobežots mobilo datu apjoms;","vienkārši uzstādīt un ērti paņemt līdzi."],"techInfo":null,"pricePerMonthEur":17.5,"currency":"EUR","terms":["Līgums uz 24 mēnešiem","Jauniem. 4G internets par 16.99 EUR ar 12 mēn. līg., 22-2/2022/818"],"promotion":true,"contractTermMonths":24,"promotionCode":"PROMO_4G_INTERNET_24M_818"}],"scrapedAt":"2025-08-30T17:46:52.789Z","source":"api"}
{"id":"node/9887775525","address":"Ošu iela 5, Gātciems, Salas pag., Mārupes nov.","properties":{"addr:street":"Ošu iela","addr:housenumber":"5","addr:city":"Gātciems","addr:postcode":"LV-2105","addr:subdistrict":"Salas pagasts","addr:district":"Mārupes novads","addr:country":"LV","ref:LV:addr":"106738405"},"geometry":{"type":"Point","coordinates":[23.6176688,56.9235286]},"offers":[{"connectionType":"Mobile (4G/5G)","originalTitle":"Mobilais Internets","speed":null,"features":["4G un 5G bezvadu tehnoloģija;","bezmaksas iekārtas uz pakalpojuma lietošanas laiku;","neierobežots mobilo datu apjoms;","vienkārši uzstādīt un ērti paņemt līdzi."],"techInfo":null,"pricePerMonthEur":23.5,"currency":"EUR","terms":null,"promotion":false,"contractTermMonths":0,"promotionCode":null},{"connectionType":"Mobile (4G/5G)","originalTitle":"Mobilais Internets","speed":null,"features":["4G un 5G bezvadu tehnoloģija;","bezmaksas iekārtas uz pakalpojuma lietošanas laiku;","neierobežots mobilo datu apjoms;","vienkārši uzstādīt un ērti paņemt līdzi."],"techInfo":null,"pricePerMonthEur":17.5,"currency":"EUR","terms":["Līgums uz 24 mēnešiem","Jauniem. 4G internets par 16.99 EUR ar 12 mēn. līg., 22-2/2022/818"],"promotion":true,"contractTermMonths":24,"promotionCode":"PROMO_4G_INTERNET_24M_818"}],"scrapedAt":"2025-08-30T17:46:54.247Z","source":"api"}
{"id":"node/9887775529","address":"Ošu iela 1, Gātciems, Salas pag., Mārupes nov.","properties":{"addr:street":"Ošu iela","addr:housenumber":"1","addr:city":"Gātciems","addr:postcode":"LV-2105","addr:subdistrict":"Salas pagasts","addr:district":"Mārupes novads","addr:country":"LV","ref:LV:addr":"106738366"},"geometry":{"type":"Point","coordinates":[23.6170709,56.9228025]},"offers":[{"connectionType":"Mobile (4G/5G)","originalTitle":"Mobilais Internets","speed":null,"features":["4G un 5G bezvadu tehnoloģija;","bezmaksas iekārtas uz pakalpojuma lietošanas laiku;","neierobežots mobilo datu apjoms;","vienkārši uzstādīt un ērti paņemt līdzi."],"techInfo":null,"pricePerMonthEur":23.5,"currency":"EUR","terms":null,"promotion":false,"contractTermMonths":0,"promotionCode":null},{"connectionType":"Mobile (4G/5G)","originalTitle":"Mobilais Internets","speed":null,"features":["4G un 5G bezvadu tehnoloģija;","bezmaksas iekārtas uz pakalpojuma lietošanas laiku;","neierobežots mobilo datu apjoms;","vienkārši uzstādīt un ērti paņemt līdzi."],"techInfo":null,"pricePerMonthEur":17.5,"currency":"EUR","terms":["Līgums uz 24 mēnešiem","Jauniem. 4G internets par 16.99 EUR ar 12 mēn. līg., 22-2/2022/818"],"promotion":true,"contractTermMonths":24,"promotionCode":"PROMO_4G_INTERNET_24M_818"}],"scrapedAt":"2025-08-30T17:46:54.482Z","source":"api"}
{"id":"node/9887775527","address":"Ošu iela 3, Gātciems, Salas pag., Mārupes nov.","properties":{"addr:street":"Ošu iela","addr:housenumber":"3","addr:city":"Gātciems","addr:postcode":"LV-2105","addr:subdistrict":"Salas pagasts","addr:district":"Mārupes novads","addr:country":"LV","ref:LV:addr":"106738382"},"geometry":{"type":"Point","coordinates":[23.6173964,56.9232681]},"offers":[{"connectionType":"Mobile (4G/5G)","originalTitle":"Mobilais Internets","speed":null,"features":["4G un 5G bezvadu tehnoloģija;","bezmaksas iekārtas uz pakalpojuma lietošanas laiku;","neierobežots mobilo datu apjoms;","vienkārši uzstādīt un ērti paņemt līdzi."],"techInfo":null,"pricePerMonthEur":23.5,"currency":"EUR","terms":null,"promotion":false,"contractTermMonths":0,"promotionCode":null},{"connectionType":"Mobile (4G/5G)","originalTitle":"Mobilais Internets","speed":null,"features":["4G un 5G bezvadu tehnoloģija;","bezmaksas iekārtas uz pakalpojuma lietošanas laiku;","neierobežots mobilo datu apjoms;","vienkārši uzstādīt un ērti paņemt līdzi."],"techInfo":null,"pricePerMonthEur":17.5,"currency":"EUR","terms":["Līgums uz 24 mēnešiem","Jauniem. 4G internets par 16.99 EUR ar 12 mēn. līg., 22-2/2022/818"],"promotion":true,"contractTermMonths":24,"promotionCode":"PROMO_4G_INTERNET_24M_818"}],"scrapedAt":"2025-08-30T17:46:54.697Z","source":"api"}
{"id":"node/9887775526","address":"Ošu iela 4, Gātciems, Salas pag., Mārupes nov.","properties":{"addr:street":"Ošu iela","addr:housenumber":"4","addr:city":"Gātciems","addr:postcode":"LV-2105","addr:subdistrict":"Salas pagasts","addr:district":"Mārupes novads","addr:country":"LV","ref:LV:addr":"106738390"},"geometry":{"type":"Point","coordinates":[23.6181706,56.9228286]},"offers":[{"connectionType":"Mobile (4G/5G)","originalTitle":"Mobilais Internets","speed":null,"features":["4G un 5G bezvadu tehnoloģija;","bezmaksas iekārtas uz pakalpojuma lietošanas laiku;","neierobežots mobilo datu apjoms;","vienkārši uzstādīt un ērti paņemt līdzi."],"techInfo":null,"pricePerMonthEur":23.5,"currency":"EUR","terms":null,"promotion":false,"contractTermMonths":0,"promotionCode":null},{"connectionType":"Mobile (4G/5G)","originalTitle":"Mobilais Internets","speed":null,"features":["4G un 5G bezvadu tehnoloģija;","bezmaksas iekārtas uz pakalpojuma lietošanas laiku;","neierobežots mobilo datu apjoms;","vienkārši uzstādīt un ērti paņemt līdzi."],"techInfo":null,"pricePerMonthEur":17.5,"currency":"EUR","terms":["Līgums uz 24 mēnešiem","Jauniem. 4G internets par 16.99 EUR ar 12 mēn. līg., 22-2/2022/818"],"promotion":true,"contractTermMonths":24,"promotionCode":"PROMO_4G_INTERNET_24M_818"}],"scrapedAt":"2025-08-30T17:46:54.923Z","source":"api"}
{"id":"node/12790963894","address":"Gulbju ceļš 14, Gātciems, Salas pag., Mārupes nov.","properties":{"addr:street":"Gulbju ceļš","addr:housenumber":"14","addr:city":"Gātciems","addr:postcode":"LV-2105","addr:subdistrict":"Salas pagasts","addr:district":"Mārupes novads","addr:country":"LV","ref:LV:addr":"107055882"},"geometry":{"type":"Point","coordinates":[23.6316021,56.9238877]},"offers":[{"connectionType":"Mobile (4G/5G)","originalTitle":"Mobilais Internets","speed":null,"features":["4G un 5G bezvadu tehnoloģija;","bezmaksas iekārtas uz pakalpojuma lietošanas laiku;","neierobežots mobilo datu apjoms;","vienkārši uzstādīt un ērti paņemt līdzi."],"techInfo":null,"pricePerMonthEur":23.5,"currency":"EUR","terms":null,"promotion":false,"contractTermMonths":0,"promotionCode":null},{"connectionType":"Mobile (4G/5G)","originalTitle":"Mobilais Internets","speed":null,"features":["4G un 5G bezvadu tehnoloģija;","bezmaksas iekārtas uz pakalpojuma lietošanas laiku;","neierobežots mobilo datu apjoms;","vienkārši uzstādīt un ērti paņemt līdzi."],"techInfo":null,"pricePerMonthEur":17.5,"currency":"EUR","terms":["Līgums uz 24 mēnešiem","Jauniem. 4G internets par 16.99 EUR ar 12 mēn. līg., 22-2/2022/818"],"promotion":true,"contractTermMonths":24,"promotionCode":"PROMO_4G_INTERNET_24M_818"}],"scrapedAt":"2025-08-30T17:55:26.252Z","source":"api"}
