{"id":"node/9885024375","address":"Jaunzīļu iela 14, Laveri, Carnikavas pag., Ādažu nov.","properties":{"addr:street":"Jaunzīļu iela","addr:housenumber":"14","addr:city":"Laveri","addr:postcode":"LV-2163","addr:subdistrict":"Carnikavas pagasts","addr:district":"Ādažu novads","addr:country":"LV","ref:LV:addr":"106901905"},"geometry":{"type":"Point","coordinates":[24.266937,57.1131683]},"offers":[{"connectionType":"Mobile (4G/5G)","originalTitle":"Mobilais Internets","speed":null,"features":["4G un 5G bezvadu tehnoloģija;","bezmaksas iekārtas uz pakalpojuma lietošanas laiku;","neierobežots mobilo datu apjoms;","vienkārši uzstādīt un ērti paņemt līdzi."],"techInfo":null,"pricePerMonthEur":23.5,"currency":"EUR","terms":null,"promotion":false,"contractTermMonths":0,"promotionCode":null},{"connectionType":"Mobile (4G/5G)","originalTitle":"Mobilais Internets","speed":null,"features":["4G un 5G bezvadu tehnoloģija;","bezmaksas iekārtas uz pakalpojuma lietošanas laiku;","neierobežots mobilo datu apjoms;","vienkārši uzstādīt un ērti paņemt līdzi."],"techInfo":null,"pricePerMonthEur":17.5,"currency":"EUR","terms":["Līgums uz 24 mēnešiem","Jauniem. 4G internets par 16.99 EUR ar 12 mēn. līg., 22-2/2022/818"],"promotion":true,"contractTermMonths":24,"promotionCode":"PROMO_4G_INTERNET_24M_818"}],"scrapedAt":"2025-08-29T18:30:22.613Z","source":"api"}
{"id":"node/9885024381","address":"Jaunzīļu iela 13, Laveri, Carnikavas pag., Ādažu nov.","properties":{"addr:street":"Jaunzīļu iela","addr:housenumber":"13","addr:city":"Laveri","addr:postcode":"LV-2163","addr:subdistrict":"Carnikavas pagasts","addr:district":"Ādažu novads","addr:country":"LV","ref:LV:addr":"105363293"},"geometry":{"type":"Point","coordinates":[24.2680025,57.1126547]},"offers":[{"connectionType":"Mobile (4G/5G)","originalTitle":"Mobilais Internets","speed":null,"features":["4G un 5G bezvadu tehnoloģija;","bezmaksas iekārtas uz pakalpojuma lietošanas laiku;","neierobežots mobilo datu apjoms;","vienkārši uzstādīt un ērti paņemt līdzi."],"techInfo":null,"pricePerMonthEur":23.5,"currency":"EUR","terms":null,"promotion":false,"contractTermMonths":0,"promotionCode":null},{"connectionType":"Mobile (4G/5G)","originalTitle":"Mobilais Internets","speed":null,"features":["4G un 5G bezvadu tehnoloģija;","bezmaksas iekārtas uz pakalpojuma lietošanas laiku;","neierobežots mobilo datu apjoms;","vienkārši uzstādīt un ērti paņemt līdzi."],"techInfo":null,"pricePerMonthEur":17.5,"currency":"EUR","terms":["Līgums uz 24 mēnešiem","Jauniem. 4G internets par 16.99 EUR ar 12 mēn. līg., 22-2/2022/818"],"promotion":true,"contractTermMonths":24,"promotionCode":"PROMO_4G_INTERNET_24M_818"}],"scrapedAt":"2025-08-29T18:30:22.727Z","source":"api"}
{"id":"node/9885024385","address":"Jaunzīļu iela 8, Laveri, Carnikavas pag., Ādažu nov.","properties":{"addr:street":"Jaunzīļu iela","addr:housenumber":"8","addr:city":"Laveri","addr:postcode":"LV-2163","addr:subdistrict":"Carnikavas pagasts","addr:district":"Ādažu novads","addr:country":"LV","ref:LV:addr":"105363252"},"geometry":{"type":"Point","coordinates":[24.2686227,57.1127539]},"offers":[{"connectionType":"Mobile (4G/5G)","originalTitle":"Mobilais Internets","speed":null,"features":["4G un 5G bezvadu tehnoloģija;","bezmaksas iekārtas uz pakalpojuma lietošanas laiku;","neierobežots mobilo datu apjoms;","vienkārši uzstādīt un ērti paņemt līdzi."],"techInfo":null,"pricePerMonthEur":23.5,"currency":"EUR","terms":null,"promotion":false,"contractTermMonths":0,"promotionCode":null},{"connectionType":"Mobile (4G/5G)","originalTitle":"Mobilais Internets","speed":null,"features":["4G un 5G bezvadu tehnoloģija;","bezmaksas iekārtas uz pakalpojuma lietošanas laiku;","neierobežots mobilo datu apjoms;","vienkārši uzstādīt un ērti paņemt līdzi."],"techInfo":null,"pricePerMonthEur":17.5,"currency":"EUR","terms":["Līgums uz 24 mēnešiem","Jauniem. 4G internets par 16.99 EUR ar 12 mēn. līg., 22-2/2022/818"],"promotion":true,"contractTermMonths":24,"promotionCode":"PROMO_4G_INTERNET_24M_818"}],"scrapedAt":"2025-08-29T18:30:22.733Z","source":"api"}
{"id":"node/9885024384","address":"Jaunzīļu iela 9, Laveri, Carnikavas pag., Ādažu nov.","properties":{"addr:street":"Jaunzīļu iela","addr:housenumber":"9","addr:city":"Laveri","addr:postcode":"LV-2163","addr:subdistrict":"Carnikavas pagasts","addr:district":"Ādažu novads","addr:country":"LV","ref:LV:addr":"105363260"},"geometry":{"type":"Point","coordinates":[24.2683282,57.1120393]},"offers":[{"connectionType":"Mobile (4G/5G)","originalTitle":"Mobilais Internets","speed":null,"features":["4G un 5G bezvadu tehnoloģija;","bezmaksas iekārtas uz pakalpojuma lietošanas laiku;","neierobežots mobilo datu apjoms;","vienkārši uzstādīt un ērti paņemt līdzi."],"techInfo":null,"pricePerMonthEur":23.5,"currency":"EUR","terms":null,"promotion":false,"contractTermMonths":0,"promotionCode":null},{"connectionType":"Mobile (4G/5G)","originalTitle":"Mobilais Internets","speed":null,"features":["4G un 5G bezvadu tehnoloģija;","bezmaksas iekārtas uz pakalpojuma lietošanas laiku;","neierobežots mobilo datu apjoms;","vienkārši uzstādīt un ērti paņemt līdzi."],"techInfo":null,"pricePerMonthEur":17.5,"currency":"EUR","terms":["Līgums uz 24 mēnešiem","Jauniem. 4G internets par 16.99 EUR ar 12 mēn. līg., 22-2/2022/818"],"promotion":true,"contractTermMonths":24,"promotionCode":"PROMO_4G_INTERNET_24M_818"}],"scrapedAt":"2025-08-29T18:30:22.748Z","source":"api"}
{"id":"node/9885024383","address":"Jaunzīļu iela 10, Laveri, Carnikavas pag., Ādažu nov.","properties":{"addr:street":"Jaunzīļu iela","addr:housenumber":"10","addr:city":"Laveri","addr:postcode":"LV-2163","addr:subdistrict":"Carnikavas pagasts","addr:district":"Ādažu novads","addr:country":"LV","ref:LV:addr":"105363277"},"geometry":{"type":"Point","coordinates":[24.2679391,57.112976]},"offers":[{"connectionType":"Mobile (4G/5G)","originalTitle":"Mobilais Internets","speed":null,"features":["4G un 5G bezvadu tehnoloģija;","bezmaksas iekārtas uz pakalpojuma lietošanas laiku;","neierobežots mobilo datu apjoms;","vienkārši uzstādīt un ērti paņemt līdzi."],"techInfo":null,"pricePerMonthEur":23.5,"currency":"EUR","terms":null,"promotion":false,"contractTermMonths":0,"promotionCode":null},{"connectionType":"Mobile (4G/5G)","originalTitle":"Mobilais Internets","speed":null,"features":["4G un 5G bezvadu tehnoloģija;","bezmaksas iekārtas uz pakalpojuma lietošanas laiku;","neierobežots mobilo datu apjoms;","vienkārši uzstādīt un ērti paņemt līdzi."],"techInfo":null,"pricePerMonthEur":17.5,"currency":"EUR","terms":["Līgums uz 24 mēnešiem","Jauniem. 4G internets par 16.99 EUR ar 12 mēn. līg., 22-2/2022/818"],"promotion":true,"contractTermMonths":24,"promotionCode":"PROMO_4G_INTERNET_24M_818"}],"scrapedAt":"2025-08-29T18:30:22.918Z","source":"api"}
{"id":"node/9885024382","address":"Jaunzīļu iela 11, Laveri, Carnikavas pag., Ādažu nov.","properties":{"addr:street":"Jaunzīļu iela","addr:housenumber":"11","addr:city":"Laveri","addr:postcode":"LV-2163","addr:subdistrict":"Carnikavas pagasts","addr:district":"Ādažu novads","addr:country":"LV","ref:LV:addr":"105363285"},"geometry":{"type":"Point","coordinates":[24.2681256,57.1123483]},"offers":[{"connectionType":"Mobile (4G/5G)","originalTitle":"Mobilais Internets","speed":null,"features":["4G un 5G bezvadu tehnoloģija;","bezmaksas iekārtas uz pakalpojuma lietošanas laiku;","neierobežots mobilo datu apjoms;","vienkārši uzstādīt un ērti paņemt līdzi."],"techInfo":null,"pricePerMonthEur":23.5,"currency":"EUR","terms":null,"promotion":false,"contractTermMonths":0,"promotionCode":null},{"connectionType":"Mobile (4G/5G)","originalTitle":"Mobilais Internets","speed":null,"features":["4G un 5G bezvadu tehnoloģija;","bezmaksas iekārtas uz pakalpojuma lietošanas laiku;","neierobežots mobilo datu apjoms;","vienkārši uzstādīt un ērti paņemt līdzi."],"techInfo":null,"pricePerMonthEur":17.5,"currency":"EUR","terms":["Līgums uz 24 mēnešiem","Jauniem. 4G internets par 16.99 EUR ar 12 mēn. līg., 22-2/2022/818"],"promotion":true,"contractTermMonths":24,"promotionCode":"PROMO_4G_INTERNET_24M_818"}],"scrapedAt":"2025-08-29T18:30:22.919Z","source":"api"}
{"id":"node/9885024376","address":"Jaunzīļu iela 12, Laveri, Carnikavas pag., Ādažu nov.","properties":{"addr:street":"Jaunzīļu iela","addr:housenumber":"12","addr:city":"Laveri","addr:postcode":"LV-2163","addr:subdistrict":"Carnikavas pagasts","addr:district":"Ādažu novads","addr:country":"LV","ref:LV:addr":"106901890"},"geometry":{"type":"Point","coordinates":[24.2673156,57.1130236]},"offers":[{"connectionType":"Mobile (4G/5G)","originalTitle":"Mobilais Internets","speed":null,"features":["4G un 5G bezvadu tehnoloģija;","bezmaksas iekārtas uz pakalpojuma lietošanas laiku;","neierobežots mobilo datu apjoms;","vienkārši uzstādīt un ērti paņemt līdzi."],"techInfo":null,"pricePerMonthEur":23.5,"currency":"EUR","terms":null,"promotion":false,"contractTermMonths":0,"promotionCode":null},{"connectionType":"Mobile (4G/5G)","originalTitle":"Mobilais Internets","speed":null,"features":["4G un 5G bezvadu tehnoloģija;","bezmaksas iekārtas uz pakalpojuma lietošanas laiku;","neierobežots mobilo datu apjoms;","vienkārši uzstādīt un ērti paņemt līdzi."],"techInfo":null,"pricePerMonthEur":17.5,"currency":"EUR","terms":["Līgums uz 24 mēnešiem","Jauniem. 4G internets par 16.99 EUR ar 12 mēn. līg., 22-2/2022/818"],"promotion":true,"contractTermMonths":24,"promotionCode":"PROMO_4G_INTERNET_24M_818"}],"scrapedAt":"2025-08-29T18:30:22.966Z","source":"api"}
{"id":"node/9885024386","address":"Jaunzīļu iela 7, Laveri, Carnikavas pag., Ādažu nov.","properties":{"addr:street":"Jaunzīļu iela","addr:housenumber":"7","addr:city":"Laveri","addr:postcode":"LV-2163","addr:subdistrict":"Carnikavas pagasts","addr:district":"Ādažu novads","addr:country":"LV","ref:LV:addr":"105363244"},"geometry":{"type":"Point","coordinates":[24.2689856,57.1120275]},"offers":[{"connectionType":"Mobile (4G/5G)","originalTitle":"Mobilais Internets","speed":null,"features":["4G un 5G bezvadu tehnoloģija;","bezmaksas iekārtas uz pakalpojuma lietošanas laiku;","neierobežots mobilo datu apjoms;","vienkārši uzstādīt un ērti paņemt līdzi."],"techInfo":null,"pricePerMonthEur":23.5,"currency":"EUR","terms":null,"promotion":false,"contractTermMonths":0,"promotionCode":null},{"connectionType":"Mobile (4G/5G)","originalTitle":"Mobilais Internets","speed":null,"features":["4G un 5G bezvadu tehnoloģija;","bezmaksas iekārtas uz pakalpojuma lietošanas laiku;","neierobežots mobilo datu apjoms;","vienkārši uzstādīt un ērti paņemt līdzi."],"techInfo":null,"pricePerMonthEur":17.5,"currency":"EUR","terms":["Līgums uz 24 mēnešiem","Jauniem. 4G internets par 16.99 EUR ar 12 mēn. līg., 22-2/2022/818"],"promotion":true,"contractTermMonths":24,"promotionCode":"PROMO_4G_INTERNET_24M_818"}],"scrapedAt":"2025-08-29T18:30:24.484Z","source":"api"}
{"id":"node/9885024387","address":"Jaunzīļu iela 6, Laveri, Carnikavas pag., Ādažu nov.","properties":{"addr:street":"Jaunzīļu iela","addr:housenumber":"6","addr:city":"Laveri","addr:postcode":"LV-2163","addr:subdistrict":"Carnikavas pagasts","addr:district":"Ādažu novads","addr:country":"LV","ref:LV:addr":"105363236"},"geometry":{"type":"Point","coordinates":[24.2688856,57.1123622]},"offers":[{"connectionType":"Mobile (4G/5G)","originalTitle":"Mobilais Internets","speed":null,"features":["4G un 5G bezvadu tehnoloģija;","bezmaksas iekārtas uz pakalpojuma lietošanas laiku;","neierobežots mobilo datu apjoms;","vienkārši uzstādīt un ērti paņemt līdzi."],"techInfo":null,"pricePerMonthEur":23.5,"currency":"EUR","terms":null,"promotion":false,"contractTermMonths":0,"promotionCode":null},{"connectionType":"Mobile (4G/5G)","originalTitle":"Mobilais Internets","speed":null,"features":["4G un 5G bezvadu tehnoloģija;","bezmaksas iekārtas uz pakalpojuma lietošanas laiku;","neierobežots mobilo datu apjoms;","vienkārši uzstādīt un ērti paņemt līdzi."],"techInfo":null,"pricePerMonthEur":17.5,"currency":"EUR","terms":["Līgums uz 24 mēnešiem","Jauniem. 4G internets par 16.99 EUR ar 12 mēn. līg., 22-2/2022/818"],"promotion":true,"contractTermMonths":24,"promotionCode":"PROMO_4G_INTERNET_24M_818"}],"scrapedAt":"2025-08-29T18:30:24.567Z","source":"api"}
{"id":"node/9885024391","address":"Jaunzīļu iela 2, Laveri, Carnikavas pag., Ādažu nov.","properties":{"addr:street":"Jaunzīļu iela","addr:housenumber":"2","addr:city":"Laveri","addr:postcode":"LV-2163","addr:subdistrict":"Carnikavas pagasts","addr:district":"Ādažu novads","addr:country":"LV","ref:LV:addr":"105363197"},"geometry":{"type":"Point","coordinates":[24.2695743,57.1128112]},"offers":[{"connectionType":"Mobile (4G/5G)","originalTitle":"Mobilais Internets","speed":null,"features":["4G un 5G bezvadu tehnoloģija;","bezmaksas iekārtas uz pakalpojuma lietošanas laiku;","neierobežots mobilo datu apjoms;","vienkārši uzstādīt un ērti paņemt līdzi."],"techInfo":null,"pricePerMonthEur":23.5,"currency":"EUR","terms":null,"promotion":false,"contractTermMonths":0,"promotionCode":null},{"connectionType":"Mobile (4G/5G)","originalTitle":"Mobilais Internets","speed":null,"features":["4G un 5G bezvadu tehnoloģija;","bezmaksas iekārtas uz pakalpojuma lietošanas laiku;","neierobežots mobilo datu apjoms;","vienkārši uzstādīt un ērti paņemt līdzi."],"techInfo":null,"pricePerMonthEur":17.5,"currency":"EUR","terms":["Līgums uz 24 mēnešiem","Jauniem. 4G internets par 16.99 EUR ar 12 mēn. līg., 22-2/2022/818"],"promotion":true,"contractTermMonths":24,"promotionCode":"PROMO_4G_INTERNET_24M_818"}],"scrapedAt":"2025-08-29T18:30:24.568Z","source":"api"}
{"id":"node/9885024390","address":"Jaunzīļu iela 3, Laveri, Carnikavas pag., Ādažu nov.","properties":{"addr:street":"Jaunzīļu iela","addr:housenumber":"3","addr:city":"Laveri","addr:postcode":"LV-2163","addr:subdistrict":"Carnikavas pagasts","addr:district":"Ādažu novads","addr:country":"LV","ref:LV:addr":"105363203"},"geometry":{"type":"Point","coordinates":[24.2698128,57.112261]},"offers":[{"connectionType":"Mobile (4G/5G)","originalTitle":"Mobilais Internets","speed":null,"features":["4G un 5G bezvadu tehnoloģija;","bezmaksas iekārtas uz pakalpojuma lietošanas laiku;","neierobežots mobilo datu apjoms;","vienkārši uzstādīt un ērti paņemt līdzi."],"techInfo":null,"pricePerMonthEur":23.5,"currency":"EUR","terms":null,"promotion":false,"contractTermMonths":0,"promotionCode":null},{"connectionType":"Mobile (4G/5G)","originalTitle":"Mobilais Internets","speed":null,"features":["4G un 5G bezvadu tehnoloģija;","bezmaksas iekārtas uz pakalpojuma lietošanas laiku;","neierobežots mobilo datu apjoms;","vienkārši uzstādīt un ērti paņemt līdzi."],"techInfo":null,"pricePerMonthEur":17.5,"currency":"EUR","terms":["Līgums uz 24 mēnešiem","Jauniem. 4G internets par 16.99 EUR ar 12 mēn. līg., 22-2/2022/818"],"promotion":true,"contractTermMonths":24,"promotionCode":"PROMO_4G_INTERNET_24M_818"}],"scrapedAt":"2025-08-29T18:30:24.752Z","source":"api"}
{"id":"node/9885024392","address":"Jaunzīļu iela 1, Laveri, Carnikavas pag., Ādažu nov.","properties":{"addr:street":"Jaunzīļu iela","addr:housenumber":"1","addr:city":"Laveri","addr:postcode":"LV-2163","addr:subdistrict":"Carnikavas pagasts","addr:district":"Ādažu novads","addr:country":"LV","ref:LV:addr":"105363180"},"geometry":{"type":"Point","coordinates":[24.2697533,57.1125177]},"offers":[{"connectionType":"Mobile (4G/5G)","originalTitle":"Mobilais Internets","speed":null,"features":["4G un 5G bezvadu tehnoloģija;","bezmaksas iekārtas uz pakalpojuma lietošanas laiku;","neierobežots mobilo datu apjoms;","vienkārši uzstādīt un ērti paņemt līdzi."],"techInfo":null,"pricePerMonthEur":23.5,"currency":"EUR","terms":null,"promotion":false,"contractTermMonths":0,"promotionCode":null},{"connectionType":"Mobile (4G/5G)","originalTitle":"Mobilais Internets","speed":null,"features":["4G un 5G bezvadu tehnoloģija;","bezmaksas iekārtas uz pakalpojuma lietošanas laiku;","neierobežots mobilo datu apjoms;","vienkārši uzstādīt un ērti paņemt līdzi."],"techInfo":null,"pricePerMonthEur":17.5,"currency":"EUR","terms":["Līgums uz 24 mēnešiem","Jauniem. 4G internets par 16.99 EUR ar 12 mēn. līg., 22-2/2022/818"],"promotion":true,"contractTermMonths":24,"promotionCode":"PROMO_4G_INTERNET_24M_818"}],"scrapedAt":"2025-08-29T18:30:24.753Z","source":"api"}
{"id":"node/9885024389","address":"Jaunzīļu iela 4, Laveri, Carnikavas pag., Ādažu nov.","properties":{"addr:street":"Jaunzīļu iela","addr:housenumber":"4","addr:city":"Laveri","addr:postcode":"LV-2163","addr:subdistrict":"Carnikavas pagasts","addr:district":"Ādažu novads","addr:country":"LV","ref:LV:addr":"105363211"},"geometry":{"type":"Point","coordinates":[24.2690168,57.1127111]},"offers":[{"connectionType":"Mobile (4G/5G)","originalTitle":"Mobilais Internets","speed":null,"features":["4G un 5G bezvadu tehnoloģija;","bezmaksas iekārtas uz pakalpojuma lietošanas laiku;","neierobežots mobilo datu apjoms;","vienkārši uzstādīt un ērti paņemt līdzi."],"techInfo":null,"pricePerMonthEur":23.5,"currency":"EUR","terms":null,"promotion":false,"contractTermMonths":0,"promotionCode":null},{"connectionType":"Mobile (4G/5G)","originalTitle":"Mobilais Internets","speed":null,"features":["4G un 5G bezvadu tehnoloģija;","bezmaksas iekārtas uz pakalpojuma lietošanas laiku;","neierobežots mobilo datu apjoms;","vienkārši uzstādīt un ērti paņemt līdzi."],"techInfo":null,"pricePerMonthEur":17.5,"currency":"EUR","terms":["Līgums uz 24 mēnešiem","Jauniem. 4G internets par 16.99 EUR ar 12 mēn. līg., 22-2/2022/818"],"promotion":true,"contractTermMonths":24,"promotionCode":"PROMO_4G_INTERNET_24M_818"}],"scrapedAt":"2025-08-29T18:30:24.844Z","source":"api"}
{"id":"node/9885024388","address":"Jaunzīļu iela 5, Laveri, Carnikavas pag., Ādažu nov.","properties":{"addr:street":"Jaunzīļu iela","addr:housenumber":"5","addr:city":"Laveri","addr:postcode":"LV-2163","addr:subdistrict":"Carnikavas pagasts","addr:district":"Ādažu novads","addr:country":"LV","ref:LV:addr":"105363228"},"geometry":{"type":"Point","coordinates":[24.2696322,57.1120257]},"offers":[{"connectionType":"Mobile (4G/5G)","originalTitle":"Mobilais Internets","speed":null,"features":["4G un 5G bezvadu tehnoloģija;","bezmaksas iekārtas uz pakalpojuma lietošanas laiku;","neierobežots mobilo datu apjoms;","vienkārši uzstādīt un ērti paņemt līdzi."],"techInfo":null,"pricePerMonthEur":23.5,"currency":"EUR","terms":null,"promotion":false,"contractTermMonths":0,"promotionCode":null},{"connectionType":"Mobile (4G/5G)","originalTitle":"Mobilais Internets","speed":null,"features":["4G un 5G bezvadu tehnoloģija;","bezmaksas iekārtas uz pakalpojuma lietošanas laiku;","neierobežots mobilo datu apjoms;","vienkārši uzstādīt un ērti paņemt līdzi."],"techInfo":null,"pricePerMonthEur":17.5,"currency":"EUR","terms":["Līgums uz 24 mēnešiem","Jauniem. 4G internets par 16.99 EUR ar 12 mēn. līg., 22-2/2022/818"],"promotion":true,"contractTermMonths":24,"promotionCode":"PROMO_4G_INTERNET_24M_818"}],"scrapedAt":"2025-08-29T18:30:24.845Z","source":"api"}
{"id":"node/9885024395","address":"Jaunzīļu iela 27, Laveri, Carnikavas pag., Ādažu nov.","properties":{"addr:street":"Jaunzīļu iela","addr:housenumber":"27","addr:city":"Laveri","addr:postcode":"LV-2163","addr:subdistrict":"Carnikavas pagasts","addr:district":"Ādažu novads","addr:country":"LV","ref:LV:addr":"106902031"},"geometry":{"type":"Point","coordinates":[24.2656715,57.1127371]},"offers":[{"connectionType":"Mobile (4G/5G)","originalTitle":"Mobilais Internets","speed":null,"features":["4G un 5G bezvadu tehnoloģija;","bezmaksas iekārtas uz pakalpojuma lietošanas laiku;","neierobežots mobilo datu apjoms;","vienkārši uzstādīt un ērti paņemt līdzi."],"techInfo":null,"pricePerMonthEur":23.5,"currency":"EUR","terms":null,"promotion":false,"contractTermMonths":0,"promotionCode":null},{"connectionType":"Mobile (4G/5G)","originalTitle":"Mobilais Internets","speed":null,"features":["4G un 5G bezvadu tehnoloģija;","bezmaksas iekārtas uz pakalpojuma lietošanas laiku;","neierobežots mobilo datu apjoms;","vienkārši uzstādīt un ērti paņemt līdzi."],"techInfo":null,"pricePerMonthEur":17.5,"currency":"EUR","terms":["Līgums uz 24 mēnešiem","Jauniem. 4G internets par 16.99 EUR ar 12 mēn. līg., 22-2/2022/818"],"promotion":true,"contractTermMonths":24,"promotionCode":"PROMO_4G_INTERNET_24M_818"}],"scrapedAt":"2025-08-29T18:30:26.148Z","source":"api"}
{"id":"node/9885024397","address":"Jaunzīļu iela 23, Laveri, Carnikavas pag., Ādažu nov.","properties":{"addr:street":"Jaunzīļu iela","addr:housenumber":"23","addr:city":"Laveri","addr:postcode":"LV-2163","addr:subdistrict":"Carnikavas pagasts","addr:district":"Ādažu novads","addr:country":"LV","ref:LV:addr":"106902015"},"geometry":{"type":"Point","coordinates":[24.2663913,57.1125732]},"offers":[{"connectionType":"Mobile (4G/5G)","originalTitle":"Mobilais Internets","speed":null,"features":["4G un 5G bezvadu tehnoloģija;","bezmaksas iekārtas uz pakalpojuma lietošanas laiku;","neierobežots mobilo datu apjoms;","vienkārši uzstādīt un ērti paņemt līdzi."],"techInfo":null,"pricePerMonthEur":23.5,"currency":"EUR","terms":null,"promotion":false,"contractTermMonths":0,"promotionCode":null},{"connectionType":"Mobile (4G/5G)","originalTitle":"Mobilais Internets","speed":null,"features":["4G un 5G bezvadu tehnoloģija;","bezmaksas iekārtas uz pakalpojuma lietošanas laiku;","neierobežots mobilo datu apjoms;","vienkārši uzstādīt un ērti paņemt līdzi."],"techInfo":null,"pricePerMonthEur":17.5,"currency":"EUR","terms":["Līgums uz 24 mēnešiem","Jauniem. 4G internets par 16.99 EUR ar 12 mēn. līg., 22-2/2022/818"],"promotion":true,"contractTermMonths":24,"promotionCode":"PROMO_4G_INTERNET_24M_818"}],"scrapedAt":"2025-08-29T18:30:26.233Z","source":"api"}
{"id":"node/9885024399","address":"Jaunzīļu iela 19, Laveri, Carnikavas pag., Ādažu nov.","properties":{"addr:street":"Jaunzīļu iela","addr:housenumber":"19","addr:city":"Laveri","addr:postcode":"LV-2163","addr:subdistrict":"Carnikavas pagasts","addr:district":"Ādažu novads","addr:country":"LV","ref:LV:addr":"106901995"},"geometry":{"type":"Point","coordinates":[24.2670517,57.1122401]},"offers":[{"connectionType":"Mobile (4G/5G)","originalTitle":"Mobilais Internets","speed":null,"features":["4G un 5G bezvadu tehnoloģija;","bezmaksas iekārtas uz pakalpojuma lietošanas laiku;","neierobežots mobilo datu apjoms;","vienkārši uzstādīt un ērti paņemt līdzi."],"techInfo":null,"pricePerMonthEur":23.5,"currency":"EUR","terms":null,"promotion":false,"contractTermMonths":0,"promotionCode":null},{"connectionType":"Mobile (4G/5G)","originalTitle":"Mobilais Internets","speed":null,"features":["4G un 5G bezvadu tehnoloģija;","bezmaksas iekārtas uz pakalpojuma lietošanas laiku;","neierobežots mobilo datu apjoms;","vienkārši uzstādīt un ērti paņemt līdzi."],"techInfo":null,"pricePerMonthEur":17.5,"currency":"EUR","terms":["Līgums uz 24 mēnešiem","Jauniem. 4G internets par 16.99 EUR ar 12 mēn. līg., 22-2/2022/818"],"promotion":true,"contractTermMonths":24,"promotionCode":"PROMO_4G_INTERNET_24M_818"}],"scrapedAt":"2025-08-29T18:30:26.325Z","source":"api"}
{"id":"node/9885024398","address":"Jaunzīļu iela 21, Laveri, Carnikavas pag., Ādažu nov.","properties":{"addr:street":"Jaunzīļu iela","addr:housenumber":"21","addr:city":"Laveri","addr:postcode":"LV-2163","addr:subdistrict":"Carnikavas pagasts","addr:district":"Ādažu novads","addr:country":"LV","ref:LV:addr":"106902007"},"geometry":{"type":"Point","coordinates":[24.2667937,57.1125776]},"offers":[{"connectionType":"Mobile (4G/5G)","originalTitle":"Mobilais Internets","speed":null,"features":["4G un 5G bezvadu tehnoloģija;","bezmaksas iekārtas uz pakalpojuma lietošanas laiku;","neierobežots mobilo datu apjoms;","vienkārši uzstādīt un ērti paņemt līdzi."],"techInfo":null,"pricePerMonthEur":23.5,"currency":"EUR","terms":null,"promotion":false,"contractTermMonths":0,"promotionCode":null},{"connectionType":"Mobile (4G/5G)","originalTitle":"Mobilais Internets","speed":null,"features":["4G un 5G bezvadu tehnoloģija;","bezmaksas iekārtas uz pakalpojuma lietošanas laiku;","neierobežots mobilo datu apjoms;","vienkārši uzstādīt un ērti paņemt līdzi."],"techInfo":null,"pricePerMonthEur":17.5,"currency":"EUR","terms":["Līgums uz 24 mēnešiem","Jauniem. 4G internets par 16.99 EUR ar 12 mēn. līg., 22-2/2022/818"],"promotion":true,"contractTermMonths":24,"promotionCode":"PROMO_4G_INTERNET_24M_818"}],"scrapedAt":"2025-08-29T18:30:26.418Z","source":"api"}
{"id":"node/9885024400","address":"Jaunzīļu iela 17, Laveri, Carnikavas pag., Ādažu nov.","properties":{"addr:street":"Jaunzīļu iela","addr:housenumber":"17","addr:city":"Laveri","addr:postcode":"LV-2163","addr:subdistrict":"Carnikavas pagasts","addr:district":"Ādažu novads","addr:country":"LV","ref:LV:addr":"106901987"},"geometry":{"type":"Point","coordinates":[24.2676388,57.1121456]},"offers":[{"connectionType":"Mobile (4G/5G)","originalTitle":"Mobilais Internets","speed":null,"features":["4G un 5G bezvadu tehnoloģija;","bezmaksas iekārtas uz pakalpojuma lietošanas laiku;","neierobežots mobilo datu apjoms;","vienkārši uzstādīt un ērti paņemt līdzi."],"techInfo":null,"pricePerMonthEur":23.5,"currency":"EUR","terms":null,"promotion":false,"contractTermMonths":0,"promotionCode":null},{"connectionType":"Mobile (4G/5G)","originalTitle":"Mobilais Internets","speed":null,"features":["4G un 5G bezvadu tehnoloģija;","bezmaksas iekārtas uz pakalpojuma lietošanas laiku;","neierobežots mobilo datu apjoms;","vienkārši uzstādīt un ērti paņemt līdzi."],"techInfo":null,"pricePerMonthEur":17.5,"currency":"EUR","terms":["Līgums uz 24 mēnešiem","Jauniem. 4G internets par 16.99 EUR ar 12 mēn. līg., 22-2/2022/818"],"promotion":true,"contractTermMonths":24,"promotionCode":"PROMO_4G_INTERNET_24M_818"}],"scrapedAt":"2025-08-29T18:30:26.419Z","source":"api"}
{"id":"node/9885024396","address":"Jaunzīļu iela 25, Laveri, Carnikavas pag., Ādažu nov.","properties":{"addr:street":"Jaunzīļu iela","addr:housenumber":"25","addr:city":"Laveri","addr:postcode":"LV-2163","addr:subdistrict":"Carnikavas pagasts","addr:district":"Ādažu novads","addr:country":"LV","ref:LV:addr":"106902023"},"geometry":{"type":"Point","coordinates":[24.2660456,57.1126386]},"offers":[{"connectionType":"Mobile (4G/5G)","originalTitle":"Mobilais Internets","speed":null,"features":["4G un 5G bezvadu tehnoloģija;","bezmaksas iekārtas uz pakalpojuma lietošanas laiku;","neierobežots mobilo datu apjoms;","vienkārši uzstādīt un ērti paņemt līdzi."],"techInfo":null,"pricePerMonthEur":23.5,"currency":"EUR","terms":null,"promotion":false,"contractTermMonths":0,"promotionCode":null},{"connectionType":"Mobile (4G/5G)","originalTitle":"Mobilais Internets","speed":null,"features":["4G un 5G bezvadu tehnoloģija;","bezmaksas iekārtas uz pakalpojuma lietošanas laiku;","neierobežots mobilo datu apjoms;","vienkārši uzstādīt un ērti paņemt līdzi."],"techInfo":null,"pricePerMonthEur":17.5,"currency":"EUR","terms":["Līgums uz 24 mēnešiem","Jauniem. 4G internets par 16.99 EUR ar 12 mēn. līg., 22-2/2022/818"],"promotion":true,"contractTermMonths":24,"promotionCode":"PROMO_4G_INTERNET_24M_818"}],"scrapedAt":"2025-08-29T18:30:26.419Z","source":"api"}
{"id":"node/9885024394","address":"Jaunzīļu iela 29, Laveri, Carnikavas pag., Ādažu nov.","properties":{"addr:street":"Jaunzīļu iela","addr:housenumber":"29","addr:city":"Laveri","addr:postcode":"LV-2163","addr:subdistrict":"Carnikavas pagasts","addr:district":"Ādažu novads","addr:country":"LV","ref:LV:addr":"106902048"},"geometry":{"type":"Point","coordinates":[24.2651896,57.1127034]},"offers":[{"connectionType":"Mobile (4G/5G)","originalTitle":"Mobilais Internets","speed":null,"features":["4G un 5G bezvadu tehnoloģija;","bezmaksas iekārtas uz pakalpojuma lietošanas laiku;","neierobežots mobilo datu apjoms;","vienkārši uzstādīt un ērti paņemt līdzi."],"techInfo":null,"pricePerMonthEur":23.5,"currency":"EUR","terms":null,"promotion":false,"contractTermMonths":0,"promotionCode":null},{"connectionType":"Mobile (4G/5G)","originalTitle":"Mobilais Internets","speed":null,"features":["4G un 5G bezvadu tehnoloģija;","bezmaksas iekārtas uz pakalpojuma lietošanas laiku;","neierobežots mobilo datu apjoms;","vienkārši uzstādīt un ērti paņemt līdzi."],"techInfo":null,"pricePerMonthEur":17.5,"currency":"EUR","terms":["Līgums uz 24 mēnešiem","Jauniem. 4G internets par 16.99 EUR ar 12 mēn. līg., 22-2/2022/818"],"promotion":true,"contractTermMonths":24,"promotionCode":"PROMO_4G_INTERNET_24M_818"}],"scrapedAt":"2025-08-29T18:30:26.430Z","source":"api"}
{"id":"node/9885024401","address":"Jaunzīļu iela 15, Laveri, Carnikavas pag., Ādažu nov.","properties":{"addr:street":"Jaunzīļu iela","addr:housenumber":"15","addr:city":"Laveri","addr:postcode":"LV-2163","addr:subdistrict":"Carnikavas pagasts","addr:district":"Ādažu novads","addr:country":"LV","ref:LV:addr":"106901970"},"geometry":{"type":"Point","coordinates":[24.2674355,57.1126273]},"offers":[{"connectionType":"Mobile (4G/5G)","originalTitle":"Mobilais Internets","speed":null,"features":["4G un 5G bezvadu tehnoloģija;","bezmaksas iekārtas uz pakalpojuma lietošanas laiku;","neierobežots mobilo datu apjoms;","vienkārši uzstādīt un ērti paņemt līdzi."],"techInfo":null,"pricePerMonthEur":23.5,"currency":"EUR","terms":null,"promotion":false,"contractTermMonths":0,"promotionCode":null},{"connectionType":"Mobile (4G/5G)","originalTitle":"Mobilais Internets","speed":null,"features":["4G un 5G bezvadu tehnoloģija;","bezmaksas iekārtas uz pakalpojuma lietošanas laiku;","neierobežots mobilo datu apjoms;","vienkārši uzstādīt un ērti paņemt līdzi."],"techInfo":null,"pricePerMonthEur":17.5,"currency":"EUR","terms":["Līgums uz 24 mēnešiem","Jauniem. 4G internets par 16.99 EUR ar 12 mēn. līg., 22-2/2022/818"],"promotion":true,"contractTermMonths":24,"promotionCode":"PROMO_4G_INTERNET_24M_818"}],"scrapedAt":"2025-08-29T18:30:27.917Z","source":"api"}
{"id":"node/9885024402","address":"Jaunzīļu iela 26, Laveri, Carnikavas pag., Ādažu nov.","properties":{"addr:street":"Jaunzīļu iela","addr:housenumber":"26","addr:city":"Laveri","addr:postcode":"LV-2163","addr:subdistrict":"Carnikavas pagasts","addr:district":"Ādažu novads","addr:country":"LV","ref:LV:addr":"106901962"},"geometry":{"type":"Point","coordinates":[24.2642315,57.1129685]},"offers":[{"connectionType":"Mobile (4G/5G)","originalTitle":"Mobilais Internets","speed":null,"features":["4G un 5G bezvadu tehnoloģija;","bezmaksas iekārtas uz pakalpojuma lietošanas laiku;","neierobežots mobilo datu apjoms;","vienkārši uzstādīt un ērti paņemt līdzi."],"techInfo":null,"pricePerMonthEur":23.5,"currency":"EUR","terms":null,"promotion":false,"contractTermMonths":0,"promotionCode":null},{"connectionType":"Mobile (4G/5G)","originalTitle":"Mobilais Internets","speed":null,"features":["4G un 5G bezvadu tehnoloģija;","bezmaksas iekārtas uz pakalpojuma lietošanas laiku;","neierobežots mobilo datu apjoms;","vienkārši uzstādīt un ērti paņemt līdzi."],"techInfo":null,"pricePerMonthEur":17.5,"currency":"EUR","terms":["Līgums uz 24 mēnešiem","Jauniem. 4G internets par 16.99 EUR ar 12 mēn. līg., 22-2/2022/818"],"promotion":true,"contractTermMonths":24,"promotionCode":"PROMO_4G_INTERNET_24M_818"}],"scrapedAt":"2025-08-29T18:30:27.994Z","source":"api"}
{"id":"node/9885024404","address":"Jaunzīļu iela 22, Laveri, Carnikavas pag., Ādažu nov.","properties":{"addr:street":"Jaunzīļu iela","addr:housenumber":"22","addr:city":"Laveri","addr:postcode":"LV-2163","addr:subdistrict":"Carnikavas pagasts","addr:district":"Ādažu novads","addr:country":"LV","ref:LV:addr":"106901946"},"geometry":{"type":"Point","coordinates":[24.265091,57.11319]},"offers":[{"connectionType":"Mobile (4G/5G)","originalTitle":"Mobilais Internets","speed":null,"features":["4G un 5G bezvadu tehnoloģija;","bezmaksas iekārtas uz pakalpojuma lietošanas laiku;","neierobežots mobilo datu apjoms;","vienkārši uzstādīt un ērti paņemt līdzi."],"techInfo":null,"pricePerMonthEur":23.5,"currency":"EUR","terms":null,"promotion":false,"contractTermMonths":0,"promotionCode":null},{"connectionType":"Mobile (4G/5G)","originalTitle":"Mobilais Internets","speed":null,"features":["4G un 5G bezvadu tehnoloģija;","bezmaksas iekārtas uz pakalpojuma lietošanas laiku;","neierobežots mobilo datu apjoms;","vienkārši uzstādīt un ērti paņemt līdzi."],"techInfo":null,"pricePerMonthEur":17.5,"currency":"EUR","terms":["Līgums uz 24 mēnešiem","Jauniem. 4G internets par 16.99 EUR ar 12 mēn. līg., 22-2/2022/818"],"promotion":true,"contractTermMonths":24,"promotionCode":"PROMO_4G_INTERNET_24M_818"}],"scrapedAt":"2025-08-29T18:30:28.084Z","source":"api"}
{"id":"node/9885024403","address":"Jaunzīļu iela 24, Laveri, Carnikavas pag., Ādažu nov.","properties":{"addr:street":"Jaunzīļu iela","addr:housenumber":"24","addr:city":"Laveri","addr:postcode":"LV-2163","addr:subdistrict":"Carnikavas pagasts","addr:district":"Ādažu novads","addr:country":"LV","ref:LV:addr":"106901954"},"geometry":{"type":"Point","coordinates":[24.2647342,57.113078]},"offers":[{"connectionType":"Mobile (4G/5G)","originalTitle":"Mobilais Internets","speed":null,"features":["4G un 5G bezvadu tehnoloģija;","bezmaksas iekārtas uz pakalpojuma lietošanas laiku;","neierobežots mobilo datu apjoms;","vienkārši uzstādīt un ērti paņemt līdzi."],"techInfo":null,"pricePerMonthEur":23.5,"currency":"EUR","terms":null,"promotion":false,"contractTermMonths":0,"promotionCode":null},{"connectionType":"Mobile (4G/5G)","originalTitle":"Mobilais Internets","speed":null,"features":["4G un 5G bezvadu tehnoloģija;","bezmaksas iekārtas uz pakalpojuma lietošanas laiku;","neierobežots mobilo datu apjoms;","vienkārši uzstādīt un ērti paņemt līdzi."],"techInfo":null,"pricePerMonthEur":17.5,"currency":"EUR","terms":["Līgums uz 24 mēnešiem","Jauniem. 4G internets par 16.99 EUR ar 12 mēn. līg., 22-2/2022/818"],"promotion":true,"contractTermMonths":24,"promotionCode":"PROMO_4G_INTERNET_24M_818"}],"scrapedAt":"2025-08-29T18:30:28.085Z","source":"api"}
{"id":"node/9885024407","address":"Jaunzīļu iela 16, Laveri, Carnikavas pag., Ādažu nov.","properties":{"addr:street":"Jaunzīļu iela","addr:housenumber":"16","addr:city":"Laveri","addr:postcode":"LV-2163","addr:subdistrict":"Carnikavas pagasts","addr:district":"Ādažu novads","addr:country":"LV","ref:LV:addr":"106901913"},"geometry":{"type":"Point","coordinates":[24.2664647,57.1132392]},"offers":[{"connectionType":"Mobile (4G/5G)","originalTitle":"Mobilais Internets","speed":null,"features":["4G un 5G bezvadu tehnoloģija;","bezmaksas iekārtas uz pakalpojuma lietošanas laiku;","neierobežots mobilo datu apjoms;","vienkārši uzstādīt un ērti paņemt līdzi."],"techInfo":null,"pricePerMonthEur":23.5,"currency":"EUR","terms":null,"promotion":false,"contractTermMonths":0,"promotionCode":null},{"connectionType":"Mobile (4G/5G)","originalTitle":"Mobilais Internets","speed":null,"features":["4G un 5G bezvadu tehnoloģija;","bezmaksas iekārtas uz pakalpojuma lietošanas laiku;","neierobežots mobilo datu apjoms;","vienkārši uzstādīt un ērti paņemt līdzi."],"techInfo":null,"pricePerMonthEur":17.5,"currency":"EUR","terms":["Līgums uz 24 mēnešiem","Jauniem. 4G internets par 16.99 EUR ar 12 mēn. līg., 22-2/2022/818"],"promotion":true,"contractTermMonths":24,"promotionCode":"PROMO_4G_INTERNET_24M_818"}],"scrapedAt":"2025-08-29T18:30:28.278Z","source":"api"}
{"id":"node/9885024406","address":"Jaunzīļu iela 18, Laveri, Carnikavas pag., Ādažu nov.","properties":{"addr:street":"Jaunzīļu iela","addr:housenumber":"18","addr:city":"Laveri","addr:postcode":"LV-2163","addr:subdistrict":"Carnikavas pagasts","addr:district":"Ādažu novads","addr:country":"LV","ref:LV:addr":"106901921"},"geometry":{"type":"Point","coordinates":[24.2660456,57.1132678]},"offers":[{"connectionType":"Mobile (4G/5G)","originalTitle":"Mobilais Internets","speed":null,"features":["4G un 5G bezvadu tehnoloģija;","bezmaksas iekārtas uz pakalpojuma lietošanas laiku;","neierobežots mobilo datu apjoms;","vienkārši uzstādīt un ērti paņemt līdzi."],"techInfo":null,"pricePerMonthEur":23.5,"currency":"EUR","terms":null,"promotion":false,"contractTermMonths":0,"promotionCode":null},{"connectionType":"Mobile (4G/5G)","originalTitle":"Mobilais Internets","speed":null,"features":["4G un 5G bezvadu tehnoloģija;","bezmaksas iekārtas uz pakalpojuma lietošanas laiku;","neierobežots mobilo datu apjoms;","vienkārši uzstādīt un ērti paņemt līdzi."],"techInfo":null,"pricePerMonthEur":17.5,"currency":"EUR","terms":["Līgums uz 24 mēnešiem","Jauniem. 4G internets par 16.99 EUR ar 12 mēn. līg., 22-2/2022/818"],"promotion":true,"contractTermMonths":24,"promotionCode":"PROMO_4G_INTERNET_24M_818"}],"scrapedAt":"2025-08-29T18:30:28.278Z","source":"api"}
{"id":"node/9885024405","address":"Jaunzīļu iela 20, Laveri, Carnikavas pag., Ādažu nov.","properties":{"addr:street":"Jaunzīļu iela","addr:housenumber":"20","addr:city":"Laveri","addr:postcode":"LV-2163","addr:subdistrict":"Carnikavas pagasts","addr:district":"Ādažu novads","addr:country":"LV","ref:LV:addr":"106901938"},"geometry":{"type":"Point","coordinates":[24.2655625,57.1132958]},"offers":[{"connectionType":"Mobile (4G/5G)","originalTitle":"Mobilais Internets","speed":null,"features":["4G un 5G bezvadu tehnoloģija;","bezmaksas iekārtas uz pakalpojuma lietošanas laiku;","neierobežots mobilo datu apjoms;","vienkārši uzstādīt un ērti paņemt līdzi."],"techInfo":null,"pricePerMonthEur":23.5,"currency":"EUR","terms":null,"promotion":false,"contractTermMonths":0,"promotionCode":null},{"connectionType":"Mobile (4G/5G)","originalTitle":"Mobilais Internets","speed":null,"features":["4G un 5G bezvadu tehnoloģija;","bezmaksas iekārtas uz pakalpojuma lietošanas laiku;","neierobežots mobilo datu apjoms;","vienkārši uzstādīt un ērti paņemt līdzi."],"techInfo":null,"pricePerMonthEur":17.5,"currency":"EUR","terms":["Līgums uz 24 mēnešiem","Jauniem. 4G internets par 16.99 EUR ar 12 mēn. līg., 22-2/2022/818"],"promotion":true,"contractTermMonths":24,"promotionCode":"PROMO_4G_INTERNET_24M_818"}],"scrapedAt":"2025-08-29T18:41:08.383Z","source":"api"}
