{"id":"node/9888119129","address":"Cepļu iela 4, Priežlejas, Garkalnes pag., Ropažu nov.","properties":{"addr:street":"Cepļu iela","addr:housenumber":"4","addr:city":"Priežlejas","addr:postcode":"LV-1023","addr:subdistrict":"Garkalnes pagasts","addr:district":"Ropažu novads","addr:country":"LV","ref:LV:addr":"106227911"},"geometry":{"type":"Point","coordinates":[24.1651028,57.0552881]},"offers":[{"connectionType":"Mobile (4G/5G)","originalTitle":"Mobilais Internets","speed":null,"features":["4G un 5G bezvadu tehnoloģija;","bezmaksas iekārtas uz pakalpojuma lietošanas laiku;","neierobežots mobilo datu apjoms;","vienkārši uzstādīt un ērti paņemt līdzi."],"techInfo":null,"pricePerMonthEur":23.5,"currency":"EUR","terms":null,"promotion":false,"contractTermMonths":0,"promotionCode":null},{"connectionType":"Mobile (4G/5G)","originalTitle":"Mobilais Internets","speed":null,"features":["4G un 5G bezvadu tehnoloģija;","bezmaksas iekārtas uz pakalpojuma lietošanas laiku;","neierobežots mobilo datu apjoms;","vienkārši uzstādīt un ērti paņemt līdzi."],"techInfo":null,"pricePerMonthEur":17.5,"currency":"EUR","terms":["Līgums uz 24 mēnešiem","Jauniem. 4G internets par 16.99 EUR ar 12 mēn. līg., 22-2/2022/818"],"promotion":true,"contractTermMonths":24,"promotionCode":"PROMO_4G_INTERNET_24M_818"}],"scrapedAt":"2025-08-29T20:18:18.019Z","source":"api"}
{"id":"node/9888119130","address":"Cepļu iela 8, Priežlejas, Garkalnes pag., Ropažu nov.","properties":{"addr:street":"Cepļu iela","addr:housenumber":"8","addr:city":"Priežlejas","addr:postcode":"LV-1023","addr:subdistrict":"Garkalnes pagasts","addr:district":"Ropažu novads","addr:country":"LV","ref:LV:addr":"106227897"},"geometry":{"type":"Point","coordinates":[24.1650302,57.0556435]},"offers":[{"connectionType":"Mobile (4G/5G)","originalTitle":"Mobilais Internets","speed":null,"features":["4G un 5G bezvadu tehnoloģija;","bezmaksas iekārtas uz pakalpojuma lietošanas laiku;","neierobežots mobilo datu apjoms;","vienkārši uzstādīt un ērti paņemt līdzi."],"techInfo":null,"pricePerMonthEur":23.5,"currency":"EUR","terms":null,"promotion":false,"contractTermMonths":0,"promotionCode":null},{"connectionType":"Mobile (4G/5G)","originalTitle":"Mobilais Internets","speed":null,"features":["4G un 5G bezvadu tehnoloģija;","bezmaksas iekārtas uz pakalpojuma lietošanas laiku;","neierobežots mobilo datu apjoms;","vienkārši uzstādīt un ērti paņemt līdzi."],"techInfo":null,"pricePerMonthEur":17.5,"currency":"EUR","terms":["Līgums uz 24 mēnešiem","Jauniem. 4G internets par 16.99 EUR ar 12 mēn. līg., 22-2/2022/818"],"promotion":true,"contractTermMonths":24,"promotionCode":"PROMO_4G_INTERNET_24M_818"}],"scrapedAt":"2025-08-29T20:18:18.175Z","source":"api"}
{"id":"node/9888119126","address":"Cepļu iela 7, Priežlejas, Garkalnes pag., Ropažu nov.","properties":{"addr:street":"Cepļu iela","addr:housenumber":"7","addr:city":"Priežlejas","addr:postcode":"LV-1023","addr:subdistrict":"Garkalnes pagasts","addr:district":"Ropažu novads","addr:country":"LV","ref:LV:addr":"106227856"},"geometry":{"type":"Point","coordinates":[24.1640215,57.0551638]},"offers":[{"connectionType":"Mobile (4G/5G)","originalTitle":"Mobilais Internets","speed":null,"features":["4G un 5G bezvadu tehnoloģija;","bezmaksas iekārtas uz pakalpojuma lietošanas laiku;","neierobežots mobilo datu apjoms;","vienkārši uzstādīt un ērti paņemt līdzi."],"techInfo":null,"pricePerMonthEur":23.5,"currency":"EUR","terms":null,"promotion":false,"contractTermMonths":0,"promotionCode":null},{"connectionType":"Mobile (4G/5G)","originalTitle":"Mobilais Internets","speed":null,"features":["4G un 5G bezvadu tehnoloģija;","bezmaksas iekārtas uz pakalpojuma lietošanas laiku;","neierobežots mobilo datu apjoms;","vienkārši uzstādīt un ērti paņemt līdzi."],"techInfo":null,"pricePerMonthEur":17.5,"currency":"EUR","terms":["Līgums uz 24 mēnešiem","Jauniem. 4G internets par 16.99 EUR ar 12 mēn. līg., 22-2/2022/818"],"promotion":true,"contractTermMonths":24,"promotionCode":"PROMO_4G_INTERNET_24M_818"}],"scrapedAt":"2025-08-29T20:18:18.297Z","source":"api"}
{"id":"node/9888119131","address":"Cepļu iela 11, Priežlejas, Garkalnes pag., Ropažu nov.","properties":{"addr:street":"Cepļu iela","addr:housenumber":"11","addr:city":"Priežlejas","addr:postcode":"LV-1023","addr:subdistrict":"Garkalnes pagasts","addr:district":"Ropažu novads","addr:country":"LV","ref:LV:addr":"106227872"},"geometry":{"type":"Point","coordinates":[24.1639444,57.0555942]},"offers":[{"connectionType":"Mobile (4G/5G)","originalTitle":"Mobilais Internets","speed":null,"features":["4G un 5G bezvadu tehnoloģija;","bezmaksas iekārtas uz pakalpojuma lietošanas laiku;","neierobežots mobilo datu apjoms;","vienkārši uzstādīt un ērti paņemt līdzi."],"techInfo":null,"pricePerMonthEur":23.5,"currency":"EUR","terms":null,"promotion":false,"contractTermMonths":0,"promotionCode":null},{"connectionType":"Mobile (4G/5G)","originalTitle":"Mobilais Internets","speed":null,"features":["4G un 5G bezvadu tehnoloģija;","bezmaksas iekārtas uz pakalpojuma lietošanas laiku;","neierobežots mobilo datu apjoms;","vienkārši uzstādīt un ērti paņemt līdzi."],"techInfo":null,"pricePerMonthEur":17.5,"currency":"EUR","terms":["Līgums uz 24 mēnešiem","Jauniem. 4G internets par 16.99 EUR ar 12 mēn. līg., 22-2/2022/818"],"promotion":true,"contractTermMonths":24,"promotionCode":"PROMO_4G_INTERNET_24M_818"}],"scrapedAt":"2025-08-29T20:18:18.298Z","source":"api"}
{"id":"node/9888119128","address":"Cepļu iela 2, Priežlejas, Garkalnes pag., Ropažu nov.","properties":{"addr:street":"Cepļu iela","addr:housenumber":"2","addr:city":"Priežlejas","addr:postcode":"LV-1023","addr:subdistrict":"Garkalnes pagasts","addr:district":"Ropažu novads","addr:country":"LV","ref:LV:addr":"106227928"},"geometry":{"type":"Point","coordinates":[24.1656372,57.0551291]},"offers":[{"connectionType":"Mobile (4G/5G)","originalTitle":"Mobilais Internets","speed":null,"features":["4G un 5G bezvadu tehnoloģija;","bezmaksas iekārtas uz pakalpojuma lietošanas laiku;","neierobežots mobilo datu apjoms;","vienkārši uzstādīt un ērti paņemt līdzi."],"techInfo":null,"pricePerMonthEur":23.5,"currency":"EUR","terms":null,"promotion":false,"contractTermMonths":0,"promotionCode":null},{"connectionType":"Mobile (4G/5G)","originalTitle":"Mobilais Internets","speed":null,"features":["4G un 5G bezvadu tehnoloģija;","bezmaksas iekārtas uz pakalpojuma lietošanas laiku;","neierobežots mobilo datu apjoms;","vienkārši uzstādīt un ērti paņemt līdzi."],"techInfo":null,"pricePerMonthEur":17.5,"currency":"EUR","terms":["Līgums uz 24 mēnešiem","Jauniem. 4G internets par 16.99 EUR ar 12 mēn. līg., 22-2/2022/818"],"promotion":true,"contractTermMonths":24,"promotionCode":"PROMO_4G_INTERNET_24M_818"}],"scrapedAt":"2025-08-29T20:18:18.299Z","source":"api"}
{"id":"node/9888119127","address":"Cepļu iela 3, Priežlejas, Garkalnes pag., Ropažu nov.","properties":{"addr:street":"Cepļu iela","addr:housenumber":"3","addr:city":"Priežlejas","addr:postcode":"LV-1023","addr:subdistrict":"Garkalnes pagasts","addr:district":"Ropažu novads","addr:country":"LV","ref:LV:addr":"106227831"},"geometry":{"type":"Point","coordinates":[24.1647395,57.054931]},"offers":[{"connectionType":"Mobile (4G/5G)","originalTitle":"Mobilais Internets","speed":null,"features":["4G un 5G bezvadu tehnoloģija;","bezmaksas iekārtas uz pakalpojuma lietošanas laiku;","neierobežots mobilo datu apjoms;","vienkārši uzstādīt un ērti paņemt līdzi."],"techInfo":null,"pricePerMonthEur":23.5,"currency":"EUR","terms":null,"promotion":false,"contractTermMonths":0,"promotionCode":null},{"connectionType":"Mobile (4G/5G)","originalTitle":"Mobilais Internets","speed":null,"features":["4G un 5G bezvadu tehnoloģija;","bezmaksas iekārtas uz pakalpojuma lietošanas laiku;","neierobežots mobilo datu apjoms;","vienkārši uzstādīt un ērti paņemt līdzi."],"techInfo":null,"pricePerMonthEur":17.5,"currency":"EUR","terms":["Līgums uz 24 mēnešiem","Jauniem. 4G internets par 16.99 EUR ar 12 mēn. līg., 22-2/2022/818"],"promotion":true,"contractTermMonths":24,"promotionCode":"PROMO_4G_INTERNET_24M_818"}],"scrapedAt":"2025-08-29T20:18:18.305Z","source":"api"}
{"id":"node/9888119138","address":"Varavīksnes iela 6, Priežlejas, Garkalnes pag., Ropažu nov.","properties":{"addr:street":"Varavīksnes iela","addr:housenumber":"6","addr:city":"Priežlejas","addr:postcode":"LV-1023","addr:subdistrict":"Garkalnes pagasts","addr:district":"Ropažu novads","addr:country":"LV","ref:LV:addr":"106548145"},"geometry":{"type":"Point","coordinates":[24.1636042,57.0546949]},"offers":[{"connectionType":"Mobile (4G/5G)","originalTitle":"Mobilais Internets","speed":null,"features":["4G un 5G bezvadu tehnoloģija;","bezmaksas iekārtas uz pakalpojuma lietošanas laiku;","neierobežots mobilo datu apjoms;","vienkārši uzstādīt un ērti paņemt līdzi."],"techInfo":null,"pricePerMonthEur":23.5,"currency":"EUR","terms":null,"promotion":false,"contractTermMonths":0,"promotionCode":null},{"connectionType":"Mobile (4G/5G)","originalTitle":"Mobilais Internets","speed":null,"features":["4G un 5G bezvadu tehnoloģija;","bezmaksas iekārtas uz pakalpojuma lietošanas laiku;","neierobežots mobilo datu apjoms;","vienkārši uzstādīt un ērti paņemt līdzi."],"techInfo":null,"pricePerMonthEur":17.5,"currency":"EUR","terms":["Līgums uz 24 mēnešiem","Jauniem. 4G internets par 16.99 EUR ar 12 mēn. līg., 22-2/2022/818"],"promotion":true,"contractTermMonths":24,"promotionCode":"PROMO_4G_INTERNET_24M_818"}],"scrapedAt":"2025-08-29T20:18:19.941Z","source":"api"}
{"id":"node/9888119139","address":"Varavīksnes iela 2, Priežlejas, Garkalnes pag., Ropažu nov.","properties":{"addr:street":"Varavīksnes iela","addr:housenumber":"2","addr:city":"Priežlejas","addr:postcode":"LV-1023","addr:subdistrict":"Garkalnes pagasts","addr:district":"Ropažu novads","addr:country":"LV","ref:LV:addr":"106548104"},"geometry":{"type":"Point","coordinates":[24.1650868,57.0545784]},"offers":[{"connectionType":"Mobile (4G/5G)","originalTitle":"Mobilais Internets","speed":null,"features":["4G un 5G bezvadu tehnoloģija;","bezmaksas iekārtas uz pakalpojuma lietošanas laiku;","neierobežots mobilo datu apjoms;","vienkārši uzstādīt un ērti paņemt līdzi."],"techInfo":null,"pricePerMonthEur":23.5,"currency":"EUR","terms":null,"promotion":false,"contractTermMonths":0,"promotionCode":null},{"connectionType":"Mobile (4G/5G)","originalTitle":"Mobilais Internets","speed":null,"features":["4G un 5G bezvadu tehnoloģija;","bezmaksas iekārtas uz pakalpojuma lietošanas laiku;","neierobežots mobilo datu apjoms;","vienkārši uzstādīt un ērti paņemt līdzi."],"techInfo":null,"pricePerMonthEur":17.5,"currency":"EUR","terms":["Līgums uz 24 mēnešiem","Jauniem. 4G internets par 16.99 EUR ar 12 mēn. līg., 22-2/2022/818"],"promotion":true,"contractTermMonths":24,"promotionCode":"PROMO_4G_INTERNET_24M_818"}],"scrapedAt":"2025-08-29T20:18:20.064Z","source":"api"}
{"id":"node/9888119137","address":"Varavīksnes iela 7, Priežlejas, Garkalnes pag., Ropažu nov.","properties":{"addr:street":"Varavīksnes iela","addr:housenumber":"7","addr:city":"Priežlejas","addr:postcode":"LV-1023","addr:subdistrict":"Garkalnes pagasts","addr:district":"Ropažu novads","addr:country":"LV","ref:LV:addr":"106548153"},"geometry":{"type":"Point","coordinates":[24.1616848,57.0550997]},"offers":[{"connectionType":"Mobile (4G/5G)","originalTitle":"Mobilais Internets","speed":null,"features":["4G un 5G bezvadu tehnoloģija;","bezmaksas iekārtas uz pakalpojuma lietošanas laiku;","neierobežots mobilo datu apjoms;","vienkārši uzstādīt un ērti paņemt līdzi."],"techInfo":null,"pricePerMonthEur":23.5,"currency":"EUR","terms":null,"promotion":false,"contractTermMonths":0,"promotionCode":null},{"connectionType":"Mobile (4G/5G)","originalTitle":"Mobilais Internets","speed":null,"features":["4G un 5G bezvadu tehnoloģija;","bezmaksas iekārtas uz pakalpojuma lietošanas laiku;","neierobežots mobilo datu apjoms;","vienkārši uzstādīt un ērti paņemt līdzi."],"techInfo":null,"pricePerMonthEur":17.5,"currency":"EUR","terms":["Līgums uz 24 mēnešiem","Jauniem. 4G internets par 16.99 EUR ar 12 mēn. līg., 22-2/2022/818"],"promotion":true,"contractTermMonths":24,"promotionCode":"PROMO_4G_INTERNET_24M_818"}],"scrapedAt":"2025-08-29T20:18:20.066Z","source":"api"}
{"id":"node/9888119132","address":"Cepļu iela 9, Priežlejas, Garkalnes pag., Ropažu nov.","properties":{"addr:street":"Cepļu iela","addr:housenumber":"9","addr:city":"Priežlejas","addr:postcode":"LV-1023","addr:subdistrict":"Garkalnes pagasts","addr:district":"Ropažu novads","addr:country":"LV","ref:LV:addr":"106227864"},"geometry":{"type":"Point","coordinates":[24.1639326,57.0553552]},"offers":[{"connectionType":"Mobile (4G/5G)","originalTitle":"Mobilais Internets","speed":null,"features":["4G un 5G bezvadu tehnoloģija;","bezmaksas iekārtas uz pakalpojuma lietošanas laiku;","neierobežots mobilo datu apjoms;","vienkārši uzstādīt un ērti paņemt līdzi."],"techInfo":null,"pricePerMonthEur":23.5,"currency":"EUR","terms":null,"promotion":false,"contractTermMonths":0,"promotionCode":null},{"connectionType":"Mobile (4G/5G)","originalTitle":"Mobilais Internets","speed":null,"features":["4G un 5G bezvadu tehnoloģija;","bezmaksas iekārtas uz pakalpojuma lietošanas laiku;","neierobežots mobilo datu apjoms;","vienkārši uzstādīt un ērti paņemt līdzi."],"techInfo":null,"pricePerMonthEur":17.5,"currency":"EUR","terms":["Līgums uz 24 mēnešiem","Jauniem. 4G internets par 16.99 EUR ar 12 mēn. līg., 22-2/2022/818"],"promotion":true,"contractTermMonths":24,"promotionCode":"PROMO_4G_INTERNET_24M_818"}],"scrapedAt":"2025-08-29T20:18:20.065Z","source":"api"}
{"id":"node/9888119134","address":"Zundagu iela 18, Priežlejas, Garkalnes pag., Ropažu nov.","properties":{"addr:street":"Zundagu iela","addr:housenumber":"18","addr:city":"Priežlejas","addr:postcode":"LV-1023","addr:subdistrict":"Garkalnes pagasts","addr:district":"Ropažu novads","addr:country":"LV","ref:LV:addr":"104851367"},"geometry":{"type":"Point","coordinates":[24.1649224,57.0576019]},"offers":[{"connectionType":"Mobile (4G/5G)","originalTitle":"Mobilais Internets","speed":null,"features":["4G un 5G bezvadu tehnoloģija;","bezmaksas iekārtas uz pakalpojuma lietošanas laiku;","neierobežots mobilo datu apjoms;","vienkārši uzstādīt un ērti paņemt līdzi."],"techInfo":null,"pricePerMonthEur":23.5,"currency":"EUR","terms":null,"promotion":false,"contractTermMonths":0,"promotionCode":null},{"connectionType":"Mobile (4G/5G)","originalTitle":"Mobilais Internets","speed":null,"features":["4G un 5G bezvadu tehnoloģija;","bezmaksas iekārtas uz pakalpojuma lietošanas laiku;","neierobežots mobilo datu apjoms;","vienkārši uzstādīt un ērti paņemt līdzi."],"techInfo":null,"pricePerMonthEur":17.5,"currency":"EUR","terms":["Līgums uz 24 mēnešiem","Jauniem. 4G internets par 16.99 EUR ar 12 mēn. līg., 22-2/2022/818"],"promotion":true,"contractTermMonths":24,"promotionCode":"PROMO_4G_INTERNET_24M_818"}],"scrapedAt":"2025-08-29T20:18:20.196Z","source":"api"}
{"id":"node/9888119135","address":"Zundagu iela 4, Priežlejas, Garkalnes pag., Ropažu nov.","properties":{"addr:street":"Zundagu iela","addr:housenumber":"4","addr:city":"Priežlejas","addr:postcode":"LV-1023","addr:subdistrict":"Garkalnes pagasts","addr:district":"Ropažu novads","addr:country":"LV","ref:LV:addr":"104848168"},"geometry":{"type":"Point","coordinates":[24.1663306,57.0584311]},"offers":[{"connectionType":"Mobile (4G/5G)","originalTitle":"Mobilais Internets","speed":null,"features":["4G un 5G bezvadu tehnoloģija;","bezmaksas iekārtas uz pakalpojuma lietošanas laiku;","neierobežots mobilo datu apjoms;","vienkārši uzstādīt un ērti paņemt līdzi."],"techInfo":null,"pricePerMonthEur":23.5,"currency":"EUR","terms":null,"promotion":false,"contractTermMonths":0,"promotionCode":null},{"connectionType":"Mobile (4G/5G)","originalTitle":"Mobilais Internets","speed":null,"features":["4G un 5G bezvadu tehnoloģija;","bezmaksas iekārtas uz pakalpojuma lietošanas laiku;","neierobežots mobilo datu apjoms;","vienkārši uzstādīt un ērti paņemt līdzi."],"techInfo":null,"pricePerMonthEur":17.5,"currency":"EUR","terms":["Līgums uz 24 mēnešiem","Jauniem. 4G internets par 16.99 EUR ar 12 mēn. līg., 22-2/2022/818"],"promotion":true,"contractTermMonths":24,"promotionCode":"PROMO_4G_INTERNET_24M_818"}],"scrapedAt":"2025-08-29T20:18:20.197Z","source":"api"}
{"id":"node/9888119136","address":"Varavīksnes iela 8, Priežlejas, Garkalnes pag., Ropažu nov.","properties":{"addr:street":"Varavīksnes iela","addr:housenumber":"8","addr:city":"Priežlejas","addr:postcode":"LV-1023","addr:subdistrict":"Garkalnes pagasts","addr:district":"Ropažu novads","addr:country":"LV","ref:LV:addr":"106548161"},"geometry":{"type":"Point","coordinates":[24.1633365,57.0548594]},"offers":[{"connectionType":"Mobile (4G/5G)","originalTitle":"Mobilais Internets","speed":null,"features":["4G un 5G bezvadu tehnoloģija;","bezmaksas iekārtas uz pakalpojuma lietošanas laiku;","neierobežots mobilo datu apjoms;","vienkārši uzstādīt un ērti paņemt līdzi."],"techInfo":null,"pricePerMonthEur":23.5,"currency":"EUR","terms":null,"promotion":false,"contractTermMonths":0,"promotionCode":null},{"connectionType":"Mobile (4G/5G)","originalTitle":"Mobilais Internets","speed":null,"features":["4G un 5G bezvadu tehnoloģija;","bezmaksas iekārtas uz pakalpojuma lietošanas laiku;","neierobežots mobilo datu apjoms;","vienkārši uzstādīt un ērti paņemt līdzi."],"techInfo":null,"pricePerMonthEur":17.5,"currency":"EUR","terms":["Līgums uz 24 mēnešiem","Jauniem. 4G internets par 16.99 EUR ar 12 mēn. līg., 22-2/2022/818"],"promotion":true,"contractTermMonths":24,"promotionCode":"PROMO_4G_INTERNET_24M_818"}],"scrapedAt":"2025-08-29T20:18:20.333Z","source":"api"}
{"id":"node/9888119140","address":"Varavīksnes iela 1, Priežlejas, Garkalnes pag., Ropažu nov.","properties":{"addr:street":"Varavīksnes iela","addr:housenumber":"1","addr:city":"Priežlejas","addr:postcode":"LV-1023","addr:subdistrict":"Garkalnes pagasts","addr:district":"Ropažu novads","addr:country":"LV","ref:LV:addr":"106548098"},"geometry":{"type":"Point","coordinates":[24.1627023,57.0546314]},"offers":[{"connectionType":"Mobile (4G/5G)","originalTitle":"Mobilais Internets","speed":null,"features":["4G un 5G bezvadu tehnoloģija;","bezmaksas iekārtas uz pakalpojuma lietošanas laiku;","neierobežots mobilo datu apjoms;","vienkārši uzstādīt un ērti paņemt līdzi."],"techInfo":null,"pricePerMonthEur":23.5,"currency":"EUR","terms":null,"promotion":false,"contractTermMonths":0,"promotionCode":null},{"connectionType":"Mobile (4G/5G)","originalTitle":"Mobilais Internets","speed":null,"features":["4G un 5G bezvadu tehnoloģija;","bezmaksas iekārtas uz pakalpojuma lietošanas laiku;","neierobežots mobilo datu apjoms;","vienkārši uzstādīt un ērti paņemt līdzi."],"techInfo":null,"pricePerMonthEur":17.5,"currency":"EUR","terms":["Līgums uz 24 mēnešiem","Jauniem. 4G internets par 16.99 EUR ar 12 mēn. līg., 22-2/2022/818"],"promotion":true,"contractTermMonths":24,"promotionCode":"PROMO_4G_INTERNET_24M_818"}],"scrapedAt":"2025-08-29T20:18:22.015Z","source":"api"}
{"id":"node/9888119141","address":"Zundagu iela 24, Priežlejas, Garkalnes pag., Ropažu nov.","properties":{"addr:street":"Zundagu iela","addr:housenumber":"24","addr:city":"Priežlejas","addr:postcode":"LV-1023","addr:subdistrict":"Garkalnes pagasts","addr:district":"Ropažu novads","addr:country":"LV","ref:LV:addr":"105377447"},"geometry":{"type":"Point","coordinates":[24.1657781,57.0580086]},"offers":[{"connectionType":"Mobile (4G/5G)","originalTitle":"Mobilais Internets","speed":null,"features":["4G un 5G bezvadu tehnoloģija;","bezmaksas iekārtas uz pakalpojuma lietošanas laiku;","neierobežots mobilo datu apjoms;","vienkārši uzstādīt un ērti paņemt līdzi."],"techInfo":null,"pricePerMonthEur":23.5,"currency":"EUR","terms":null,"promotion":false,"contractTermMonths":0,"promotionCode":null},{"connectionType":"Mobile (4G/5G)","originalTitle":"Mobilais Internets","speed":null,"features":["4G un 5G bezvadu tehnoloģija;","bezmaksas iekārtas uz pakalpojuma lietošanas laiku;","neierobežots mobilo datu apjoms;","vienkārši uzstādīt un ērti paņemt līdzi."],"techInfo":null,"pricePerMonthEur":17.5,"currency":"EUR","terms":["Līgums uz 24 mēnešiem","Jauniem. 4G internets par 16.99 EUR ar 12 mēn. līg., 22-2/2022/818"],"promotion":true,"contractTermMonths":24,"promotionCode":"PROMO_4G_INTERNET_24M_818"}],"scrapedAt":"2025-08-29T20:18:22.135Z","source":"api"}
{"id":"node/9888119143","address":"Zundagu iela 22, Priežlejas, Garkalnes pag., Ropažu nov.","properties":{"addr:street":"Zundagu iela","addr:housenumber":"22","addr:city":"Priežlejas","addr:postcode":"LV-1023","addr:subdistrict":"Garkalnes pagasts","addr:district":"Ropažu novads","addr:country":"LV","ref:LV:addr":"105377422"},"geometry":{"type":"Point","coordinates":[24.1652947,57.0580133]},"offers":[{"connectionType":"Mobile (4G/5G)","originalTitle":"Mobilais Internets","speed":null,"features":["4G un 5G bezvadu tehnoloģija;","bezmaksas iekārtas uz pakalpojuma lietošanas laiku;","neierobežots mobilo datu apjoms;","vienkārši uzstādīt un ērti paņemt līdzi."],"techInfo":null,"pricePerMonthEur":23.5,"currency":"EUR","terms":null,"promotion":false,"contractTermMonths":0,"promotionCode":null},{"connectionType":"Mobile (4G/5G)","originalTitle":"Mobilais Internets","speed":null,"features":["4G un 5G bezvadu tehnoloģija;","bezmaksas iekārtas uz pakalpojuma lietošanas laiku;","neierobežots mobilo datu apjoms;","vienkārši uzstādīt un ērti paņemt līdzi."],"techInfo":null,"pricePerMonthEur":17.5,"currency":"EUR","terms":["Līgums uz 24 mēnešiem","Jauniem. 4G internets par 16.99 EUR ar 12 mēn. līg., 22-2/2022/818"],"promotion":true,"contractTermMonths":24,"promotionCode":"PROMO_4G_INTERNET_24M_818"}],"scrapedAt":"2025-08-29T20:18:22.268Z","source":"api"}
{"id":"node/9888119144","address":"Zundagu iela 23, Priežlejas, Garkalnes pag., Ropažu nov.","properties":{"addr:street":"Zundagu iela","addr:housenumber":"23","addr:city":"Priežlejas","addr:postcode":"LV-1023","addr:subdistrict":"Garkalnes pagasts","addr:district":"Ropažu novads","addr:country":"LV","ref:LV:addr":"105377391"},"geometry":{"type":"Point","coordinates":[24.1656757,57.0583042]},"offers":[{"connectionType":"Mobile (4G/5G)","originalTitle":"Mobilais Internets","speed":null,"features":["4G un 5G bezvadu tehnoloģija;","bezmaksas iekārtas uz pakalpojuma lietošanas laiku;","neierobežots mobilo datu apjoms;","vienkārši uzstādīt un ērti paņemt līdzi."],"techInfo":null,"pricePerMonthEur":23.5,"currency":"EUR","terms":null,"promotion":false,"contractTermMonths":0,"promotionCode":null},{"connectionType":"Mobile (4G/5G)","originalTitle":"Mobilais Internets","speed":null,"features":["4G un 5G bezvadu tehnoloģija;","bezmaksas iekārtas uz pakalpojuma lietošanas laiku;","neierobežots mobilo datu apjoms;","vienkārši uzstādīt un ērti paņemt līdzi."],"techInfo":null,"pricePerMonthEur":17.5,"currency":"EUR","terms":["Līgums uz 24 mēnešiem","Jauniem. 4G internets par 16.99 EUR ar 12 mēn. līg., 22-2/2022/818"],"promotion":true,"contractTermMonths":24,"promotionCode":"PROMO_4G_INTERNET_24M_818"}],"scrapedAt":"2025-08-29T20:18:22.400Z","source":"api"}
{"id":"node/9888119142","address":"Zundagu iela 21, Priežlejas, Garkalnes pag., Ropažu nov.","properties":{"addr:street":"Zundagu iela","addr:housenumber":"21","addr:city":"Priežlejas","addr:postcode":"LV-1023","addr:subdistrict":"Garkalnes pagasts","addr:district":"Ropažu novads","addr:country":"LV","ref:LV:addr":"105377430"},"geometry":{"type":"Point","coordinates":[24.1650116,57.0583462]},"offers":[{"connectionType":"Mobile (4G/5G)","originalTitle":"Mobilais Internets","speed":null,"features":["4G un 5G bezvadu tehnoloģija;","bezmaksas iekārtas uz pakalpojuma lietošanas laiku;","neierobežots mobilo datu apjoms;","vienkārši uzstādīt un ērti paņemt līdzi."],"techInfo":null,"pricePerMonthEur":23.5,"currency":"EUR","terms":null,"promotion":false,"contractTermMonths":0,"promotionCode":null},{"connectionType":"Mobile (4G/5G)","originalTitle":"Mobilais Internets","speed":null,"features":["4G un 5G bezvadu tehnoloģija;","bezmaksas iekārtas uz pakalpojuma lietošanas laiku;","neierobežots mobilo datu apjoms;","vienkārši uzstādīt un ērti paņemt līdzi."],"techInfo":null,"pricePerMonthEur":17.5,"currency":"EUR","terms":["Līgums uz 24 mēnešiem","Jauniem. 4G internets par 16.99 EUR ar 12 mēn. līg., 22-2/2022/818"],"promotion":true,"contractTermMonths":24,"promotionCode":"PROMO_4G_INTERNET_24M_818"}],"scrapedAt":"2025-08-29T20:18:22.533Z","source":"api"}
{"id":"node/9888119145","address":"Zundagu iela 6, Priežlejas, Garkalnes pag., Ropažu nov.","properties":{"addr:street":"Zundagu iela","addr:housenumber":"6","addr:city":"Priežlejas","addr:postcode":"LV-1023","addr:subdistrict":"Garkalnes pagasts","addr:district":"Ropažu novads","addr:country":"LV","ref:LV:addr":"105377383"},"geometry":{"type":"Point","coordinates":[24.1664516,57.0582098]},"offers":[{"connectionType":"Mobile (4G/5G)","originalTitle":"Mobilais Internets","speed":null,"features":["4G un 5G bezvadu tehnoloģija;","bezmaksas iekārtas uz pakalpojuma lietošanas laiku;","neierobežots mobilo datu apjoms;","vienkārši uzstādīt un ērti paņemt līdzi."],"techInfo":null,"pricePerMonthEur":23.5,"currency":"EUR","terms":null,"promotion":false,"contractTermMonths":0,"promotionCode":null},{"connectionType":"Mobile (4G/5G)","originalTitle":"Mobilais Internets","speed":null,"features":["4G un 5G bezvadu tehnoloģija;","bezmaksas iekārtas uz pakalpojuma lietošanas laiku;","neierobežots mobilo datu apjoms;","vienkārši uzstādīt un ērti paņemt līdzi."],"techInfo":null,"pricePerMonthEur":17.5,"currency":"EUR","terms":["Līgums uz 24 mēnešiem","Jauniem. 4G internets par 16.99 EUR ar 12 mēn. līg., 22-2/2022/818"],"promotion":true,"contractTermMonths":24,"promotionCode":"PROMO_4G_INTERNET_24M_818"}],"scrapedAt":"2025-08-29T20:18:22.534Z","source":"api"}
{"id":"node/9888119587","address":"Cepļu iela 5, Priežlejas, Garkalnes pag., Ropažu nov.","properties":{"addr:street":"Cepļu iela","addr:housenumber":"5","addr:city":"Priežlejas","addr:postcode":"LV-1023","addr:subdistrict":"Garkalnes pagasts","addr:district":"Ropažu novads","addr:country":"LV","ref:LV:addr":"106227848"},"geometry":{"type":"Point","coordinates":[24.1643253,57.0549944]},"offers":[{"connectionType":"Mobile (4G/5G)","originalTitle":"Mobilais Internets","speed":null,"features":["4G un 5G bezvadu tehnoloģija;","bezmaksas iekārtas uz pakalpojuma lietošanas laiku;","neierobežots mobilo datu apjoms;","vienkārši uzstādīt un ērti paņemt līdzi."],"techInfo":null,"pricePerMonthEur":23.5,"currency":"EUR","terms":null,"promotion":false,"contractTermMonths":0,"promotionCode":null},{"connectionType":"Mobile (4G/5G)","originalTitle":"Mobilais Internets","speed":null,"features":["4G un 5G bezvadu tehnoloģija;","bezmaksas iekārtas uz pakalpojuma lietošanas laiku;","neierobežots mobilo datu apjoms;","vienkārši uzstādīt un ērti paņemt līdzi."],"techInfo":null,"pricePerMonthEur":17.5,"currency":"EUR","terms":["Līgums uz 24 mēnešiem","Jauniem. 4G internets par 16.99 EUR ar 12 mēn. līg., 22-2/2022/818"],"promotion":true,"contractTermMonths":24,"promotionCode":"PROMO_4G_INTERNET_24M_818"}],"scrapedAt":"2025-08-29T20:18:28.622Z","source":"api"}
{"id":"node/9888119589","address":"Cepļu iela 6, Priežlejas, Garkalnes pag., Ropažu nov.","properties":{"addr:street":"Cepļu iela","addr:housenumber":"6","addr:city":"Priežlejas","addr:postcode":"LV-1023","addr:subdistrict":"Garkalnes pagasts","addr:district":"Ropažu novads","addr:country":"LV","ref:LV:addr":"106227903"},"geometry":{"type":"Point","coordinates":[24.1650286,57.0554392]},"offers":[{"connectionType":"Mobile (4G/5G)","originalTitle":"Mobilais Internets","speed":null,"features":["4G un 5G bezvadu tehnoloģija;","bezmaksas iekārtas uz pakalpojuma lietošanas laiku;","neierobežots mobilo datu apjoms;","vienkārši uzstādīt un ērti paņemt līdzi."],"techInfo":null,"pricePerMonthEur":23.5,"currency":"EUR","terms":null,"promotion":false,"contractTermMonths":0,"promotionCode":null},{"connectionType":"Mobile (4G/5G)","originalTitle":"Mobilais Internets","speed":null,"features":["4G un 5G bezvadu tehnoloģija;","bezmaksas iekārtas uz pakalpojuma lietošanas laiku;","neierobežots mobilo datu apjoms;","vienkārši uzstādīt un ērti paņemt līdzi."],"techInfo":null,"pricePerMonthEur":17.5,"currency":"EUR","terms":["Līgums uz 24 mēnešiem","Jauniem. 4G internets par 16.99 EUR ar 12 mēn. līg., 22-2/2022/818"],"promotion":true,"contractTermMonths":24,"promotionCode":"PROMO_4G_INTERNET_24M_818"}],"scrapedAt":"2025-08-29T20:18:28.769Z","source":"api"}
{"id":"node/9888119590","address":"Cepļu iela 10, Priežlejas, Garkalnes pag., Ropažu nov.","properties":{"addr:street":"Cepļu iela","addr:housenumber":"10","addr:city":"Priežlejas","addr:postcode":"LV-1023","addr:subdistrict":"Garkalnes pagasts","addr:district":"Ropažu novads","addr:country":"LV","ref:LV:addr":"106227880"},"geometry":{"type":"Point","coordinates":[24.1646372,57.0557921]},"offers":[{"connectionType":"Mobile (4G/5G)","originalTitle":"Mobilais Internets","speed":null,"features":["4G un 5G bezvadu tehnoloģija;","bezmaksas iekārtas uz pakalpojuma lietošanas laiku;","neierobežots mobilo datu apjoms;","vienkārši uzstādīt un ērti paņemt līdzi."],"techInfo":null,"pricePerMonthEur":23.5,"currency":"EUR","terms":null,"promotion":false,"contractTermMonths":0,"promotionCode":null},{"connectionType":"Mobile (4G/5G)","originalTitle":"Mobilais Internets","speed":null,"features":["4G un 5G bezvadu tehnoloģija;","bezmaksas iekārtas uz pakalpojuma lietošanas laiku;","neierobežots mobilo datu apjoms;","vienkārši uzstādīt un ērti paņemt līdzi."],"techInfo":null,"pricePerMonthEur":17.5,"currency":"EUR","terms":["Līgums uz 24 mēnešiem","Jauniem. 4G internets par 16.99 EUR ar 12 mēn. līg., 22-2/2022/818"],"promotion":true,"contractTermMonths":24,"promotionCode":"PROMO_4G_INTERNET_24M_818"}],"scrapedAt":"2025-08-29T20:18:28.891Z","source":"api"}
{"id":"node/9888119588","address":"Cepļu iela 1, Priežlejas, Garkalnes pag., Ropažu nov.","properties":{"addr:street":"Cepļu iela","addr:housenumber":"1","addr:city":"Priežlejas","addr:postcode":"LV-1023","addr:subdistrict":"Garkalnes pagasts","addr:district":"Ropažu novads","addr:country":"LV","ref:LV:addr":"106227823"},"geometry":{"type":"Point","coordinates":[24.1651153,57.0548767]},"offers":[{"connectionType":"Mobile (4G/5G)","originalTitle":"Mobilais Internets","speed":null,"features":["4G un 5G bezvadu tehnoloģija;","bezmaksas iekārtas uz pakalpojuma lietošanas laiku;","neierobežots mobilo datu apjoms;","vienkārši uzstādīt un ērti paņemt līdzi."],"techInfo":null,"pricePerMonthEur":23.5,"currency":"EUR","terms":null,"promotion":false,"contractTermMonths":0,"promotionCode":null},{"connectionType":"Mobile (4G/5G)","originalTitle":"Mobilais Internets","speed":null,"features":["4G un 5G bezvadu tehnoloģija;","bezmaksas iekārtas uz pakalpojuma lietošanas laiku;","neierobežots mobilo datu apjoms;","vienkārši uzstādīt un ērti paņemt līdzi."],"techInfo":null,"pricePerMonthEur":17.5,"currency":"EUR","terms":["Līgums uz 24 mēnešiem","Jauniem. 4G internets par 16.99 EUR ar 12 mēn. līg., 22-2/2022/818"],"promotion":true,"contractTermMonths":24,"promotionCode":"PROMO_4G_INTERNET_24M_818"}],"scrapedAt":"2025-08-29T20:18:28.890Z","source":"api"}
{"id":"node/9888119591","address":"Zundagu iela 2, Priežlejas, Garkalnes pag., Ropažu nov.","properties":{"addr:street":"Zundagu iela","addr:housenumber":"2","addr:city":"Priežlejas","addr:postcode":"LV-1023","addr:subdistrict":"Garkalnes pagasts","addr:district":"Ropažu novads","addr:country":"LV","ref:LV:addr":"105209641"},"geometry":{"type":"Point","coordinates":[24.1659111,57.0584342]},"offers":[{"connectionType":"Mobile (4G/5G)","originalTitle":"Mobilais Internets","speed":null,"features":["4G un 5G bezvadu tehnoloģija;","bezmaksas iekārtas uz pakalpojuma lietošanas laiku;","neierobežots mobilo datu apjoms;","vienkārši uzstādīt un ērti paņemt līdzi."],"techInfo":null,"pricePerMonthEur":23.5,"currency":"EUR","terms":null,"promotion":false,"contractTermMonths":0,"promotionCode":null},{"connectionType":"Mobile (4G/5G)","originalTitle":"Mobilais Internets","speed":null,"features":["4G un 5G bezvadu tehnoloģija;","bezmaksas iekārtas uz pakalpojuma lietošanas laiku;","neierobežots mobilo datu apjoms;","vienkārši uzstādīt un ērti paņemt līdzi."],"techInfo":null,"pricePerMonthEur":17.5,"currency":"EUR","terms":["Līgums uz 24 mēnešiem","Jauniem. 4G internets par 16.99 EUR ar 12 mēn. līg., 22-2/2022/818"],"promotion":true,"contractTermMonths":24,"promotionCode":"PROMO_4G_INTERNET_24M_818"}],"scrapedAt":"2025-08-29T20:18:29.024Z","source":"api"}
{"id":"node/9888119598","address":"Varavīksnes iela 5, Priežlejas, Garkalnes pag., Ropažu nov.","properties":{"addr:street":"Varavīksnes iela","addr:housenumber":"5","addr:city":"Priežlejas","addr:postcode":"LV-1023","addr:subdistrict":"Garkalnes pagasts","addr:district":"Ropažu novads","addr:country":"LV","ref:LV:addr":"106548137"},"geometry":{"type":"Point","coordinates":[24.1620129,57.0549371]},"offers":[{"connectionType":"Mobile (4G/5G)","originalTitle":"Mobilais Internets","speed":null,"features":["4G un 5G bezvadu tehnoloģija;","bezmaksas iekārtas uz pakalpojuma lietošanas laiku;","neierobežots mobilo datu apjoms;","vienkārši uzstādīt un ērti paņemt līdzi."],"techInfo":null,"pricePerMonthEur":23.5,"currency":"EUR","terms":null,"promotion":false,"contractTermMonths":0,"promotionCode":null},{"connectionType":"Mobile (4G/5G)","originalTitle":"Mobilais Internets","speed":null,"features":["4G un 5G bezvadu tehnoloģija;","bezmaksas iekārtas uz pakalpojuma lietošanas laiku;","neierobežots mobilo datu apjoms;","vienkārši uzstādīt un ērti paņemt līdzi."],"techInfo":null,"pricePerMonthEur":17.5,"currency":"EUR","terms":["Līgums uz 24 mēnešiem","Jauniem. 4G internets par 16.99 EUR ar 12 mēn. līg., 22-2/2022/818"],"promotion":true,"contractTermMonths":24,"promotionCode":"PROMO_4G_INTERNET_24M_818"}],"scrapedAt":"2025-08-29T20:18:30.483Z","source":"api"}
{"id":"node/9888119596","address":"Varavīksnes iela 12, Priežlejas, Garkalnes pag., Ropažu nov.","properties":{"addr:street":"Varavīksnes iela","addr:housenumber":"12","addr:city":"Priežlejas","addr:postcode":"LV-1023","addr:subdistrict":"Garkalnes pagasts","addr:district":"Ropažu novads","addr:country":"LV","ref:LV:addr":"106548194"},"geometry":{"type":"Point","coordinates":[24.1627863,57.0553298]},"offers":[{"connectionType":"Mobile (4G/5G)","originalTitle":"Mobilais Internets","speed":null,"features":["4G un 5G bezvadu tehnoloģija;","bezmaksas iekārtas uz pakalpojuma lietošanas laiku;","neierobežots mobilo datu apjoms;","vienkārši uzstādīt un ērti paņemt līdzi."],"techInfo":null,"pricePerMonthEur":23.5,"currency":"EUR","terms":null,"promotion":false,"contractTermMonths":0,"promotionCode":null},{"connectionType":"Mobile (4G/5G)","originalTitle":"Mobilais Internets","speed":null,"features":["4G un 5G bezvadu tehnoloģija;","bezmaksas iekārtas uz pakalpojuma lietošanas laiku;","neierobežots mobilo datu apjoms;","vienkārši uzstādīt un ērti paņemt līdzi."],"techInfo":null,"pricePerMonthEur":17.5,"currency":"EUR","terms":["Līgums uz 24 mēnešiem","Jauniem. 4G internets par 16.99 EUR ar 12 mēn. līg., 22-2/2022/818"],"promotion":true,"contractTermMonths":24,"promotionCode":"PROMO_4G_INTERNET_24M_818"}],"scrapedAt":"2025-08-29T20:18:30.605Z","source":"api"}
{"id":"node/9888119592","address":"Zundagu iela 10, Priežlejas, Garkalnes pag., Ropažu nov.","properties":{"addr:street":"Zundagu iela","addr:housenumber":"10","addr:city":"Priežlejas","addr:postcode":"LV-1023","addr:subdistrict":"Garkalnes pagasts","addr:district":"Ropažu novads","addr:country":"LV","ref:LV:addr":"105209625"},"geometry":{"type":"Point","coordinates":[24.1661271,57.0578392]},"offers":[{"connectionType":"Mobile (4G/5G)","originalTitle":"Mobilais Internets","speed":null,"features":["4G un 5G bezvadu tehnoloģija;","bezmaksas iekārtas uz pakalpojuma lietošanas laiku;","neierobežots mobilo datu apjoms;","vienkārši uzstādīt un ērti paņemt līdzi."],"techInfo":null,"pricePerMonthEur":23.5,"currency":"EUR","terms":null,"promotion":false,"contractTermMonths":0,"promotionCode":null},{"connectionType":"Mobile (4G/5G)","originalTitle":"Mobilais Internets","speed":null,"features":["4G un 5G bezvadu tehnoloģija;","bezmaksas iekārtas uz pakalpojuma lietošanas laiku;","neierobežots mobilo datu apjoms;","vienkārši uzstādīt un ērti paņemt līdzi."],"techInfo":null,"pricePerMonthEur":17.5,"currency":"EUR","terms":["Līgums uz 24 mēnešiem","Jauniem. 4G internets par 16.99 EUR ar 12 mēn. līg., 22-2/2022/818"],"promotion":true,"contractTermMonths":24,"promotionCode":"PROMO_4G_INTERNET_24M_818"}],"scrapedAt":"2025-08-29T20:18:31.226Z","source":"api"}
{"id":"node/9888119595","address":"Zundagu iela 14, Priežlejas, Garkalnes pag., Ropažu nov.","properties":{"addr:street":"Zundagu iela","addr:housenumber":"14","addr:city":"Priežlejas","addr:postcode":"LV-1023","addr:subdistrict":"Garkalnes pagasts","addr:district":"Ropažu novads","addr:country":"LV","ref:LV:addr":"104848311"},"geometry":{"type":"Point","coordinates":[24.1653719,57.057602]},"offers":[{"connectionType":"Mobile (4G/5G)","originalTitle":"Mobilais Internets","speed":null,"features":["4G un 5G bezvadu tehnoloģija;","bezmaksas iekārtas uz pakalpojuma lietošanas laiku;","neierobežots mobilo datu apjoms;","vienkārši uzstādīt un ērti paņemt līdzi."],"techInfo":null,"pricePerMonthEur":23.5,"currency":"EUR","terms":null,"promotion":false,"contractTermMonths":0,"promotionCode":null},{"connectionType":"Mobile (4G/5G)","originalTitle":"Mobilais Internets","speed":null,"features":["4G un 5G bezvadu tehnoloģija;","bezmaksas iekārtas uz pakalpojuma lietošanas laiku;","neierobežots mobilo datu apjoms;","vienkārši uzstādīt un ērti paņemt līdzi."],"techInfo":null,"pricePerMonthEur":17.5,"currency":"EUR","terms":["Līgums uz 24 mēnešiem","Jauniem. 4G internets par 16.99 EUR ar 12 mēn. līg., 22-2/2022/818"],"promotion":true,"contractTermMonths":24,"promotionCode":"PROMO_4G_INTERNET_24M_818"}],"scrapedAt":"2025-08-29T20:18:31.361Z","source":"api"}
{"id":"node/9888119594","address":"Zundagu iela 12, Priežlejas, Garkalnes pag., Ropažu nov.","properties":{"addr:street":"Zundagu iela","addr:housenumber":"12","addr:city":"Priežlejas","addr:postcode":"LV-1023","addr:subdistrict":"Garkalnes pagasts","addr:district":"Ropažu novads","addr:country":"LV","ref:LV:addr":"104851350"},"geometry":{"type":"Point","coordinates":[24.1660184,57.057567]},"offers":[{"connectionType":"Mobile (4G/5G)","originalTitle":"Mobilais Internets","speed":null,"features":["4G un 5G bezvadu tehnoloģija;","bezmaksas iekārtas uz pakalpojuma lietošanas laiku;","neierobežots mobilo datu apjoms;","vienkārši uzstādīt un ērti paņemt līdzi."],"techInfo":null,"pricePerMonthEur":23.5,"currency":"EUR","terms":null,"promotion":false,"contractTermMonths":0,"promotionCode":null},{"connectionType":"Mobile (4G/5G)","originalTitle":"Mobilais Internets","speed":null,"features":["4G un 5G bezvadu tehnoloģija;","bezmaksas iekārtas uz pakalpojuma lietošanas laiku;","neierobežots mobilo datu apjoms;","vienkārši uzstādīt un ērti paņemt līdzi."],"techInfo":null,"pricePerMonthEur":17.5,"currency":"EUR","terms":["Līgums uz 24 mēnešiem","Jauniem. 4G internets par 16.99 EUR ar 12 mēn. līg., 22-2/2022/818"],"promotion":true,"contractTermMonths":24,"promotionCode":"PROMO_4G_INTERNET_24M_818"}],"scrapedAt":"2025-08-29T20:18:31.362Z","source":"api"}
{"id":"node/9888119597","address":"Varavīksnes iela 10, Priežlejas, Garkalnes pag., Ropažu nov.","properties":{"addr:street":"Varavīksnes iela","addr:housenumber":"10","addr:city":"Priežlejas","addr:postcode":"LV-1023","addr:subdistrict":"Garkalnes pagasts","addr:district":"Ropažu novads","addr:country":"LV","ref:LV:addr":"106548186"},"geometry":{"type":"Point","coordinates":[24.1630534,57.0551474]},"offers":[{"connectionType":"Mobile (4G/5G)","originalTitle":"Mobilais Internets","speed":null,"features":["4G un 5G bezvadu tehnoloģija;","bezmaksas iekārtas uz pakalpojuma lietošanas laiku;","neierobežots mobilo datu apjoms;","vienkārši uzstādīt un ērti paņemt līdzi."],"techInfo":null,"pricePerMonthEur":23.5,"currency":"EUR","terms":null,"promotion":false,"contractTermMonths":0,"promotionCode":null},{"connectionType":"Mobile (4G/5G)","originalTitle":"Mobilais Internets","speed":null,"features":["4G un 5G bezvadu tehnoloģija;","bezmaksas iekārtas uz pakalpojuma lietošanas laiku;","neierobežots mobilo datu apjoms;","vienkārši uzstādīt un ērti paņemt līdzi."],"techInfo":null,"pricePerMonthEur":17.5,"currency":"EUR","terms":["Līgums uz 24 mēnešiem","Jauniem. 4G internets par 16.99 EUR ar 12 mēn. līg., 22-2/2022/818"],"promotion":true,"contractTermMonths":24,"promotionCode":"PROMO_4G_INTERNET_24M_818"}],"scrapedAt":"2025-08-29T20:18:31.632Z","source":"api"}
{"id":"node/9888119593","address":"Zundagu iela 16, Priežlejas, Garkalnes pag., Ropažu nov.","properties":{"addr:street":"Zundagu iela","addr:housenumber":"16","addr:city":"Priežlejas","addr:postcode":"LV-1023","addr:subdistrict":"Garkalnes pagasts","addr:district":"Ropažu novads","addr:country":"LV","ref:LV:addr":"104851391"},"geometry":{"type":"Point","coordinates":[24.1653586,57.0572731]},"offers":[{"connectionType":"Mobile (4G/5G)","originalTitle":"Mobilais Internets","speed":null,"features":["4G un 5G bezvadu tehnoloģija;","bezmaksas iekārtas uz pakalpojuma lietošanas laiku;","neierobežots mobilo datu apjoms;","vienkārši uzstādīt un ērti paņemt līdzi."],"techInfo":null,"pricePerMonthEur":23.5,"currency":"EUR","terms":null,"promotion":false,"contractTermMonths":0,"promotionCode":null},{"connectionType":"Mobile (4G/5G)","originalTitle":"Mobilais Internets","speed":null,"features":["4G un 5G bezvadu tehnoloģija;","bezmaksas iekārtas uz pakalpojuma lietošanas laiku;","neierobežots mobilo datu apjoms;","vienkārši uzstādīt un ērti paņemt līdzi."],"techInfo":null,"pricePerMonthEur":17.5,"currency":"EUR","terms":["Līgums uz 24 mēnešiem","Jauniem. 4G internets par 16.99 EUR ar 12 mēn. līg., 22-2/2022/818"],"promotion":true,"contractTermMonths":24,"promotionCode":"PROMO_4G_INTERNET_24M_818"}],"scrapedAt":"2025-08-29T20:18:31.633Z","source":"api"}
{"id":"node/9888119601","address":"Zundagu iela 20, Priežlejas, Garkalnes pag., Ropažu nov.","properties":{"addr:street":"Zundagu iela","addr:housenumber":"20","addr:city":"Priežlejas","addr:postcode":"LV-1023","addr:subdistrict":"Garkalnes pagasts","addr:district":"Ropažu novads","addr:country":"LV","ref:LV:addr":"105377414"},"geometry":{"type":"Point","coordinates":[24.1653045,57.0578207]},"offers":[{"connectionType":"Mobile (4G/5G)","originalTitle":"Mobilais Internets","speed":null,"features":["4G un 5G bezvadu tehnoloģija;","bezmaksas iekārtas uz pakalpojuma lietošanas laiku;","neierobežots mobilo datu apjoms;","vienkārši uzstādīt un ērti paņemt līdzi."],"techInfo":null,"pricePerMonthEur":23.5,"currency":"EUR","terms":null,"promotion":false,"contractTermMonths":0,"promotionCode":null},{"connectionType":"Mobile (4G/5G)","originalTitle":"Mobilais Internets","speed":null,"features":["4G un 5G bezvadu tehnoloģija;","bezmaksas iekārtas uz pakalpojuma lietošanas laiku;","neierobežots mobilo datu apjoms;","vienkārši uzstādīt un ērti paņemt līdzi."],"techInfo":null,"pricePerMonthEur":17.5,"currency":"EUR","terms":["Līgums uz 24 mēnešiem","Jauniem. 4G internets par 16.99 EUR ar 12 mēn. līg., 22-2/2022/818"],"promotion":true,"contractTermMonths":24,"promotionCode":"PROMO_4G_INTERNET_24M_818"}],"scrapedAt":"2025-08-29T20:18:32.881Z","source":"api"}
{"id":"node/9888119599","address":"Varavīksnes iela 4, Priežlejas, Garkalnes pag., Ropažu nov.","properties":{"addr:street":"Varavīksnes iela","addr:housenumber":"4","addr:city":"Priežlejas","addr:postcode":"LV-1023","addr:subdistrict":"Garkalnes pagasts","addr:district":"Ropažu novads","addr:country":"LV","ref:LV:addr":"106548120"},"geometry":{"type":"Point","coordinates":[24.1641677,57.054604]},"offers":[{"connectionType":"Mobile (4G/5G)","originalTitle":"Mobilais Internets","speed":null,"features":["4G un 5G bezvadu tehnoloģija;","bezmaksas iekārtas uz pakalpojuma lietošanas laiku;","neierobežots mobilo datu apjoms;","vienkārši uzstādīt un ērti paņemt līdzi."],"techInfo":null,"pricePerMonthEur":23.5,"currency":"EUR","terms":null,"promotion":false,"contractTermMonths":0,"promotionCode":null},{"connectionType":"Mobile (4G/5G)","originalTitle":"Mobilais Internets","speed":null,"features":["4G un 5G bezvadu tehnoloģija;","bezmaksas iekārtas uz pakalpojuma lietošanas laiku;","neierobežots mobilo datu apjoms;","vienkārši uzstādīt un ērti paņemt līdzi."],"techInfo":null,"pricePerMonthEur":17.5,"currency":"EUR","terms":["Līgums uz 24 mēnešiem","Jauniem. 4G internets par 16.99 EUR ar 12 mēn. līg., 22-2/2022/818"],"promotion":true,"contractTermMonths":24,"promotionCode":"PROMO_4G_INTERNET_24M_818"}],"scrapedAt":"2025-08-29T20:18:33.144Z","source":"api"}
{"id":"node/9888119600","address":"Varavīksnes iela 3, Priežlejas, Garkalnes pag., Ropažu nov.","properties":{"addr:street":"Varavīksnes iela","addr:housenumber":"3","addr:city":"Priežlejas","addr:postcode":"LV-1023","addr:subdistrict":"Garkalnes pagasts","addr:district":"Ropažu novads","addr:country":"LV","ref:LV:addr":"106548112"},"geometry":{"type":"Point","coordinates":[24.1621928,57.0548557]},"offers":[{"connectionType":"Mobile (4G/5G)","originalTitle":"Mobilais Internets","speed":null,"features":["4G un 5G bezvadu tehnoloģija;","bezmaksas iekārtas uz pakalpojuma lietošanas laiku;","neierobežots mobilo datu apjoms;","vienkārši uzstādīt un ērti paņemt līdzi."],"techInfo":null,"pricePerMonthEur":23.5,"currency":"EUR","terms":null,"promotion":false,"contractTermMonths":0,"promotionCode":null},{"connectionType":"Mobile (4G/5G)","originalTitle":"Mobilais Internets","speed":null,"features":["4G un 5G bezvadu tehnoloģija;","bezmaksas iekārtas uz pakalpojuma lietošanas laiku;","neierobežots mobilo datu apjoms;","vienkārši uzstādīt un ērti paņemt līdzi."],"techInfo":null,"pricePerMonthEur":17.5,"currency":"EUR","terms":["Līgums uz 24 mēnešiem","Jauniem. 4G internets par 16.99 EUR ar 12 mēn. līg., 22-2/2022/818"],"promotion":true,"contractTermMonths":24,"promotionCode":"PROMO_4G_INTERNET_24M_818"}],"scrapedAt":"2025-08-29T20:18:33.280Z","source":"api"}
{"id":"node/9888119602","address":"Zundagu iela 8, Priežlejas, Garkalnes pag., Ropažu nov.","properties":{"addr:street":"Zundagu iela","addr:housenumber":"8","addr:city":"Priežlejas","addr:postcode":"LV-1023","addr:subdistrict":"Garkalnes pagasts","addr:district":"Ropažu novads","addr:country":"LV","ref:LV:addr":"105377406"},"geometry":{"type":"Point","coordinates":[24.1664281,57.0579833]},"offers":[{"connectionType":"Mobile (4G/5G)","originalTitle":"Mobilais Internets","speed":null,"features":["4G un 5G bezvadu tehnoloģija;","bezmaksas iekārtas uz pakalpojuma lietošanas laiku;","neierobežots mobilo datu apjoms;","vienkārši uzstādīt un ērti paņemt līdzi."],"techInfo":null,"pricePerMonthEur":23.5,"currency":"EUR","terms":null,"promotion":false,"contractTermMonths":0,"promotionCode":null},{"connectionType":"Mobile (4G/5G)","originalTitle":"Mobilais Internets","speed":null,"features":["4G un 5G bezvadu tehnoloģija;","bezmaksas iekārtas uz pakalpojuma lietošanas laiku;","neierobežots mobilo datu apjoms;","vienkārši uzstādīt un ērti paņemt līdzi."],"techInfo":null,"pricePerMonthEur":17.5,"currency":"EUR","terms":["Līgums uz 24 mēnešiem","Jauniem. 4G internets par 16.99 EUR ar 12 mēn. līg., 22-2/2022/818"],"promotion":true,"contractTermMonths":24,"promotionCode":"PROMO_4G_INTERNET_24M_818"}],"scrapedAt":"2025-08-29T20:18:33.281Z","source":"api"}
