{"id":"way/993241275","address":"Šnepstu ceļš 3, Straupciems, Salas pag., Mārupes nov.","properties":{"addr:street":"Šnepstu ceļš","addr:housenumber":"3","addr:city":"Straupciems","addr:postcode":"LV-2105","addr:subdistrict":"Salas pagasts","addr:district":"Mārupes novads","addr:country":"LV","ref:LV:addr":"105816481"},"geometry":{"type":"Polygon","coordinates":[[[23.6505997,56.9147488],[23.6504851,56.9146236],[23.6506634,56.914575],[23.650778,56.9147001],[23.6505997,56.9147488]]]},"offers":[{"connectionType":"Mobile (4G/5G)","originalTitle":"Mobilais Internets","speed":null,"features":["4G un 5G bezvadu tehnoloģija;","bezmaksas iekārtas uz pakalpojuma lietošanas laiku;","neierobežots mobilo datu apjoms;","vienkārši uzstādīt un ērti paņemt līdzi."],"techInfo":null,"pricePerMonthEur":23.5,"currency":"EUR","terms":null,"promotion":false,"contractTermMonths":0,"promotionCode":null},{"connectionType":"Mobile (4G/5G)","originalTitle":"Mobilais Internets","speed":null,"features":["4G un 5G bezvadu tehnoloģija;","bezmaksas iekārtas uz pakalpojuma lietošanas laiku;","neierobežots mobilo datu apjoms;","vienkārši uzstādīt un ērti paņemt līdzi."],"techInfo":null,"pricePerMonthEur":17.5,"currency":"EUR","terms":["Līgums uz 24 mēnešiem","Jauniem. 4G internets par 16.99 EUR ar 12 mēn. līg., 22-2/2022/818"],"promotion":true,"contractTermMonths":24,"promotionCode":"PROMO_4G_INTERNET_24M_818"}],"scrapedAt":"2025-08-30T17:06:29.240Z","source":"api"}
{"id":"way/1134158543","address":"Zvaigžņu iela 19, Straupciems, Salas pag., Mārupes nov.","properties":{"addr:street":"Zvaigžņu iela","addr:housenumber":"19","addr:city":"Straupciems","addr:postcode":"LV-2105","addr:subdistrict":"Salas pagasts","addr:district":"Mārupes novads","addr:country":"LV","ref:LV:addr":"105675264"},"geometry":{"type":"Polygon","coordinates":[[[23.6546403,56.9211947],[23.6546344,56.9211485],[23.6548261,56.9211412],[23.654832,56.9211874],[23.6546403,56.9211947]]]},"offers":[{"connectionType":"Mobile (4G/5G)","originalTitle":"Mobilais Internets","speed":null,"features":["4G un 5G bezvadu tehnoloģija;","bezmaksas iekārtas uz pakalpojuma lietošanas laiku;","neierobežots mobilo datu apjoms;","vienkārši uzstādīt un ērti paņemt līdzi."],"techInfo":null,"pricePerMonthEur":23.5,"currency":"EUR","terms":null,"promotion":false,"contractTermMonths":0,"promotionCode":null},{"connectionType":"Mobile (4G/5G)","originalTitle":"Mobilais Internets","speed":null,"features":["4G un 5G bezvadu tehnoloģija;","bezmaksas iekārtas uz pakalpojuma lietošanas laiku;","neierobežots mobilo datu apjoms;","vienkārši uzstādīt un ērti paņemt līdzi."],"techInfo":null,"pricePerMonthEur":17.5,"currency":"EUR","terms":["Līgums uz 24 mēnešiem","Jauniem. 4G internets par 16.99 EUR ar 12 mēn. līg., 22-2/2022/818"],"promotion":true,"contractTermMonths":24,"promotionCode":"PROMO_4G_INTERNET_24M_818"}],"scrapedAt":"2025-08-30T17:07:38.842Z","source":"api"}
{"id":"node/9887775933","address":"Mēness iela 53, Straupciems, Salas pag., Mārupes nov.","properties":{"addr:street":"Mēness iela","addr:housenumber":"53","addr:city":"Straupciems","addr:postcode":"LV-2105","addr:subdistrict":"Salas pagasts","addr:district":"Mārupes novads","addr:country":"LV","ref:LV:addr":"105674881"},"geometry":{"type":"Point","coordinates":[23.6527703,56.9204648]},"offers":[{"connectionType":"Mobile (4G/5G)","originalTitle":"Mobilais Internets","speed":null,"features":["4G un 5G bezvadu tehnoloģija;","bezmaksas iekārtas uz pakalpojuma lietošanas laiku;","neierobežots mobilo datu apjoms;","vienkārši uzstādīt un ērti paņemt līdzi."],"techInfo":null,"pricePerMonthEur":23.5,"currency":"EUR","terms":null,"promotion":false,"contractTermMonths":0,"promotionCode":null},{"connectionType":"Mobile (4G/5G)","originalTitle":"Mobilais Internets","speed":null,"features":["4G un 5G bezvadu tehnoloģija;","bezmaksas iekārtas uz pakalpojuma lietošanas laiku;","neierobežots mobilo datu apjoms;","vienkārši uzstādīt un ērti paņemt līdzi."],"techInfo":null,"pricePerMonthEur":17.5,"currency":"EUR","terms":["Līgums uz 24 mēnešiem","Jauniem. 4G internets par 16.99 EUR ar 12 mēn. līg., 22-2/2022/818"],"promotion":true,"contractTermMonths":24,"promotionCode":"PROMO_4G_INTERNET_24M_818"}],"scrapedAt":"2025-08-30T17:47:37.469Z","source":"api"}
{"id":"node/9887775934","address":"Mēness iela 12A, Straupciems, Salas pag., Mārupes nov.","properties":{"addr:street":"Mēness iela","addr:housenumber":"12A","addr:city":"Straupciems","addr:postcode":"LV-2105","addr:subdistrict":"Salas pagasts","addr:district":"Mārupes novads","addr:country":"LV","ref:LV:addr":"105674873"},"geometry":{"type":"Point","coordinates":[23.6511315,56.9251991]},"offers":[{"connectionType":"Mobile (4G/5G)","originalTitle":"Mobilais Internets","speed":null,"features":["4G un 5G bezvadu tehnoloģija;","bezmaksas iekārtas uz pakalpojuma lietošanas laiku;","neierobežots mobilo datu apjoms;","vienkārši uzstādīt un ērti paņemt līdzi."],"techInfo":null,"pricePerMonthEur":23.5,"currency":"EUR","terms":null,"promotion":false,"contractTermMonths":0,"promotionCode":null},{"connectionType":"Mobile (4G/5G)","originalTitle":"Mobilais Internets","speed":null,"features":["4G un 5G bezvadu tehnoloģija;","bezmaksas iekārtas uz pakalpojuma lietošanas laiku;","neierobežots mobilo datu apjoms;","vienkārši uzstādīt un ērti paņemt līdzi."],"techInfo":null,"pricePerMonthEur":17.5,"currency":"EUR","terms":["Līgums uz 24 mēnešiem","Jauniem. 4G internets par 16.99 EUR ar 12 mēn. līg., 22-2/2022/818"],"promotion":true,"contractTermMonths":24,"promotionCode":"PROMO_4G_INTERNET_24M_818"}],"scrapedAt":"2025-08-30T17:47:37.692Z","source":"api"}
{"id":"node/9887775935","address":"Mēness iela 49, Straupciems, Salas pag., Mārupes nov.","properties":{"addr:street":"Mēness iela","addr:housenumber":"49","addr:city":"Straupciems","addr:postcode":"LV-2105","addr:subdistrict":"Salas pagasts","addr:district":"Mārupes novads","addr:country":"LV","ref:LV:addr":"105674865"},"geometry":{"type":"Point","coordinates":[23.6528898,56.9211421]},"offers":[{"connectionType":"Mobile (4G/5G)","originalTitle":"Mobilais Internets","speed":null,"features":["4G un 5G bezvadu tehnoloģija;","bezmaksas iekārtas uz pakalpojuma lietošanas laiku;","neierobežots mobilo datu apjoms;","vienkārši uzstādīt un ērti paņemt līdzi."],"techInfo":null,"pricePerMonthEur":23.5,"currency":"EUR","terms":null,"promotion":false,"contractTermMonths":0,"promotionCode":null},{"connectionType":"Mobile (4G/5G)","originalTitle":"Mobilais Internets","speed":null,"features":["4G un 5G bezvadu tehnoloģija;","bezmaksas iekārtas uz pakalpojuma lietošanas laiku;","neierobežots mobilo datu apjoms;","vienkārši uzstādīt un ērti paņemt līdzi."],"techInfo":null,"pricePerMonthEur":17.5,"currency":"EUR","terms":["Līgums uz 24 mēnešiem","Jauniem. 4G internets par 16.99 EUR ar 12 mēn. līg., 22-2/2022/818"],"promotion":true,"contractTermMonths":24,"promotionCode":"PROMO_4G_INTERNET_24M_818"}],"scrapedAt":"2025-08-30T17:47:37.920Z","source":"api"}
{"id":"node/9887775939","address":"Mēness iela 43, Straupciems, Salas pag., Mārupes nov.","properties":{"addr:street":"Mēness iela","addr:housenumber":"43","addr:city":"Straupciems","addr:postcode":"LV-2105","addr:subdistrict":"Salas pagasts","addr:district":"Mārupes novads","addr:country":"LV","ref:LV:addr":"105674824"},"geometry":{"type":"Point","coordinates":[23.653132,56.922139]},"offers":[{"connectionType":"Mobile (4G/5G)","originalTitle":"Mobilais Internets","speed":null,"features":["4G un 5G bezvadu tehnoloģija;","bezmaksas iekārtas uz pakalpojuma lietošanas laiku;","neierobežots mobilo datu apjoms;","vienkārši uzstādīt un ērti paņemt līdzi."],"techInfo":null,"pricePerMonthEur":23.5,"currency":"EUR","terms":null,"promotion":false,"contractTermMonths":0,"promotionCode":null},{"connectionType":"Mobile (4G/5G)","originalTitle":"Mobilais Internets","speed":null,"features":["4G un 5G bezvadu tehnoloģija;","bezmaksas iekārtas uz pakalpojuma lietošanas laiku;","neierobežots mobilo datu apjoms;","vienkārši uzstādīt un ērti paņemt līdzi."],"techInfo":null,"pricePerMonthEur":17.5,"currency":"EUR","terms":["Līgums uz 24 mēnešiem","Jauniem. 4G internets par 16.99 EUR ar 12 mēn. līg., 22-2/2022/818"],"promotion":true,"contractTermMonths":24,"promotionCode":"PROMO_4G_INTERNET_24M_818"}],"scrapedAt":"2025-08-30T17:47:39.759Z","source":"api"}
{"id":"node/9887775937","address":"Mēness iela 46, Straupciems, Salas pag., Mārupes nov.","properties":{"addr:street":"Mēness iela","addr:housenumber":"46","addr:city":"Straupciems","addr:postcode":"LV-2105","addr:subdistrict":"Salas pagasts","addr:district":"Mārupes novads","addr:country":"LV","ref:LV:addr":"105674840"},"geometry":{"type":"Point","coordinates":[23.6511987,56.9201577]},"offers":[{"connectionType":"Mobile (4G/5G)","originalTitle":"Mobilais Internets","speed":null,"features":["4G un 5G bezvadu tehnoloģija;","bezmaksas iekārtas uz pakalpojuma lietošanas laiku;","neierobežots mobilo datu apjoms;","vienkārši uzstādīt un ērti paņemt līdzi."],"techInfo":null,"pricePerMonthEur":23.5,"currency":"EUR","terms":null,"promotion":false,"contractTermMonths":0,"promotionCode":null},{"connectionType":"Mobile (4G/5G)","originalTitle":"Mobilais Internets","speed":null,"features":["4G un 5G bezvadu tehnoloģija;","bezmaksas iekārtas uz pakalpojuma lietošanas laiku;","neierobežots mobilo datu apjoms;","vienkārši uzstādīt un ērti paņemt līdzi."],"techInfo":null,"pricePerMonthEur":17.5,"currency":"EUR","terms":["Līgums uz 24 mēnešiem","Jauniem. 4G internets par 16.99 EUR ar 12 mēn. līg., 22-2/2022/818"],"promotion":true,"contractTermMonths":24,"promotionCode":"PROMO_4G_INTERNET_24M_818"}],"scrapedAt":"2025-08-30T17:47:39.986Z","source":"api"}
{"id":"node/9887775940","address":"Mēness iela 42, Straupciems, Salas pag., Mārupes nov.","properties":{"addr:street":"Mēness iela","addr:housenumber":"42","addr:city":"Straupciems","addr:postcode":"LV-2105","addr:subdistrict":"Salas pagasts","addr:district":"Mārupes novads","addr:country":"LV","ref:LV:addr":"105674816"},"geometry":{"type":"Point","coordinates":[23.6519782,56.920713]},"offers":[{"connectionType":"Mobile (4G/5G)","originalTitle":"Mobilais Internets","speed":null,"features":["4G un 5G bezvadu tehnoloģija;","bezmaksas iekārtas uz pakalpojuma lietošanas laiku;","neierobežots mobilo datu apjoms;","vienkārši uzstādīt un ērti paņemt līdzi."],"techInfo":null,"pricePerMonthEur":23.5,"currency":"EUR","terms":null,"promotion":false,"contractTermMonths":0,"promotionCode":null},{"connectionType":"Mobile (4G/5G)","originalTitle":"Mobilais Internets","speed":null,"features":["4G un 5G bezvadu tehnoloģija;","bezmaksas iekārtas uz pakalpojuma lietošanas laiku;","neierobežots mobilo datu apjoms;","vienkārši uzstādīt un ērti paņemt līdzi."],"techInfo":null,"pricePerMonthEur":17.5,"currency":"EUR","terms":["Līgums uz 24 mēnešiem","Jauniem. 4G internets par 16.99 EUR ar 12 mēn. līg., 22-2/2022/818"],"promotion":true,"contractTermMonths":24,"promotionCode":"PROMO_4G_INTERNET_24M_818"}],"scrapedAt":"2025-08-30T17:47:39.993Z","source":"api"}
{"id":"node/9887775938","address":"Mēness iela 44, Straupciems, Salas pag., Mārupes nov.","properties":{"addr:street":"Mēness iela","addr:housenumber":"44","addr:city":"Straupciems","addr:postcode":"LV-2105","addr:subdistrict":"Salas pagasts","addr:district":"Mārupes novads","addr:country":"LV","ref:LV:addr":"105674832"},"geometry":{"type":"Point","coordinates":[23.6512296,56.9206229]},"offers":[{"connectionType":"Mobile (4G/5G)","originalTitle":"Mobilais Internets","speed":null,"features":["4G un 5G bezvadu tehnoloģija;","bezmaksas iekārtas uz pakalpojuma lietošanas laiku;","neierobežots mobilo datu apjoms;","vienkārši uzstādīt un ērti paņemt līdzi."],"techInfo":null,"pricePerMonthEur":23.5,"currency":"EUR","terms":null,"promotion":false,"contractTermMonths":0,"promotionCode":null},{"connectionType":"Mobile (4G/5G)","originalTitle":"Mobilais Internets","speed":null,"features":["4G un 5G bezvadu tehnoloģija;","bezmaksas iekārtas uz pakalpojuma lietošanas laiku;","neierobežots mobilo datu apjoms;","vienkārši uzstādīt un ērti paņemt līdzi."],"techInfo":null,"pricePerMonthEur":17.5,"currency":"EUR","terms":["Līgums uz 24 mēnešiem","Jauniem. 4G internets par 16.99 EUR ar 12 mēn. līg., 22-2/2022/818"],"promotion":true,"contractTermMonths":24,"promotionCode":"PROMO_4G_INTERNET_24M_818"}],"scrapedAt":"2025-08-30T17:47:40.225Z","source":"api"}
{"id":"node/9887775936","address":"Mēness iela 48, Straupciems, Salas pag., Mārupes nov.","properties":{"addr:street":"Mēness iela","addr:housenumber":"48","addr:city":"Straupciems","addr:postcode":"LV-2105","addr:subdistrict":"Salas pagasts","addr:district":"Mārupes novads","addr:country":"LV","ref:LV:addr":"105674857"},"geometry":{"type":"Point","coordinates":[23.6519122,56.9202395]},"offers":[{"connectionType":"Mobile (4G/5G)","originalTitle":"Mobilais Internets","speed":null,"features":["4G un 5G bezvadu tehnoloģija;","bezmaksas iekārtas uz pakalpojuma lietošanas laiku;","neierobežots mobilo datu apjoms;","vienkārši uzstādīt un ērti paņemt līdzi."],"techInfo":null,"pricePerMonthEur":23.5,"currency":"EUR","terms":null,"promotion":false,"contractTermMonths":0,"promotionCode":null},{"connectionType":"Mobile (4G/5G)","originalTitle":"Mobilais Internets","speed":null,"features":["4G un 5G bezvadu tehnoloģija;","bezmaksas iekārtas uz pakalpojuma lietošanas laiku;","neierobežots mobilo datu apjoms;","vienkārši uzstādīt un ērti paņemt līdzi."],"techInfo":null,"pricePerMonthEur":17.5,"currency":"EUR","terms":["Līgums uz 24 mēnešiem","Jauniem. 4G internets par 16.99 EUR ar 12 mēn. līg., 22-2/2022/818"],"promotion":true,"contractTermMonths":24,"promotionCode":"PROMO_4G_INTERNET_24M_818"}],"scrapedAt":"2025-08-30T17:47:40.726Z","source":"api"}
{"id":"node/9887775943","address":"Mēness iela 39, Straupciems, Salas pag., Mārupes nov.","properties":{"addr:street":"Mēness iela","addr:housenumber":"39","addr:city":"Straupciems","addr:postcode":"LV-2105","addr:subdistrict":"Salas pagasts","addr:district":"Mārupes novads","addr:country":"LV","ref:LV:addr":"105674785"},"geometry":{"type":"Point","coordinates":[23.6529219,56.922554]},"offers":[{"connectionType":"Mobile (4G/5G)","originalTitle":"Mobilais Internets","speed":null,"features":["4G un 5G bezvadu tehnoloģija;","bezmaksas iekārtas uz pakalpojuma lietošanas laiku;","neierobežots mobilo datu apjoms;","vienkārši uzstādīt un ērti paņemt līdzi."],"techInfo":null,"pricePerMonthEur":23.5,"currency":"EUR","terms":null,"promotion":false,"contractTermMonths":0,"promotionCode":null},{"connectionType":"Mobile (4G/5G)","originalTitle":"Mobilais Internets","speed":null,"features":["4G un 5G bezvadu tehnoloģija;","bezmaksas iekārtas uz pakalpojuma lietošanas laiku;","neierobežots mobilo datu apjoms;","vienkārši uzstādīt un ērti paņemt līdzi."],"techInfo":null,"pricePerMonthEur":17.5,"currency":"EUR","terms":["Līgums uz 24 mēnešiem","Jauniem. 4G internets par 16.99 EUR ar 12 mēn. līg., 22-2/2022/818"],"promotion":true,"contractTermMonths":24,"promotionCode":"PROMO_4G_INTERNET_24M_818"}],"scrapedAt":"2025-08-30T17:47:41.964Z","source":"api"}
{"id":"node/9887775942","address":"Mēness iela 40, Straupciems, Salas pag., Mārupes nov.","properties":{"addr:street":"Mēness iela","addr:housenumber":"40","addr:city":"Straupciems","addr:postcode":"LV-2105","addr:subdistrict":"Salas pagasts","addr:district":"Mārupes novads","addr:country":"LV","ref:LV:addr":"105674793"},"geometry":{"type":"Point","coordinates":[23.6520859,56.9210353]},"offers":[{"connectionType":"Mobile (4G/5G)","originalTitle":"Mobilais Internets","speed":null,"features":["4G un 5G bezvadu tehnoloģija;","bezmaksas iekārtas uz pakalpojuma lietošanas laiku;","neierobežots mobilo datu apjoms;","vienkārši uzstādīt un ērti paņemt līdzi."],"techInfo":null,"pricePerMonthEur":23.5,"currency":"EUR","terms":null,"promotion":false,"contractTermMonths":0,"promotionCode":null},{"connectionType":"Mobile (4G/5G)","originalTitle":"Mobilais Internets","speed":null,"features":["4G un 5G bezvadu tehnoloģija;","bezmaksas iekārtas uz pakalpojuma lietošanas laiku;","neierobežots mobilo datu apjoms;","vienkārši uzstādīt un ērti paņemt līdzi."],"techInfo":null,"pricePerMonthEur":17.5,"currency":"EUR","terms":["Līgums uz 24 mēnešiem","Jauniem. 4G internets par 16.99 EUR ar 12 mēn. līg., 22-2/2022/818"],"promotion":true,"contractTermMonths":24,"promotionCode":"PROMO_4G_INTERNET_24M_818"}],"scrapedAt":"2025-08-30T17:47:42.174Z","source":"api"}
{"id":"node/9887775941","address":"Mēness iela 41, Straupciems, Salas pag., Mārupes nov.","properties":{"addr:street":"Mēness iela","addr:housenumber":"41","addr:city":"Straupciems","addr:postcode":"LV-2105","addr:subdistrict":"Salas pagasts","addr:district":"Mārupes novads","addr:country":"LV","ref:LV:addr":"105674808"},"geometry":{"type":"Point","coordinates":[23.6526435,56.9221982]},"offers":[{"connectionType":"Mobile (4G/5G)","originalTitle":"Mobilais Internets","speed":null,"features":["4G un 5G bezvadu tehnoloģija;","bezmaksas iekārtas uz pakalpojuma lietošanas laiku;","neierobežots mobilo datu apjoms;","vienkārši uzstādīt un ērti paņemt līdzi."],"techInfo":null,"pricePerMonthEur":23.5,"currency":"EUR","terms":null,"promotion":false,"contractTermMonths":0,"promotionCode":null},{"connectionType":"Mobile (4G/5G)","originalTitle":"Mobilais Internets","speed":null,"features":["4G un 5G bezvadu tehnoloģija;","bezmaksas iekārtas uz pakalpojuma lietošanas laiku;","neierobežots mobilo datu apjoms;","vienkārši uzstādīt un ērti paņemt līdzi."],"techInfo":null,"pricePerMonthEur":17.5,"currency":"EUR","terms":["Līgums uz 24 mēnešiem","Jauniem. 4G internets par 16.99 EUR ar 12 mēn. līg., 22-2/2022/818"],"promotion":true,"contractTermMonths":24,"promotionCode":"PROMO_4G_INTERNET_24M_818"}],"scrapedAt":"2025-08-30T17:47:42.413Z","source":"api"}
{"id":"node/9887775944","address":"Mēness iela 38, Straupciems, Salas pag., Mārupes nov.","properties":{"addr:street":"Mēness iela","addr:housenumber":"38","addr:city":"Straupciems","addr:postcode":"LV-2105","addr:subdistrict":"Salas pagasts","addr:district":"Mārupes novads","addr:country":"LV","ref:LV:addr":"105674777"},"geometry":{"type":"Point","coordinates":[23.6512406,56.9210577]},"offers":[{"connectionType":"Mobile (4G/5G)","originalTitle":"Mobilais Internets","speed":null,"features":["4G un 5G bezvadu tehnoloģija;","bezmaksas iekārtas uz pakalpojuma lietošanas laiku;","neierobežots mobilo datu apjoms;","vienkārši uzstādīt un ērti paņemt līdzi."],"techInfo":null,"pricePerMonthEur":23.5,"currency":"EUR","terms":null,"promotion":false,"contractTermMonths":0,"promotionCode":null},{"connectionType":"Mobile (4G/5G)","originalTitle":"Mobilais Internets","speed":null,"features":["4G un 5G bezvadu tehnoloģija;","bezmaksas iekārtas uz pakalpojuma lietošanas laiku;","neierobežots mobilo datu apjoms;","vienkārši uzstādīt un ērti paņemt līdzi."],"techInfo":null,"pricePerMonthEur":17.5,"currency":"EUR","terms":["Līgums uz 24 mēnešiem","Jauniem. 4G internets par 16.99 EUR ar 12 mēn. līg., 22-2/2022/818"],"promotion":true,"contractTermMonths":24,"promotionCode":"PROMO_4G_INTERNET_24M_818"}],"scrapedAt":"2025-08-30T17:47:42.414Z","source":"api"}
{"id":"node/9887775945","address":"Mēness iela 37, Straupciems, Salas pag., Mārupes nov.","properties":{"addr:street":"Mēness iela","addr:housenumber":"37","addr:city":"Straupciems","addr:postcode":"LV-2105","addr:subdistrict":"Salas pagasts","addr:district":"Mārupes novads","addr:country":"LV","ref:LV:addr":"105674760"},"geometry":{"type":"Point","coordinates":[23.6529141,56.9228567]},"offers":[{"connectionType":"Mobile (4G/5G)","originalTitle":"Mobilais Internets","speed":null,"features":["4G un 5G bezvadu tehnoloģija;","bezmaksas iekārtas uz pakalpojuma lietošanas laiku;","neierobežots mobilo datu apjoms;","vienkārši uzstādīt un ērti paņemt līdzi."],"techInfo":null,"pricePerMonthEur":23.5,"currency":"EUR","terms":null,"promotion":false,"contractTermMonths":0,"promotionCode":null},{"connectionType":"Mobile (4G/5G)","originalTitle":"Mobilais Internets","speed":null,"features":["4G un 5G bezvadu tehnoloģija;","bezmaksas iekārtas uz pakalpojuma lietošanas laiku;","neierobežots mobilo datu apjoms;","vienkārši uzstādīt un ērti paņemt līdzi."],"techInfo":null,"pricePerMonthEur":17.5,"currency":"EUR","terms":["Līgums uz 24 mēnešiem","Jauniem. 4G internets par 16.99 EUR ar 12 mēn. līg., 22-2/2022/818"],"promotion":true,"contractTermMonths":24,"promotionCode":"PROMO_4G_INTERNET_24M_818"}],"scrapedAt":"2025-08-30T17:47:42.415Z","source":"api"}
{"id":"node/9887775950","address":"Mēness iela 31, Straupciems, Salas pag., Mārupes nov.","properties":{"addr:street":"Mēness iela","addr:housenumber":"31","addr:city":"Straupciems","addr:postcode":"LV-2105","addr:subdistrict":"Salas pagasts","addr:district":"Mārupes novads","addr:country":"LV","ref:LV:addr":"105674711"},"geometry":{"type":"Point","coordinates":[23.652722,56.9234946]},"offers":[{"connectionType":"Mobile (4G/5G)","originalTitle":"Mobilais Internets","speed":null,"features":["4G un 5G bezvadu tehnoloģija;","bezmaksas iekārtas uz pakalpojuma lietošanas laiku;","neierobežots mobilo datu apjoms;","vienkārši uzstādīt un ērti paņemt līdzi."],"techInfo":null,"pricePerMonthEur":23.5,"currency":"EUR","terms":null,"promotion":false,"contractTermMonths":0,"promotionCode":null},{"connectionType":"Mobile (4G/5G)","originalTitle":"Mobilais Internets","speed":null,"features":["4G un 5G bezvadu tehnoloģija;","bezmaksas iekārtas uz pakalpojuma lietošanas laiku;","neierobežots mobilo datu apjoms;","vienkārši uzstādīt un ērti paņemt līdzi."],"techInfo":null,"pricePerMonthEur":17.5,"currency":"EUR","terms":["Līgums uz 24 mēnešiem","Jauniem. 4G internets par 16.99 EUR ar 12 mēn. līg., 22-2/2022/818"],"promotion":true,"contractTermMonths":24,"promotionCode":"PROMO_4G_INTERNET_24M_818"}],"scrapedAt":"2025-08-30T17:47:44.141Z","source":"api"}
{"id":"node/9887775949","address":"Mēness iela 32, Straupciems, Salas pag., Mārupes nov.","properties":{"addr:street":"Mēness iela","addr:housenumber":"32","addr:city":"Straupciems","addr:postcode":"LV-2105","addr:subdistrict":"Salas pagasts","addr:district":"Mārupes novads","addr:country":"LV","ref:LV:addr":"105674728"},"geometry":{"type":"Point","coordinates":[23.6522496,56.9218256]},"offers":[{"connectionType":"Mobile (4G/5G)","originalTitle":"Mobilais Internets","speed":null,"features":["4G un 5G bezvadu tehnoloģija;","bezmaksas iekārtas uz pakalpojuma lietošanas laiku;","neierobežots mobilo datu apjoms;","vienkārši uzstādīt un ērti paņemt līdzi."],"techInfo":null,"pricePerMonthEur":23.5,"currency":"EUR","terms":null,"promotion":false,"contractTermMonths":0,"promotionCode":null},{"connectionType":"Mobile (4G/5G)","originalTitle":"Mobilais Internets","speed":null,"features":["4G un 5G bezvadu tehnoloģija;","bezmaksas iekārtas uz pakalpojuma lietošanas laiku;","neierobežots mobilo datu apjoms;","vienkārši uzstādīt un ērti paņemt līdzi."],"techInfo":null,"pricePerMonthEur":17.5,"currency":"EUR","terms":["Līgums uz 24 mēnešiem","Jauniem. 4G internets par 16.99 EUR ar 12 mēn. līg., 22-2/2022/818"],"promotion":true,"contractTermMonths":24,"promotionCode":"PROMO_4G_INTERNET_24M_818"}],"scrapedAt":"2025-08-30T17:47:44.484Z","source":"api"}
{"id":"node/9887775946","address":"Mēness iela 36, Straupciems, Salas pag., Mārupes nov.","properties":{"addr:street":"Mēness iela","addr:housenumber":"36","addr:city":"Straupciems","addr:postcode":"LV-2105","addr:subdistrict":"Salas pagasts","addr:district":"Mārupes novads","addr:country":"LV","ref:LV:addr":"105674752"},"geometry":{"type":"Point","coordinates":[23.6513064,56.921556]},"offers":[{"connectionType":"Mobile (4G/5G)","originalTitle":"Mobilais Internets","speed":null,"features":["4G un 5G bezvadu tehnoloģija;","bezmaksas iekārtas uz pakalpojuma lietošanas laiku;","neierobežots mobilo datu apjoms;","vienkārši uzstādīt un ērti paņemt līdzi."],"techInfo":null,"pricePerMonthEur":23.5,"currency":"EUR","terms":null,"promotion":false,"contractTermMonths":0,"promotionCode":null},{"connectionType":"Mobile (4G/5G)","originalTitle":"Mobilais Internets","speed":null,"features":["4G un 5G bezvadu tehnoloģija;","bezmaksas iekārtas uz pakalpojuma lietošanas laiku;","neierobežots mobilo datu apjoms;","vienkārši uzstādīt un ērti paņemt līdzi."],"techInfo":null,"pricePerMonthEur":17.5,"currency":"EUR","terms":["Līgums uz 24 mēnešiem","Jauniem. 4G internets par 16.99 EUR ar 12 mēn. līg., 22-2/2022/818"],"promotion":true,"contractTermMonths":24,"promotionCode":"PROMO_4G_INTERNET_24M_818"}],"scrapedAt":"2025-08-30T17:47:44.694Z","source":"api"}
{"id":"node/9887775947","address":"Mēness iela 35, Straupciems, Salas pag., Mārupes nov.","properties":{"addr:street":"Mēness iela","addr:housenumber":"35","addr:city":"Straupciems","addr:postcode":"LV-2105","addr:subdistrict":"Salas pagasts","addr:district":"Mārupes novads","addr:country":"LV","ref:LV:addr":"105674744"},"geometry":{"type":"Point","coordinates":[23.6529613,56.9231898]},"offers":[{"connectionType":"Mobile (4G/5G)","originalTitle":"Mobilais Internets","speed":null,"features":["4G un 5G bezvadu tehnoloģija;","bezmaksas iekārtas uz pakalpojuma lietošanas laiku;","neierobežots mobilo datu apjoms;","vienkārši uzstādīt un ērti paņemt līdzi."],"techInfo":null,"pricePerMonthEur":23.5,"currency":"EUR","terms":null,"promotion":false,"contractTermMonths":0,"promotionCode":null},{"connectionType":"Mobile (4G/5G)","originalTitle":"Mobilais Internets","speed":null,"features":["4G un 5G bezvadu tehnoloģija;","bezmaksas iekārtas uz pakalpojuma lietošanas laiku;","neierobežots mobilo datu apjoms;","vienkārši uzstādīt un ērti paņemt līdzi."],"techInfo":null,"pricePerMonthEur":17.5,"currency":"EUR","terms":["Līgums uz 24 mēnešiem","Jauniem. 4G internets par 16.99 EUR ar 12 mēn. līg., 22-2/2022/818"],"promotion":true,"contractTermMonths":24,"promotionCode":"PROMO_4G_INTERNET_24M_818"}],"scrapedAt":"2025-08-30T17:47:44.695Z","source":"api"}
{"id":"node/9887775948","address":"Mēness iela 34, Straupciems, Salas pag., Mārupes nov.","properties":{"addr:street":"Mēness iela","addr:housenumber":"34","addr:city":"Straupciems","addr:postcode":"LV-2105","addr:subdistrict":"Salas pagasts","addr:district":"Mārupes novads","addr:country":"LV","ref:LV:addr":"105674736"},"geometry":{"type":"Point","coordinates":[23.652222,56.9215503]},"offers":[{"connectionType":"Mobile (4G/5G)","originalTitle":"Mobilais Internets","speed":null,"features":["4G un 5G bezvadu tehnoloģija;","bezmaksas iekārtas uz pakalpojuma lietošanas laiku;","neierobežots mobilo datu apjoms;","vienkārši uzstādīt un ērti paņemt līdzi."],"techInfo":null,"pricePerMonthEur":23.5,"currency":"EUR","terms":null,"promotion":false,"contractTermMonths":0,"promotionCode":null},{"connectionType":"Mobile (4G/5G)","originalTitle":"Mobilais Internets","speed":null,"features":["4G un 5G bezvadu tehnoloģija;","bezmaksas iekārtas uz pakalpojuma lietošanas laiku;","neierobežots mobilo datu apjoms;","vienkārši uzstādīt un ērti paņemt līdzi."],"techInfo":null,"pricePerMonthEur":17.5,"currency":"EUR","terms":["Līgums uz 24 mēnešiem","Jauniem. 4G internets par 16.99 EUR ar 12 mēn. līg., 22-2/2022/818"],"promotion":true,"contractTermMonths":24,"promotionCode":"PROMO_4G_INTERNET_24M_818"}],"scrapedAt":"2025-08-30T17:47:44.694Z","source":"api"}
{"id":"node/9887775952","address":"Mēness iela 29, Straupciems, Salas pag., Mārupes nov.","properties":{"addr:street":"Mēness iela","addr:housenumber":"29","addr:city":"Straupciems","addr:postcode":"LV-2105","addr:subdistrict":"Salas pagasts","addr:district":"Mārupes novads","addr:country":"LV","ref:LV:addr":"105674697"},"geometry":{"type":"Point","coordinates":[23.6533113,56.9239585]},"offers":[{"connectionType":"Mobile (4G/5G)","originalTitle":"Mobilais Internets","speed":null,"features":["4G un 5G bezvadu tehnoloģija;","bezmaksas iekārtas uz pakalpojuma lietošanas laiku;","neierobežots mobilo datu apjoms;","vienkārši uzstādīt un ērti paņemt līdzi."],"techInfo":null,"pricePerMonthEur":23.5,"currency":"EUR","terms":null,"promotion":false,"contractTermMonths":0,"promotionCode":null},{"connectionType":"Mobile (4G/5G)","originalTitle":"Mobilais Internets","speed":null,"features":["4G un 5G bezvadu tehnoloģija;","bezmaksas iekārtas uz pakalpojuma lietošanas laiku;","neierobežots mobilo datu apjoms;","vienkārši uzstādīt un ērti paņemt līdzi."],"techInfo":null,"pricePerMonthEur":17.5,"currency":"EUR","terms":["Līgums uz 24 mēnešiem","Jauniem. 4G internets par 16.99 EUR ar 12 mēn. līg., 22-2/2022/818"],"promotion":true,"contractTermMonths":24,"promotionCode":"PROMO_4G_INTERNET_24M_818"}],"scrapedAt":"2025-08-30T17:47:46.435Z","source":"api"}
{"id":"node/9887775955","address":"Mēness iela 25, Straupciems, Salas pag., Mārupes nov.","properties":{"addr:street":"Mēness iela","addr:housenumber":"25","addr:city":"Straupciems","addr:postcode":"LV-2105","addr:subdistrict":"Salas pagasts","addr:district":"Mārupes novads","addr:country":"LV","ref:LV:addr":"105674664"},"geometry":{"type":"Point","coordinates":[23.6522955,56.9239172]},"offers":[{"connectionType":"Mobile (4G/5G)","originalTitle":"Mobilais Internets","speed":null,"features":["4G un 5G bezvadu tehnoloģija;","bezmaksas iekārtas uz pakalpojuma lietošanas laiku;","neierobežots mobilo datu apjoms;","vienkārši uzstādīt un ērti paņemt līdzi."],"techInfo":null,"pricePerMonthEur":23.5,"currency":"EUR","terms":null,"promotion":false,"contractTermMonths":0,"promotionCode":null},{"connectionType":"Mobile (4G/5G)","originalTitle":"Mobilais Internets","speed":null,"features":["4G un 5G bezvadu tehnoloģija;","bezmaksas iekārtas uz pakalpojuma lietošanas laiku;","neierobežots mobilo datu apjoms;","vienkārši uzstādīt un ērti paņemt līdzi."],"techInfo":null,"pricePerMonthEur":17.5,"currency":"EUR","terms":["Līgums uz 24 mēnešiem","Jauniem. 4G internets par 16.99 EUR ar 12 mēn. līg., 22-2/2022/818"],"promotion":true,"contractTermMonths":24,"promotionCode":"PROMO_4G_INTERNET_24M_818"}],"scrapedAt":"2025-08-30T17:47:46.728Z","source":"api"}
{"id":"node/9887775953","address":"Mēness iela 28, Straupciems, Salas pag., Mārupes nov.","properties":{"addr:street":"Mēness iela","addr:housenumber":"28","addr:city":"Straupciems","addr:postcode":"LV-2105","addr:subdistrict":"Salas pagasts","addr:district":"Mārupes novads","addr:country":"LV","ref:LV:addr":"105674680"},"geometry":{"type":"Point","coordinates":[23.6515493,56.9222478]},"offers":[{"connectionType":"Mobile (4G/5G)","originalTitle":"Mobilais Internets","speed":null,"features":["4G un 5G bezvadu tehnoloģija;","bezmaksas iekārtas uz pakalpojuma lietošanas laiku;","neierobežots mobilo datu apjoms;","vienkārši uzstādīt un ērti paņemt līdzi."],"techInfo":null,"pricePerMonthEur":23.5,"currency":"EUR","terms":null,"promotion":false,"contractTermMonths":0,"promotionCode":null},{"connectionType":"Mobile (4G/5G)","originalTitle":"Mobilais Internets","speed":null,"features":["4G un 5G bezvadu tehnoloģija;","bezmaksas iekārtas uz pakalpojuma lietošanas laiku;","neierobežots mobilo datu apjoms;","vienkārši uzstādīt un ērti paņemt līdzi."],"techInfo":null,"pricePerMonthEur":17.5,"currency":"EUR","terms":["Līgums uz 24 mēnešiem","Jauniem. 4G internets par 16.99 EUR ar 12 mēn. līg., 22-2/2022/818"],"promotion":true,"contractTermMonths":24,"promotionCode":"PROMO_4G_INTERNET_24M_818"}],"scrapedAt":"2025-08-30T17:47:46.949Z","source":"api"}
{"id":"node/9887775951","address":"Mēness iela 30, Straupciems, Salas pag., Mārupes nov.","properties":{"addr:street":"Mēness iela","addr:housenumber":"30","addr:city":"Straupciems","addr:postcode":"LV-2105","addr:subdistrict":"Salas pagasts","addr:district":"Mārupes novads","addr:country":"LV","ref:LV:addr":"105674703"},"geometry":{"type":"Point","coordinates":[23.6513984,56.9219388]},"offers":[{"connectionType":"Mobile (4G/5G)","originalTitle":"Mobilais Internets","speed":null,"features":["4G un 5G bezvadu tehnoloģija;","bezmaksas iekārtas uz pakalpojuma lietošanas laiku;","neierobežots mobilo datu apjoms;","vienkārši uzstādīt un ērti paņemt līdzi."],"techInfo":null,"pricePerMonthEur":23.5,"currency":"EUR","terms":null,"promotion":false,"contractTermMonths":0,"promotionCode":null},{"connectionType":"Mobile (4G/5G)","originalTitle":"Mobilais Internets","speed":null,"features":["4G un 5G bezvadu tehnoloģija;","bezmaksas iekārtas uz pakalpojuma lietošanas laiku;","neierobežots mobilo datu apjoms;","vienkārši uzstādīt un ērti paņemt līdzi."],"techInfo":null,"pricePerMonthEur":17.5,"currency":"EUR","terms":["Līgums uz 24 mēnešiem","Jauniem. 4G internets par 16.99 EUR ar 12 mēn. līg., 22-2/2022/818"],"promotion":true,"contractTermMonths":24,"promotionCode":"PROMO_4G_INTERNET_24M_818"}],"scrapedAt":"2025-08-30T17:47:46.949Z","source":"api"}
{"id":"node/9887775954","address":"Mēness iela 27, Straupciems, Salas pag., Mārupes nov.","properties":{"addr:street":"Mēness iela","addr:housenumber":"27","addr:city":"Straupciems","addr:postcode":"LV-2105","addr:subdistrict":"Salas pagasts","addr:district":"Mārupes novads","addr:country":"LV","ref:LV:addr":"105674672"},"geometry":{"type":"Point","coordinates":[23.6528083,56.9239489]},"offers":[{"connectionType":"Mobile (4G/5G)","originalTitle":"Mobilais Internets","speed":null,"features":["4G un 5G bezvadu tehnoloģija;","bezmaksas iekārtas uz pakalpojuma lietošanas laiku;","neierobežots mobilo datu apjoms;","vienkārši uzstādīt un ērti paņemt līdzi."],"techInfo":null,"pricePerMonthEur":23.5,"currency":"EUR","terms":null,"promotion":false,"contractTermMonths":0,"promotionCode":null},{"connectionType":"Mobile (4G/5G)","originalTitle":"Mobilais Internets","speed":null,"features":["4G un 5G bezvadu tehnoloģija;","bezmaksas iekārtas uz pakalpojuma lietošanas laiku;","neierobežots mobilo datu apjoms;","vienkārši uzstādīt un ērti paņemt līdzi."],"techInfo":null,"pricePerMonthEur":17.5,"currency":"EUR","terms":["Līgums uz 24 mēnešiem","Jauniem. 4G internets par 16.99 EUR ar 12 mēn. līg., 22-2/2022/818"],"promotion":true,"contractTermMonths":24,"promotionCode":"PROMO_4G_INTERNET_24M_818"}],"scrapedAt":"2025-08-30T17:47:47.425Z","source":"api"}
{"id":"node/9887775959","address":"Mēness iela 22, Straupciems, Salas pag., Mārupes nov.","properties":{"addr:street":"Mēness iela","addr:housenumber":"22","addr:city":"Straupciems","addr:postcode":"LV-2105","addr:subdistrict":"Salas pagasts","addr:district":"Mārupes novads","addr:country":"LV","ref:LV:addr":"105674623"},"geometry":{"type":"Point","coordinates":[23.6516826,56.9232853]},"offers":[{"connectionType":"Mobile (4G/5G)","originalTitle":"Mobilais Internets","speed":null,"features":["4G un 5G bezvadu tehnoloģija;","bezmaksas iekārtas uz pakalpojuma lietošanas laiku;","neierobežots mobilo datu apjoms;","vienkārši uzstādīt un ērti paņemt līdzi."],"techInfo":null,"pricePerMonthEur":23.5,"currency":"EUR","terms":null,"promotion":false,"contractTermMonths":0,"promotionCode":null},{"connectionType":"Mobile (4G/5G)","originalTitle":"Mobilais Internets","speed":null,"features":["4G un 5G bezvadu tehnoloģija;","bezmaksas iekārtas uz pakalpojuma lietošanas laiku;","neierobežots mobilo datu apjoms;","vienkārši uzstādīt un ērti paņemt līdzi."],"techInfo":null,"pricePerMonthEur":17.5,"currency":"EUR","terms":["Līgums uz 24 mēnešiem","Jauniem. 4G internets par 16.99 EUR ar 12 mēn. līg., 22-2/2022/818"],"promotion":true,"contractTermMonths":24,"promotionCode":"PROMO_4G_INTERNET_24M_818"}],"scrapedAt":"2025-08-30T17:47:48.421Z","source":"api"}
{"id":"node/9887775957","address":"Mēness iela 26, Straupciems, Salas pag., Mārupes nov.","properties":{"addr:street":"Mēness iela","addr:housenumber":"26","addr:city":"Straupciems","addr:postcode":"LV-2105","addr:subdistrict":"Salas pagasts","addr:district":"Mārupes novads","addr:country":"LV","ref:LV:addr":"105674648"},"geometry":{"type":"Point","coordinates":[23.6516188,56.9225806]},"offers":[{"connectionType":"Mobile (4G/5G)","originalTitle":"Mobilais Internets","speed":null,"features":["4G un 5G bezvadu tehnoloģija;","bezmaksas iekārtas uz pakalpojuma lietošanas laiku;","neierobežots mobilo datu apjoms;","vienkārši uzstādīt un ērti paņemt līdzi."],"techInfo":null,"pricePerMonthEur":23.5,"currency":"EUR","terms":null,"promotion":false,"contractTermMonths":0,"promotionCode":null},{"connectionType":"Mobile (4G/5G)","originalTitle":"Mobilais Internets","speed":null,"features":["4G un 5G bezvadu tehnoloģija;","bezmaksas iekārtas uz pakalpojuma lietošanas laiku;","neierobežots mobilo datu apjoms;","vienkārši uzstādīt un ērti paņemt līdzi."],"techInfo":null,"pricePerMonthEur":17.5,"currency":"EUR","terms":["Līgums uz 24 mēnešiem","Jauniem. 4G internets par 16.99 EUR ar 12 mēn. līg., 22-2/2022/818"],"promotion":true,"contractTermMonths":24,"promotionCode":"PROMO_4G_INTERNET_24M_818"}],"scrapedAt":"2025-08-30T17:47:48.668Z","source":"api"}
{"id":"node/9887775956","address":"Mēness iela 24, Straupciems, Salas pag., Mārupes nov.","properties":{"addr:street":"Mēness iela","addr:housenumber":"24","addr:city":"Straupciems","addr:postcode":"LV-2105","addr:subdistrict":"Salas pagasts","addr:district":"Mārupes novads","addr:country":"LV","ref:LV:addr":"105674656"},"geometry":{"type":"Point","coordinates":[23.6516658,56.9229357]},"offers":[{"connectionType":"Mobile (4G/5G)","originalTitle":"Mobilais Internets","speed":null,"features":["4G un 5G bezvadu tehnoloģija;","bezmaksas iekārtas uz pakalpojuma lietošanas laiku;","neierobežots mobilo datu apjoms;","vienkārši uzstādīt un ērti paņemt līdzi."],"techInfo":null,"pricePerMonthEur":23.5,"currency":"EUR","terms":null,"promotion":false,"contractTermMonths":0,"promotionCode":null},{"connectionType":"Mobile (4G/5G)","originalTitle":"Mobilais Internets","speed":null,"features":["4G un 5G bezvadu tehnoloģija;","bezmaksas iekārtas uz pakalpojuma lietošanas laiku;","neierobežots mobilo datu apjoms;","vienkārši uzstādīt un ērti paņemt līdzi."],"techInfo":null,"pricePerMonthEur":17.5,"currency":"EUR","terms":["Līgums uz 24 mēnešiem","Jauniem. 4G internets par 16.99 EUR ar 12 mēn. līg., 22-2/2022/818"],"promotion":true,"contractTermMonths":24,"promotionCode":"PROMO_4G_INTERNET_24M_818"}],"scrapedAt":"2025-08-30T17:47:48.891Z","source":"api"}
{"id":"node/9887775960","address":"Mēness iela 21, Straupciems, Salas pag., Mārupes nov.","properties":{"addr:street":"Mēness iela","addr:housenumber":"21","addr:city":"Straupciems","addr:postcode":"LV-2105","addr:subdistrict":"Salas pagasts","addr:district":"Mārupes novads","addr:country":"LV","ref:LV:addr":"105674615"},"geometry":{"type":"Point","coordinates":[23.6519192,56.9248931]},"offers":[{"connectionType":"Mobile (4G/5G)","originalTitle":"Mobilais Internets","speed":null,"features":["4G un 5G bezvadu tehnoloģija;","bezmaksas iekārtas uz pakalpojuma lietošanas laiku;","neierobežots mobilo datu apjoms;","vienkārši uzstādīt un ērti paņemt līdzi."],"techInfo":null,"pricePerMonthEur":23.5,"currency":"EUR","terms":null,"promotion":false,"contractTermMonths":0,"promotionCode":null},{"connectionType":"Mobile (4G/5G)","originalTitle":"Mobilais Internets","speed":null,"features":["4G un 5G bezvadu tehnoloģija;","bezmaksas iekārtas uz pakalpojuma lietošanas laiku;","neierobežots mobilo datu apjoms;","vienkārši uzstādīt un ērti paņemt līdzi."],"techInfo":null,"pricePerMonthEur":17.5,"currency":"EUR","terms":["Līgums uz 24 mēnešiem","Jauniem. 4G internets par 16.99 EUR ar 12 mēn. līg., 22-2/2022/818"],"promotion":true,"contractTermMonths":24,"promotionCode":"PROMO_4G_INTERNET_24M_818"}],"scrapedAt":"2025-08-30T17:47:48.904Z","source":"api"}
{"id":"node/9887775958","address":"Mēness iela 23, Straupciems, Salas pag., Mārupes nov.","properties":{"addr:street":"Mēness iela","addr:housenumber":"23","addr:city":"Straupciems","addr:postcode":"LV-2105","addr:subdistrict":"Salas pagasts","addr:district":"Mārupes novads","addr:country":"LV","ref:LV:addr":"105674631"},"geometry":{"type":"Point","coordinates":[23.6520399,56.9243513]},"offers":[{"connectionType":"Mobile (4G/5G)","originalTitle":"Mobilais Internets","speed":null,"features":["4G un 5G bezvadu tehnoloģija;","bezmaksas iekārtas uz pakalpojuma lietošanas laiku;","neierobežots mobilo datu apjoms;","vienkārši uzstādīt un ērti paņemt līdzi."],"techInfo":null,"pricePerMonthEur":23.5,"currency":"EUR","terms":null,"promotion":false,"contractTermMonths":0,"promotionCode":null},{"connectionType":"Mobile (4G/5G)","originalTitle":"Mobilais Internets","speed":null,"features":["4G un 5G bezvadu tehnoloģija;","bezmaksas iekārtas uz pakalpojuma lietošanas laiku;","neierobežots mobilo datu apjoms;","vienkārši uzstādīt un ērti paņemt līdzi."],"techInfo":null,"pricePerMonthEur":17.5,"currency":"EUR","terms":["Līgums uz 24 mēnešiem","Jauniem. 4G internets par 16.99 EUR ar 12 mēn. līg., 22-2/2022/818"],"promotion":true,"contractTermMonths":24,"promotionCode":"PROMO_4G_INTERNET_24M_818"}],"scrapedAt":"2025-08-30T17:47:49.138Z","source":"api"}
{"id":"node/9887775963","address":"Mēness iela 18, Straupciems, Salas pag., Mārupes nov.","properties":{"addr:street":"Mēness iela","addr:housenumber":"18","addr:city":"Straupciems","addr:postcode":"LV-2105","addr:subdistrict":"Salas pagasts","addr:district":"Mārupes novads","addr:country":"LV","ref:LV:addr":"105674584"},"geometry":{"type":"Point","coordinates":[23.6515008,56.923904]},"offers":[{"connectionType":"Mobile (4G/5G)","originalTitle":"Mobilais Internets","speed":null,"features":["4G un 5G bezvadu tehnoloģija;","bezmaksas iekārtas uz pakalpojuma lietošanas laiku;","neierobežots mobilo datu apjoms;","vienkārši uzstādīt un ērti paņemt līdzi."],"techInfo":null,"pricePerMonthEur":23.5,"currency":"EUR","terms":null,"promotion":false,"contractTermMonths":0,"promotionCode":null},{"connectionType":"Mobile (4G/5G)","originalTitle":"Mobilais Internets","speed":null,"features":["4G un 5G bezvadu tehnoloģija;","bezmaksas iekārtas uz pakalpojuma lietošanas laiku;","neierobežots mobilo datu apjoms;","vienkārši uzstādīt un ērti paņemt līdzi."],"techInfo":null,"pricePerMonthEur":17.5,"currency":"EUR","terms":["Līgums uz 24 mēnešiem","Jauniem. 4G internets par 16.99 EUR ar 12 mēn. līg., 22-2/2022/818"],"promotion":true,"contractTermMonths":24,"promotionCode":"PROMO_4G_INTERNET_24M_818"}],"scrapedAt":"2025-08-30T17:47:50.365Z","source":"api"}
{"id":"node/9887775962","address":"Mēness iela 19, Straupciems, Salas pag., Mārupes nov.","properties":{"addr:street":"Mēness iela","addr:housenumber":"19","addr:city":"Straupciems","addr:postcode":"LV-2105","addr:subdistrict":"Salas pagasts","addr:district":"Mārupes novads","addr:country":"LV","ref:LV:addr":"105674592"},"geometry":{"type":"Point","coordinates":[23.6520607,56.9253613]},"offers":[{"connectionType":"Mobile (4G/5G)","originalTitle":"Mobilais Internets","speed":null,"features":["4G un 5G bezvadu tehnoloģija;","bezmaksas iekārtas uz pakalpojuma lietošanas laiku;","neierobežots mobilo datu apjoms;","vienkārši uzstādīt un ērti paņemt līdzi."],"techInfo":null,"pricePerMonthEur":23.5,"currency":"EUR","terms":null,"promotion":false,"contractTermMonths":0,"promotionCode":null},{"connectionType":"Mobile (4G/5G)","originalTitle":"Mobilais Internets","speed":null,"features":["4G un 5G bezvadu tehnoloģija;","bezmaksas iekārtas uz pakalpojuma lietošanas laiku;","neierobežots mobilo datu apjoms;","vienkārši uzstādīt un ērti paņemt līdzi."],"techInfo":null,"pricePerMonthEur":17.5,"currency":"EUR","terms":["Līgums uz 24 mēnešiem","Jauniem. 4G internets par 16.99 EUR ar 12 mēn. līg., 22-2/2022/818"],"promotion":true,"contractTermMonths":24,"promotionCode":"PROMO_4G_INTERNET_24M_818"}],"scrapedAt":"2025-08-30T17:47:50.584Z","source":"api"}
{"id":"node/9887775961","address":"Mēness iela 20, Straupciems, Salas pag., Mārupes nov.","properties":{"addr:street":"Mēness iela","addr:housenumber":"20","addr:city":"Straupciems","addr:postcode":"LV-2105","addr:subdistrict":"Salas pagasts","addr:district":"Mārupes novads","addr:country":"LV","ref:LV:addr":"105674607"},"geometry":{"type":"Point","coordinates":[23.6517102,56.9235606]},"offers":[{"connectionType":"Mobile (4G/5G)","originalTitle":"Mobilais Internets","speed":null,"features":["4G un 5G bezvadu tehnoloģija;","bezmaksas iekārtas uz pakalpojuma lietošanas laiku;","neierobežots mobilo datu apjoms;","vienkārši uzstādīt un ērti paņemt līdzi."],"techInfo":null,"pricePerMonthEur":23.5,"currency":"EUR","terms":null,"promotion":false,"contractTermMonths":0,"promotionCode":null},{"connectionType":"Mobile (4G/5G)","originalTitle":"Mobilais Internets","speed":null,"features":["4G un 5G bezvadu tehnoloģija;","bezmaksas iekārtas uz pakalpojuma lietošanas laiku;","neierobežots mobilo datu apjoms;","vienkārši uzstādīt un ērti paņemt līdzi."],"techInfo":null,"pricePerMonthEur":17.5,"currency":"EUR","terms":["Līgums uz 24 mēnešiem","Jauniem. 4G internets par 16.99 EUR ar 12 mēn. līg., 22-2/2022/818"],"promotion":true,"contractTermMonths":24,"promotionCode":"PROMO_4G_INTERNET_24M_818"}],"scrapedAt":"2025-08-30T17:47:50.822Z","source":"api"}
{"id":"node/9887775965","address":"Mēness iela 16, Straupciems, Salas pag., Mārupes nov.","properties":{"addr:street":"Mēness iela","addr:housenumber":"16","addr:city":"Straupciems","addr:postcode":"LV-2105","addr:subdistrict":"Salas pagasts","addr:district":"Mārupes novads","addr:country":"LV","ref:LV:addr":"105674568"},"geometry":{"type":"Point","coordinates":[23.651231,56.9242417]},"offers":[{"connectionType":"Mobile (4G/5G)","originalTitle":"Mobilais Internets","speed":null,"features":["4G un 5G bezvadu tehnoloģija;","bezmaksas iekārtas uz pakalpojuma lietošanas laiku;","neierobežots mobilo datu apjoms;","vienkārši uzstādīt un ērti paņemt līdzi."],"techInfo":null,"pricePerMonthEur":23.5,"currency":"EUR","terms":null,"promotion":false,"contractTermMonths":0,"promotionCode":null},{"connectionType":"Mobile (4G/5G)","originalTitle":"Mobilais Internets","speed":null,"features":["4G un 5G bezvadu tehnoloģija;","bezmaksas iekārtas uz pakalpojuma lietošanas laiku;","neierobežots mobilo datu apjoms;","vienkārši uzstādīt un ērti paņemt līdzi."],"techInfo":null,"pricePerMonthEur":17.5,"currency":"EUR","terms":["Līgums uz 24 mēnešiem","Jauniem. 4G internets par 16.99 EUR ar 12 mēn. līg., 22-2/2022/818"],"promotion":true,"contractTermMonths":24,"promotionCode":"PROMO_4G_INTERNET_24M_818"}],"scrapedAt":"2025-08-30T17:47:50.823Z","source":"api"}
{"id":"node/9887775964","address":"Mēness iela 17, Straupciems, Salas pag., Mārupes nov.","properties":{"addr:street":"Mēness iela","addr:housenumber":"17","addr:city":"Straupciems","addr:postcode":"LV-2105","addr:subdistrict":"Salas pagasts","addr:district":"Mārupes novads","addr:country":"LV","ref:LV:addr":"105674576"},"geometry":{"type":"Point","coordinates":[23.6520402,56.9259447]},"offers":[{"connectionType":"Mobile (4G/5G)","originalTitle":"Mobilais Internets","speed":null,"features":["4G un 5G bezvadu tehnoloģija;","bezmaksas iekārtas uz pakalpojuma lietošanas laiku;","neierobežots mobilo datu apjoms;","vienkārši uzstādīt un ērti paņemt līdzi."],"techInfo":null,"pricePerMonthEur":23.5,"currency":"EUR","terms":null,"promotion":false,"contractTermMonths":0,"promotionCode":null},{"connectionType":"Mobile (4G/5G)","originalTitle":"Mobilais Internets","speed":null,"features":["4G un 5G bezvadu tehnoloģija;","bezmaksas iekārtas uz pakalpojuma lietošanas laiku;","neierobežots mobilo datu apjoms;","vienkārši uzstādīt un ērti paņemt līdzi."],"techInfo":null,"pricePerMonthEur":17.5,"currency":"EUR","terms":["Līgums uz 24 mēnešiem","Jauniem. 4G internets par 16.99 EUR ar 12 mēn. līg., 22-2/2022/818"],"promotion":true,"contractTermMonths":24,"promotionCode":"PROMO_4G_INTERNET_24M_818"}],"scrapedAt":"2025-08-30T17:47:51.056Z","source":"api"}
{"id":"node/9887775969","address":"Mēness iela 12, Straupciems, Salas pag., Mārupes nov.","properties":{"addr:street":"Mēness iela","addr:housenumber":"12","addr:city":"Straupciems","addr:postcode":"LV-2105","addr:subdistrict":"Salas pagasts","addr:district":"Mārupes novads","addr:country":"LV","ref:LV:addr":"105674527"},"geometry":{"type":"Point","coordinates":[23.6512535,56.925604]},"offers":[{"connectionType":"Mobile (4G/5G)","originalTitle":"Mobilais Internets","speed":null,"features":["4G un 5G bezvadu tehnoloģija;","bezmaksas iekārtas uz pakalpojuma lietošanas laiku;","neierobežots mobilo datu apjoms;","vienkārši uzstādīt un ērti paņemt līdzi."],"techInfo":null,"pricePerMonthEur":23.5,"currency":"EUR","terms":null,"promotion":false,"contractTermMonths":0,"promotionCode":null},{"connectionType":"Mobile (4G/5G)","originalTitle":"Mobilais Internets","speed":null,"features":["4G un 5G bezvadu tehnoloģija;","bezmaksas iekārtas uz pakalpojuma lietošanas laiku;","neierobežots mobilo datu apjoms;","vienkārši uzstādīt un ērti paņemt līdzi."],"techInfo":null,"pricePerMonthEur":17.5,"currency":"EUR","terms":["Līgums uz 24 mēnešiem","Jauniem. 4G internets par 16.99 EUR ar 12 mēn. līg., 22-2/2022/818"],"promotion":true,"contractTermMonths":24,"promotionCode":"PROMO_4G_INTERNET_24M_818"}],"scrapedAt":"2025-08-30T17:47:52.352Z","source":"api"}
{"id":"node/9887775967","address":"Mēness iela 14, Straupciems, Salas pag., Mārupes nov.","properties":{"addr:street":"Mēness iela","addr:housenumber":"14","addr:city":"Straupciems","addr:postcode":"LV-2105","addr:subdistrict":"Salas pagasts","addr:district":"Mārupes novads","addr:country":"LV","ref:LV:addr":"105674543"},"geometry":{"type":"Point","coordinates":[23.651102,56.9245881]},"offers":[{"connectionType":"Mobile (4G/5G)","originalTitle":"Mobilais Internets","speed":null,"features":["4G un 5G bezvadu tehnoloģija;","bezmaksas iekārtas uz pakalpojuma lietošanas laiku;","neierobežots mobilo datu apjoms;","vienkārši uzstādīt un ērti paņemt līdzi."],"techInfo":null,"pricePerMonthEur":23.5,"currency":"EUR","terms":null,"promotion":false,"contractTermMonths":0,"promotionCode":null},{"connectionType":"Mobile (4G/5G)","originalTitle":"Mobilais Internets","speed":null,"features":["4G un 5G bezvadu tehnoloģija;","bezmaksas iekārtas uz pakalpojuma lietošanas laiku;","neierobežots mobilo datu apjoms;","vienkārši uzstādīt un ērti paņemt līdzi."],"techInfo":null,"pricePerMonthEur":17.5,"currency":"EUR","terms":["Līgums uz 24 mēnešiem","Jauniem. 4G internets par 16.99 EUR ar 12 mēn. līg., 22-2/2022/818"],"promotion":true,"contractTermMonths":24,"promotionCode":"PROMO_4G_INTERNET_24M_818"}],"scrapedAt":"2025-08-30T17:47:52.569Z","source":"api"}
{"id":"node/9887775970","address":"Mēness iela 11, Straupciems, Salas pag., Mārupes nov.","properties":{"addr:street":"Mēness iela","addr:housenumber":"11","addr:city":"Straupciems","addr:postcode":"LV-2105","addr:subdistrict":"Salas pagasts","addr:district":"Mārupes novads","addr:country":"LV","ref:LV:addr":"105674510"},"geometry":{"type":"Point","coordinates":[23.6529139,56.9266626]},"offers":[{"connectionType":"Mobile (4G/5G)","originalTitle":"Mobilais Internets","speed":null,"features":["4G un 5G bezvadu tehnoloģija;","bezmaksas iekārtas uz pakalpojuma lietošanas laiku;","neierobežots mobilo datu apjoms;","vienkārši uzstādīt un ērti paņemt līdzi."],"techInfo":null,"pricePerMonthEur":23.5,"currency":"EUR","terms":null,"promotion":false,"contractTermMonths":0,"promotionCode":null},{"connectionType":"Mobile (4G/5G)","originalTitle":"Mobilais Internets","speed":null,"features":["4G un 5G bezvadu tehnoloģija;","bezmaksas iekārtas uz pakalpojuma lietošanas laiku;","neierobežots mobilo datu apjoms;","vienkārši uzstādīt un ērti paņemt līdzi."],"techInfo":null,"pricePerMonthEur":17.5,"currency":"EUR","terms":["Līgums uz 24 mēnešiem","Jauniem. 4G internets par 16.99 EUR ar 12 mēn. līg., 22-2/2022/818"],"promotion":true,"contractTermMonths":24,"promotionCode":"PROMO_4G_INTERNET_24M_818"}],"scrapedAt":"2025-08-30T17:47:52.795Z","source":"api"}
{"id":"node/9887775966","address":"Mēness iela 15, Straupciems, Salas pag., Mārupes nov.","properties":{"addr:street":"Mēness iela","addr:housenumber":"15","addr:city":"Straupciems","addr:postcode":"LV-2105","addr:subdistrict":"Salas pagasts","addr:district":"Mārupes novads","addr:country":"LV","ref:LV:addr":"105674551"},"geometry":{"type":"Point","coordinates":[23.6525313,56.9261552]},"offers":[{"connectionType":"Mobile (4G/5G)","originalTitle":"Mobilais Internets","speed":null,"features":["4G un 5G bezvadu tehnoloģija;","bezmaksas iekārtas uz pakalpojuma lietošanas laiku;","neierobežots mobilo datu apjoms;","vienkārši uzstādīt un ērti paņemt līdzi."],"techInfo":null,"pricePerMonthEur":23.5,"currency":"EUR","terms":null,"promotion":false,"contractTermMonths":0,"promotionCode":null},{"connectionType":"Mobile (4G/5G)","originalTitle":"Mobilais Internets","speed":null,"features":["4G un 5G bezvadu tehnoloģija;","bezmaksas iekārtas uz pakalpojuma lietošanas laiku;","neierobežots mobilo datu apjoms;","vienkārši uzstādīt un ērti paņemt līdzi."],"techInfo":null,"pricePerMonthEur":17.5,"currency":"EUR","terms":["Līgums uz 24 mēnešiem","Jauniem. 4G internets par 16.99 EUR ar 12 mēn. līg., 22-2/2022/818"],"promotion":true,"contractTermMonths":24,"promotionCode":"PROMO_4G_INTERNET_24M_818"}],"scrapedAt":"2025-08-30T17:47:52.796Z","source":"api"}
{"id":"node/9887775968","address":"Mēness iela 13, Straupciems, Salas pag., Mārupes nov.","properties":{"addr:street":"Mēness iela","addr:housenumber":"13","addr:city":"Straupciems","addr:postcode":"LV-2105","addr:subdistrict":"Salas pagasts","addr:district":"Mārupes novads","addr:country":"LV","ref:LV:addr":"105674535"},"geometry":{"type":"Point","coordinates":[23.6531389,56.9262697]},"offers":[{"connectionType":"Mobile (4G/5G)","originalTitle":"Mobilais Internets","speed":null,"features":["4G un 5G bezvadu tehnoloģija;","bezmaksas iekārtas uz pakalpojuma lietošanas laiku;","neierobežots mobilo datu apjoms;","vienkārši uzstādīt un ērti paņemt līdzi."],"techInfo":null,"pricePerMonthEur":23.5,"currency":"EUR","terms":null,"promotion":false,"contractTermMonths":0,"promotionCode":null},{"connectionType":"Mobile (4G/5G)","originalTitle":"Mobilais Internets","speed":null,"features":["4G un 5G bezvadu tehnoloģija;","bezmaksas iekārtas uz pakalpojuma lietošanas laiku;","neierobežots mobilo datu apjoms;","vienkārši uzstādīt un ērti paņemt līdzi."],"techInfo":null,"pricePerMonthEur":17.5,"currency":"EUR","terms":["Līgums uz 24 mēnešiem","Jauniem. 4G internets par 16.99 EUR ar 12 mēn. līg., 22-2/2022/818"],"promotion":true,"contractTermMonths":24,"promotionCode":"PROMO_4G_INTERNET_24M_818"}],"scrapedAt":"2025-08-30T17:47:53.027Z","source":"api"}
{"id":"node/9887775974","address":"Mēness iela 6, Straupciems, Salas pag., Mārupes nov.","properties":{"addr:street":"Mēness iela","addr:housenumber":"6","addr:city":"Straupciems","addr:postcode":"LV-2105","addr:subdistrict":"Salas pagasts","addr:district":"Mārupes novads","addr:country":"LV","ref:LV:addr":"105674471"},"geometry":{"type":"Point","coordinates":[23.650736,56.926607]},"offers":[{"connectionType":"Mobile (4G/5G)","originalTitle":"Mobilais Internets","speed":null,"features":["4G un 5G bezvadu tehnoloģija;","bezmaksas iekārtas uz pakalpojuma lietošanas laiku;","neierobežots mobilo datu apjoms;","vienkārši uzstādīt un ērti paņemt līdzi."],"techInfo":null,"pricePerMonthEur":23.5,"currency":"EUR","terms":null,"promotion":false,"contractTermMonths":0,"promotionCode":null},{"connectionType":"Mobile (4G/5G)","originalTitle":"Mobilais Internets","speed":null,"features":["4G un 5G bezvadu tehnoloģija;","bezmaksas iekārtas uz pakalpojuma lietošanas laiku;","neierobežots mobilo datu apjoms;","vienkārši uzstādīt un ērti paņemt līdzi."],"techInfo":null,"pricePerMonthEur":17.5,"currency":"EUR","terms":["Līgums uz 24 mēnešiem","Jauniem. 4G internets par 16.99 EUR ar 12 mēn. līg., 22-2/2022/818"],"promotion":true,"contractTermMonths":24,"promotionCode":"PROMO_4G_INTERNET_24M_818"}],"scrapedAt":"2025-08-30T17:47:54.474Z","source":"api"}
{"id":"node/9887775973","address":"Mēness iela 8, Straupciems, Salas pag., Mārupes nov.","properties":{"addr:street":"Mēness iela","addr:housenumber":"8","addr:city":"Straupciems","addr:postcode":"LV-2105","addr:subdistrict":"Salas pagasts","addr:district":"Mārupes novads","addr:country":"LV","ref:LV:addr":"105674488"},"geometry":{"type":"Point","coordinates":[23.6510156,56.9262913]},"offers":[{"connectionType":"Mobile (4G/5G)","originalTitle":"Mobilais Internets","speed":null,"features":["4G un 5G bezvadu tehnoloģija;","bezmaksas iekārtas uz pakalpojuma lietošanas laiku;","neierobežots mobilo datu apjoms;","vienkārši uzstādīt un ērti paņemt līdzi."],"techInfo":null,"pricePerMonthEur":23.5,"currency":"EUR","terms":null,"promotion":false,"contractTermMonths":0,"promotionCode":null},{"connectionType":"Mobile (4G/5G)","originalTitle":"Mobilais Internets","speed":null,"features":["4G un 5G bezvadu tehnoloģija;","bezmaksas iekārtas uz pakalpojuma lietošanas laiku;","neierobežots mobilo datu apjoms;","vienkārši uzstādīt un ērti paņemt līdzi."],"techInfo":null,"pricePerMonthEur":17.5,"currency":"EUR","terms":["Līgums uz 24 mēnešiem","Jauniem. 4G internets par 16.99 EUR ar 12 mēn. līg., 22-2/2022/818"],"promotion":true,"contractTermMonths":24,"promotionCode":"PROMO_4G_INTERNET_24M_818"}],"scrapedAt":"2025-08-30T17:47:54.686Z","source":"api"}
{"id":"node/9887775975","address":"Mēness iela 5, Straupciems, Salas pag., Mārupes nov.","properties":{"addr:street":"Mēness iela","addr:housenumber":"5","addr:city":"Straupciems","addr:postcode":"LV-2105","addr:subdistrict":"Salas pagasts","addr:district":"Mārupes novads","addr:country":"LV","ref:LV:addr":"105674463"},"geometry":{"type":"Point","coordinates":[23.6516601,56.9267775]},"offers":[{"connectionType":"Mobile (4G/5G)","originalTitle":"Mobilais Internets","speed":null,"features":["4G un 5G bezvadu tehnoloģija;","bezmaksas iekārtas uz pakalpojuma lietošanas laiku;","neierobežots mobilo datu apjoms;","vienkārši uzstādīt un ērti paņemt līdzi."],"techInfo":null,"pricePerMonthEur":23.5,"currency":"EUR","terms":null,"promotion":false,"contractTermMonths":0,"promotionCode":null},{"connectionType":"Mobile (4G/5G)","originalTitle":"Mobilais Internets","speed":null,"features":["4G un 5G bezvadu tehnoloģija;","bezmaksas iekārtas uz pakalpojuma lietošanas laiku;","neierobežots mobilo datu apjoms;","vienkārši uzstādīt un ērti paņemt līdzi."],"techInfo":null,"pricePerMonthEur":17.5,"currency":"EUR","terms":["Līgums uz 24 mēnešiem","Jauniem. 4G internets par 16.99 EUR ar 12 mēn. līg., 22-2/2022/818"],"promotion":true,"contractTermMonths":24,"promotionCode":"PROMO_4G_INTERNET_24M_818"}],"scrapedAt":"2025-08-30T17:47:54.918Z","source":"api"}
{"id":"node/9887775972","address":"Mēness iela 9, Straupciems, Salas pag., Mārupes nov.","properties":{"addr:street":"Mēness iela","addr:housenumber":"9","addr:city":"Straupciems","addr:postcode":"LV-2105","addr:subdistrict":"Salas pagasts","addr:district":"Mārupes novads","addr:country":"LV","ref:LV:addr":"105674496"},"geometry":{"type":"Point","coordinates":[23.6522808,56.9265756]},"offers":[{"connectionType":"Mobile (4G/5G)","originalTitle":"Mobilais Internets","speed":null,"features":["4G un 5G bezvadu tehnoloģija;","bezmaksas iekārtas uz pakalpojuma lietošanas laiku;","neierobežots mobilo datu apjoms;","vienkārši uzstādīt un ērti paņemt līdzi."],"techInfo":null,"pricePerMonthEur":23.5,"currency":"EUR","terms":null,"promotion":false,"contractTermMonths":0,"promotionCode":null},{"connectionType":"Mobile (4G/5G)","originalTitle":"Mobilais Internets","speed":null,"features":["4G un 5G bezvadu tehnoloģija;","bezmaksas iekārtas uz pakalpojuma lietošanas laiku;","neierobežots mobilo datu apjoms;","vienkārši uzstādīt un ērti paņemt līdzi."],"techInfo":null,"pricePerMonthEur":17.5,"currency":"EUR","terms":["Līgums uz 24 mēnešiem","Jauniem. 4G internets par 16.99 EUR ar 12 mēn. līg., 22-2/2022/818"],"promotion":true,"contractTermMonths":24,"promotionCode":"PROMO_4G_INTERNET_24M_818"}],"scrapedAt":"2025-08-30T17:47:55.159Z","source":"api"}
{"id":"node/9887775971","address":"Mēness iela 10, Straupciems, Salas pag., Mārupes nov.","properties":{"addr:street":"Mēness iela","addr:housenumber":"10","addr:city":"Straupciems","addr:postcode":"LV-2105","addr:subdistrict":"Salas pagasts","addr:district":"Mārupes novads","addr:country":"LV","ref:LV:addr":"105674502"},"geometry":{"type":"Point","coordinates":[23.6511546,56.9259615]},"offers":[{"connectionType":"Mobile (4G/5G)","originalTitle":"Mobilais Internets","speed":null,"features":["4G un 5G bezvadu tehnoloģija;","bezmaksas iekārtas uz pakalpojuma lietošanas laiku;","neierobežots mobilo datu apjoms;","vienkārši uzstādīt un ērti paņemt līdzi."],"techInfo":null,"pricePerMonthEur":23.5,"currency":"EUR","terms":null,"promotion":false,"contractTermMonths":0,"promotionCode":null},{"connectionType":"Mobile (4G/5G)","originalTitle":"Mobilais Internets","speed":null,"features":["4G un 5G bezvadu tehnoloģija;","bezmaksas iekārtas uz pakalpojuma lietošanas laiku;","neierobežots mobilo datu apjoms;","vienkārši uzstādīt un ērti paņemt līdzi."],"techInfo":null,"pricePerMonthEur":17.5,"currency":"EUR","terms":["Līgums uz 24 mēnešiem","Jauniem. 4G internets par 16.99 EUR ar 12 mēn. līg., 22-2/2022/818"],"promotion":true,"contractTermMonths":24,"promotionCode":"PROMO_4G_INTERNET_24M_818"}],"scrapedAt":"2025-08-30T17:47:55.160Z","source":"api"}
{"id":"node/9887775993","address":"Zvaigžņu iela 24, Straupciems, Salas pag., Mārupes nov.","properties":{"addr:street":"Zvaigžņu iela","addr:housenumber":"24","addr:city":"Straupciems","addr:postcode":"LV-2105","addr:subdistrict":"Salas pagasts","addr:district":"Mārupes novads","addr:country":"LV","ref:LV:addr":"105675303"},"geometry":{"type":"Point","coordinates":[23.6535841,56.9205607]},"offers":[{"connectionType":"Mobile (4G/5G)","originalTitle":"Mobilais Internets","speed":null,"features":["4G un 5G bezvadu tehnoloģija;","bezmaksas iekārtas uz pakalpojuma lietošanas laiku;","neierobežots mobilo datu apjoms;","vienkārši uzstādīt un ērti paņemt līdzi."],"techInfo":null,"pricePerMonthEur":23.5,"currency":"EUR","terms":null,"promotion":false,"contractTermMonths":0,"promotionCode":null},{"connectionType":"Mobile (4G/5G)","originalTitle":"Mobilais Internets","speed":null,"features":["4G un 5G bezvadu tehnoloģija;","bezmaksas iekārtas uz pakalpojuma lietošanas laiku;","neierobežots mobilo datu apjoms;","vienkārši uzstādīt un ērti paņemt līdzi."],"techInfo":null,"pricePerMonthEur":17.5,"currency":"EUR","terms":["Līgums uz 24 mēnešiem","Jauniem. 4G internets par 16.99 EUR ar 12 mēn. līg., 22-2/2022/818"],"promotion":true,"contractTermMonths":24,"promotionCode":"PROMO_4G_INTERNET_24M_818"}],"scrapedAt":"2025-08-30T17:47:56.483Z","source":"api"}
{"id":"node/9887775978","address":"Mēness iela 2, Straupciems, Salas pag., Mārupes nov.","properties":{"addr:street":"Mēness iela","addr:housenumber":"2","addr:city":"Straupciems","addr:postcode":"LV-2105","addr:subdistrict":"Salas pagasts","addr:district":"Mārupes novads","addr:country":"LV","ref:LV:addr":"105674430"},"geometry":{"type":"Point","coordinates":[23.6504121,56.9273491]},"offers":[{"connectionType":"Mobile (4G/5G)","originalTitle":"Mobilais Internets","speed":null,"features":["4G un 5G bezvadu tehnoloģija;","bezmaksas iekārtas uz pakalpojuma lietošanas laiku;","neierobežots mobilo datu apjoms;","vienkārši uzstādīt un ērti paņemt līdzi."],"techInfo":null,"pricePerMonthEur":23.5,"currency":"EUR","terms":null,"promotion":false,"contractTermMonths":0,"promotionCode":null},{"connectionType":"Mobile (4G/5G)","originalTitle":"Mobilais Internets","speed":null,"features":["4G un 5G bezvadu tehnoloģija;","bezmaksas iekārtas uz pakalpojuma lietošanas laiku;","neierobežots mobilo datu apjoms;","vienkārši uzstādīt un ērti paņemt līdzi."],"techInfo":null,"pricePerMonthEur":17.5,"currency":"EUR","terms":["Līgums uz 24 mēnešiem","Jauniem. 4G internets par 16.99 EUR ar 12 mēn. līg., 22-2/2022/818"],"promotion":true,"contractTermMonths":24,"promotionCode":"PROMO_4G_INTERNET_24M_818"}],"scrapedAt":"2025-08-30T17:47:56.740Z","source":"api"}
{"id":"node/9887775979","address":"Mēness iela 1, Straupciems, Salas pag., Mārupes nov.","properties":{"addr:street":"Mēness iela","addr:housenumber":"1","addr:city":"Straupciems","addr:postcode":"LV-2105","addr:subdistrict":"Salas pagasts","addr:district":"Mārupes novads","addr:country":"LV","ref:LV:addr":"105674422"},"geometry":{"type":"Point","coordinates":[23.6512368,56.9273955]},"offers":[{"connectionType":"Mobile (4G/5G)","originalTitle":"Mobilais Internets","speed":null,"features":["4G un 5G bezvadu tehnoloģija;","bezmaksas iekārtas uz pakalpojuma lietošanas laiku;","neierobežots mobilo datu apjoms;","vienkārši uzstādīt un ērti paņemt līdzi."],"techInfo":null,"pricePerMonthEur":23.5,"currency":"EUR","terms":null,"promotion":false,"contractTermMonths":0,"promotionCode":null},{"connectionType":"Mobile (4G/5G)","originalTitle":"Mobilais Internets","speed":null,"features":["4G un 5G bezvadu tehnoloģija;","bezmaksas iekārtas uz pakalpojuma lietošanas laiku;","neierobežots mobilo datu apjoms;","vienkārši uzstādīt un ērti paņemt līdzi."],"techInfo":null,"pricePerMonthEur":17.5,"currency":"EUR","terms":["Līgums uz 24 mēnešiem","Jauniem. 4G internets par 16.99 EUR ar 12 mēn. līg., 22-2/2022/818"],"promotion":true,"contractTermMonths":24,"promotionCode":"PROMO_4G_INTERNET_24M_818"}],"scrapedAt":"2025-08-30T17:47:56.741Z","source":"api"}
{"id":"node/9887775976","address":"Mēness iela 4, Straupciems, Salas pag., Mārupes nov.","properties":{"addr:street":"Mēness iela","addr:housenumber":"4","addr:city":"Straupciems","addr:postcode":"LV-2105","addr:subdistrict":"Salas pagasts","addr:district":"Mārupes novads","addr:country":"LV","ref:LV:addr":"105674455"},"geometry":{"type":"Point","coordinates":[23.6505114,56.9269476]},"offers":[{"connectionType":"Mobile (4G/5G)","originalTitle":"Mobilais Internets","speed":null,"features":["4G un 5G bezvadu tehnoloģija;","bezmaksas iekārtas uz pakalpojuma lietošanas laiku;","neierobežots mobilo datu apjoms;","vienkārši uzstādīt un ērti paņemt līdzi."],"techInfo":null,"pricePerMonthEur":23.5,"currency":"EUR","terms":null,"promotion":false,"contractTermMonths":0,"promotionCode":null},{"connectionType":"Mobile (4G/5G)","originalTitle":"Mobilais Internets","speed":null,"features":["4G un 5G bezvadu tehnoloģija;","bezmaksas iekārtas uz pakalpojuma lietošanas laiku;","neierobežots mobilo datu apjoms;","vienkārši uzstādīt un ērti paņemt līdzi."],"techInfo":null,"pricePerMonthEur":17.5,"currency":"EUR","terms":["Līgums uz 24 mēnešiem","Jauniem. 4G internets par 16.99 EUR ar 12 mēn. līg., 22-2/2022/818"],"promotion":true,"contractTermMonths":24,"promotionCode":"PROMO_4G_INTERNET_24M_818"}],"scrapedAt":"2025-08-30T17:47:57.029Z","source":"api"}
{"id":"node/9887775977","address":"Mēness iela 3, Straupciems, Salas pag., Mārupes nov.","properties":{"addr:street":"Mēness iela","addr:housenumber":"3","addr:city":"Straupciems","addr:postcode":"LV-2105","addr:subdistrict":"Salas pagasts","addr:district":"Mārupes novads","addr:country":"LV","ref:LV:addr":"105674447"},"geometry":{"type":"Point","coordinates":[23.6513608,56.9270436]},"offers":[{"connectionType":"Mobile (4G/5G)","originalTitle":"Mobilais Internets","speed":null,"features":["4G un 5G bezvadu tehnoloģija;","bezmaksas iekārtas uz pakalpojuma lietošanas laiku;","neierobežots mobilo datu apjoms;","vienkārši uzstādīt un ērti paņemt līdzi."],"techInfo":null,"pricePerMonthEur":23.5,"currency":"EUR","terms":null,"promotion":false,"contractTermMonths":0,"promotionCode":null},{"connectionType":"Mobile (4G/5G)","originalTitle":"Mobilais Internets","speed":null,"features":["4G un 5G bezvadu tehnoloģija;","bezmaksas iekārtas uz pakalpojuma lietošanas laiku;","neierobežots mobilo datu apjoms;","vienkārši uzstādīt un ērti paņemt līdzi."],"techInfo":null,"pricePerMonthEur":17.5,"currency":"EUR","terms":["Līgums uz 24 mēnešiem","Jauniem. 4G internets par 16.99 EUR ar 12 mēn. līg., 22-2/2022/818"],"promotion":true,"contractTermMonths":24,"promotionCode":"PROMO_4G_INTERNET_24M_818"}],"scrapedAt":"2025-08-30T17:47:57.032Z","source":"api"}
{"id":"node/9887775998","address":"Zvaigžņu iela 17, Straupciems, Salas pag., Mārupes nov.","properties":{"addr:street":"Zvaigžņu iela","addr:housenumber":"17","addr:city":"Straupciems","addr:postcode":"LV-2105","addr:subdistrict":"Salas pagasts","addr:district":"Mārupes novads","addr:country":"LV","ref:LV:addr":"105675248"},"geometry":{"type":"Point","coordinates":[23.6547188,56.9213426]},"offers":[{"connectionType":"Mobile (4G/5G)","originalTitle":"Mobilais Internets","speed":null,"features":["4G un 5G bezvadu tehnoloģija;","bezmaksas iekārtas uz pakalpojuma lietošanas laiku;","neierobežots mobilo datu apjoms;","vienkārši uzstādīt un ērti paņemt līdzi."],"techInfo":null,"pricePerMonthEur":23.5,"currency":"EUR","terms":null,"promotion":false,"contractTermMonths":0,"promotionCode":null},{"connectionType":"Mobile (4G/5G)","originalTitle":"Mobilais Internets","speed":null,"features":["4G un 5G bezvadu tehnoloģija;","bezmaksas iekārtas uz pakalpojuma lietošanas laiku;","neierobežots mobilo datu apjoms;","vienkārši uzstādīt un ērti paņemt līdzi."],"techInfo":null,"pricePerMonthEur":17.5,"currency":"EUR","terms":["Līgums uz 24 mēnešiem","Jauniem. 4G internets par 16.99 EUR ar 12 mēn. līg., 22-2/2022/818"],"promotion":true,"contractTermMonths":24,"promotionCode":"PROMO_4G_INTERNET_24M_818"}],"scrapedAt":"2025-08-30T17:47:58.741Z","source":"api"}
{"id":"node/9887775999","address":"Zvaigžņu iela 16, Straupciems, Salas pag., Mārupes nov.","properties":{"addr:street":"Zvaigžņu iela","addr:housenumber":"16","addr:city":"Straupciems","addr:postcode":"LV-2105","addr:subdistrict":"Salas pagasts","addr:district":"Mārupes novads","addr:country":"LV","ref:LV:addr":"105675231"},"geometry":{"type":"Point","coordinates":[23.6537401,56.9216399]},"offers":[{"connectionType":"Mobile (4G/5G)","originalTitle":"Mobilais Internets","speed":null,"features":["4G un 5G bezvadu tehnoloģija;","bezmaksas iekārtas uz pakalpojuma lietošanas laiku;","neierobežots mobilo datu apjoms;","vienkārši uzstādīt un ērti paņemt līdzi."],"techInfo":null,"pricePerMonthEur":23.5,"currency":"EUR","terms":null,"promotion":false,"contractTermMonths":0,"promotionCode":null},{"connectionType":"Mobile (4G/5G)","originalTitle":"Mobilais Internets","speed":null,"features":["4G un 5G bezvadu tehnoloģija;","bezmaksas iekārtas uz pakalpojuma lietošanas laiku;","neierobežots mobilo datu apjoms;","vienkārši uzstādīt un ērti paņemt līdzi."],"techInfo":null,"pricePerMonthEur":17.5,"currency":"EUR","terms":["Līgums uz 24 mēnešiem","Jauniem. 4G internets par 16.99 EUR ar 12 mēn. līg., 22-2/2022/818"],"promotion":true,"contractTermMonths":24,"promotionCode":"PROMO_4G_INTERNET_24M_818"}],"scrapedAt":"2025-08-30T17:47:58.955Z","source":"api"}
{"id":"node/9887775994","address":"Zvaigžņu iela 21, Straupciems, Salas pag., Mārupes nov.","properties":{"addr:street":"Zvaigžņu iela","addr:housenumber":"21","addr:city":"Straupciems","addr:postcode":"LV-2105","addr:subdistrict":"Salas pagasts","addr:district":"Mārupes novads","addr:country":"LV","ref:LV:addr":"105675280"},"geometry":{"type":"Point","coordinates":[23.6543021,56.9208717]},"offers":[{"connectionType":"Mobile (4G/5G)","originalTitle":"Mobilais Internets","speed":null,"features":["4G un 5G bezvadu tehnoloģija;","bezmaksas iekārtas uz pakalpojuma lietošanas laiku;","neierobežots mobilo datu apjoms;","vienkārši uzstādīt un ērti paņemt līdzi."],"techInfo":null,"pricePerMonthEur":23.5,"currency":"EUR","terms":null,"promotion":false,"contractTermMonths":0,"promotionCode":null},{"connectionType":"Mobile (4G/5G)","originalTitle":"Mobilais Internets","speed":null,"features":["4G un 5G bezvadu tehnoloģija;","bezmaksas iekārtas uz pakalpojuma lietošanas laiku;","neierobežots mobilo datu apjoms;","vienkārši uzstādīt un ērti paņemt līdzi."],"techInfo":null,"pricePerMonthEur":17.5,"currency":"EUR","terms":["Līgums uz 24 mēnešiem","Jauniem. 4G internets par 16.99 EUR ar 12 mēn. līg., 22-2/2022/818"],"promotion":true,"contractTermMonths":24,"promotionCode":"PROMO_4G_INTERNET_24M_818"}],"scrapedAt":"2025-08-30T17:47:58.956Z","source":"api"}
{"id":"node/9887775995","address":"Zvaigžņu iela 20, Straupciems, Salas pag., Mārupes nov.","properties":{"addr:street":"Zvaigžņu iela","addr:housenumber":"20","addr:city":"Straupciems","addr:postcode":"LV-2105","addr:subdistrict":"Salas pagasts","addr:district":"Mārupes novads","addr:country":"LV","ref:LV:addr":"105675272"},"geometry":{"type":"Point","coordinates":[23.6536191,56.9211277]},"offers":[{"connectionType":"Mobile (4G/5G)","originalTitle":"Mobilais Internets","speed":null,"features":["4G un 5G bezvadu tehnoloģija;","bezmaksas iekārtas uz pakalpojuma lietošanas laiku;","neierobežots mobilo datu apjoms;","vienkārši uzstādīt un ērti paņemt līdzi."],"techInfo":null,"pricePerMonthEur":23.5,"currency":"EUR","terms":null,"promotion":false,"contractTermMonths":0,"promotionCode":null},{"connectionType":"Mobile (4G/5G)","originalTitle":"Mobilais Internets","speed":null,"features":["4G un 5G bezvadu tehnoloģija;","bezmaksas iekārtas uz pakalpojuma lietošanas laiku;","neierobežots mobilo datu apjoms;","vienkārši uzstādīt un ērti paņemt līdzi."],"techInfo":null,"pricePerMonthEur":17.5,"currency":"EUR","terms":["Līgums uz 24 mēnešiem","Jauniem. 4G internets par 16.99 EUR ar 12 mēn. līg., 22-2/2022/818"],"promotion":true,"contractTermMonths":24,"promotionCode":"PROMO_4G_INTERNET_24M_818"}],"scrapedAt":"2025-08-30T17:47:58.957Z","source":"api"}
{"id":"node/9887775997","address":"Zvaigžņu iela 18, Straupciems, Salas pag., Mārupes nov.","properties":{"addr:street":"Zvaigžņu iela","addr:housenumber":"18","addr:city":"Straupciems","addr:postcode":"LV-2105","addr:subdistrict":"Salas pagasts","addr:district":"Mārupes novads","addr:country":"LV","ref:LV:addr":"105675256"},"geometry":{"type":"Point","coordinates":[23.6536922,56.9213838]},"offers":[{"connectionType":"Mobile (4G/5G)","originalTitle":"Mobilais Internets","speed":null,"features":["4G un 5G bezvadu tehnoloģija;","bezmaksas iekārtas uz pakalpojuma lietošanas laiku;","neierobežots mobilo datu apjoms;","vienkārši uzstādīt un ērti paņemt līdzi."],"techInfo":null,"pricePerMonthEur":23.5,"currency":"EUR","terms":null,"promotion":false,"contractTermMonths":0,"promotionCode":null},{"connectionType":"Mobile (4G/5G)","originalTitle":"Mobilais Internets","speed":null,"features":["4G un 5G bezvadu tehnoloģija;","bezmaksas iekārtas uz pakalpojuma lietošanas laiku;","neierobežots mobilo datu apjoms;","vienkārši uzstādīt un ērti paņemt līdzi."],"techInfo":null,"pricePerMonthEur":17.5,"currency":"EUR","terms":["Līgums uz 24 mēnešiem","Jauniem. 4G internets par 16.99 EUR ar 12 mēn. līg., 22-2/2022/818"],"promotion":true,"contractTermMonths":24,"promotionCode":"PROMO_4G_INTERNET_24M_818"}],"scrapedAt":"2025-08-30T17:47:59.411Z","source":"api"}
{"id":"node/9887776002","address":"Zvaigžņu iela 13, Straupciems, Salas pag., Mārupes nov.","properties":{"addr:street":"Zvaigžņu iela","addr:housenumber":"13","addr:city":"Straupciems","addr:postcode":"LV-2105","addr:subdistrict":"Salas pagasts","addr:district":"Mārupes novads","addr:country":"LV","ref:LV:addr":"105675207"},"geometry":{"type":"Point","coordinates":[23.6548097,56.9218492]},"offers":[{"connectionType":"Mobile (4G/5G)","originalTitle":"Mobilais Internets","speed":null,"features":["4G un 5G bezvadu tehnoloģija;","bezmaksas iekārtas uz pakalpojuma lietošanas laiku;","neierobežots mobilo datu apjoms;","vienkārši uzstādīt un ērti paņemt līdzi."],"techInfo":null,"pricePerMonthEur":23.5,"currency":"EUR","terms":null,"promotion":false,"contractTermMonths":0,"promotionCode":null},{"connectionType":"Mobile (4G/5G)","originalTitle":"Mobilais Internets","speed":null,"features":["4G un 5G bezvadu tehnoloģija;","bezmaksas iekārtas uz pakalpojuma lietošanas laiku;","neierobežots mobilo datu apjoms;","vienkārši uzstādīt un ērti paņemt līdzi."],"techInfo":null,"pricePerMonthEur":17.5,"currency":"EUR","terms":["Līgums uz 24 mēnešiem","Jauniem. 4G internets par 16.99 EUR ar 12 mēn. līg., 22-2/2022/818"],"promotion":true,"contractTermMonths":24,"promotionCode":"PROMO_4G_INTERNET_24M_818"}],"scrapedAt":"2025-08-30T17:48:00.858Z","source":"api"}
{"id":"node/9887776000","address":"Zvaigžņu iela 15, Straupciems, Salas pag., Mārupes nov.","properties":{"addr:street":"Zvaigžņu iela","addr:housenumber":"15","addr:city":"Straupciems","addr:postcode":"LV-2105","addr:subdistrict":"Salas pagasts","addr:district":"Mārupes novads","addr:country":"LV","ref:LV:addr":"105675223"},"geometry":{"type":"Point","coordinates":[23.654772,56.9215684]},"offers":[{"connectionType":"Mobile (4G/5G)","originalTitle":"Mobilais Internets","speed":null,"features":["4G un 5G bezvadu tehnoloģija;","bezmaksas iekārtas uz pakalpojuma lietošanas laiku;","neierobežots mobilo datu apjoms;","vienkārši uzstādīt un ērti paņemt līdzi."],"techInfo":null,"pricePerMonthEur":23.5,"currency":"EUR","terms":null,"promotion":false,"contractTermMonths":0,"promotionCode":null},{"connectionType":"Mobile (4G/5G)","originalTitle":"Mobilais Internets","speed":null,"features":["4G un 5G bezvadu tehnoloģija;","bezmaksas iekārtas uz pakalpojuma lietošanas laiku;","neierobežots mobilo datu apjoms;","vienkārši uzstādīt un ērti paņemt līdzi."],"techInfo":null,"pricePerMonthEur":17.5,"currency":"EUR","terms":["Līgums uz 24 mēnešiem","Jauniem. 4G internets par 16.99 EUR ar 12 mēn. līg., 22-2/2022/818"],"promotion":true,"contractTermMonths":24,"promotionCode":"PROMO_4G_INTERNET_24M_818"}],"scrapedAt":"2025-08-30T17:48:00.859Z","source":"api"}
{"id":"node/9887776001","address":"Zvaigžņu iela 14, Straupciems, Salas pag., Mārupes nov.","properties":{"addr:street":"Zvaigžņu iela","addr:housenumber":"14","addr:city":"Straupciems","addr:postcode":"LV-2105","addr:subdistrict":"Salas pagasts","addr:district":"Mārupes novads","addr:country":"LV","ref:LV:addr":"105675215"},"geometry":{"type":"Point","coordinates":[23.6537528,56.9219014]},"offers":[{"connectionType":"Mobile (4G/5G)","originalTitle":"Mobilais Internets","speed":null,"features":["4G un 5G bezvadu tehnoloģija;","bezmaksas iekārtas uz pakalpojuma lietošanas laiku;","neierobežots mobilo datu apjoms;","vienkārši uzstādīt un ērti paņemt līdzi."],"techInfo":null,"pricePerMonthEur":23.5,"currency":"EUR","terms":null,"promotion":false,"contractTermMonths":0,"promotionCode":null},{"connectionType":"Mobile (4G/5G)","originalTitle":"Mobilais Internets","speed":null,"features":["4G un 5G bezvadu tehnoloģija;","bezmaksas iekārtas uz pakalpojuma lietošanas laiku;","neierobežots mobilo datu apjoms;","vienkārši uzstādīt un ērti paņemt līdzi."],"techInfo":null,"pricePerMonthEur":17.5,"currency":"EUR","terms":["Līgums uz 24 mēnešiem","Jauniem. 4G internets par 16.99 EUR ar 12 mēn. līg., 22-2/2022/818"],"promotion":true,"contractTermMonths":24,"promotionCode":"PROMO_4G_INTERNET_24M_818"}],"scrapedAt":"2025-08-30T17:48:01.081Z","source":"api"}
{"id":"node/9887776003","address":"Zvaigžņu iela 11, Straupciems, Salas pag., Mārupes nov.","properties":{"addr:street":"Zvaigžņu iela","addr:housenumber":"11","addr:city":"Straupciems","addr:postcode":"LV-2105","addr:subdistrict":"Salas pagasts","addr:district":"Mārupes novads","addr:country":"LV","ref:LV:addr":"105675192"},"geometry":{"type":"Point","coordinates":[23.6548775,56.9221301]},"offers":[{"connectionType":"Mobile (4G/5G)","originalTitle":"Mobilais Internets","speed":null,"features":["4G un 5G bezvadu tehnoloģija;","bezmaksas iekārtas uz pakalpojuma lietošanas laiku;","neierobežots mobilo datu apjoms;","vienkārši uzstādīt un ērti paņemt līdzi."],"techInfo":null,"pricePerMonthEur":23.5,"currency":"EUR","terms":null,"promotion":false,"contractTermMonths":0,"promotionCode":null},{"connectionType":"Mobile (4G/5G)","originalTitle":"Mobilais Internets","speed":null,"features":["4G un 5G bezvadu tehnoloģija;","bezmaksas iekārtas uz pakalpojuma lietošanas laiku;","neierobežots mobilo datu apjoms;","vienkārši uzstādīt un ērti paņemt līdzi."],"techInfo":null,"pricePerMonthEur":17.5,"currency":"EUR","terms":["Līgums uz 24 mēnešiem","Jauniem. 4G internets par 16.99 EUR ar 12 mēn. līg., 22-2/2022/818"],"promotion":true,"contractTermMonths":24,"promotionCode":"PROMO_4G_INTERNET_24M_818"}],"scrapedAt":"2025-08-30T17:48:01.310Z","source":"api"}
{"id":"node/9887776004","address":"Zvaigžņu iela 9, Straupciems, Salas pag., Mārupes nov.","properties":{"addr:street":"Zvaigžņu iela","addr:housenumber":"9","addr:city":"Straupciems","addr:postcode":"LV-2105","addr:subdistrict":"Salas pagasts","addr:district":"Mārupes novads","addr:country":"LV","ref:LV:addr":"105675184"},"geometry":{"type":"Point","coordinates":[23.654875,56.9223998]},"offers":[{"connectionType":"Mobile (4G/5G)","originalTitle":"Mobilais Internets","speed":null,"features":["4G un 5G bezvadu tehnoloģija;","bezmaksas iekārtas uz pakalpojuma lietošanas laiku;","neierobežots mobilo datu apjoms;","vienkārši uzstādīt un ērti paņemt līdzi."],"techInfo":null,"pricePerMonthEur":23.5,"currency":"EUR","terms":null,"promotion":false,"contractTermMonths":0,"promotionCode":null},{"connectionType":"Mobile (4G/5G)","originalTitle":"Mobilais Internets","speed":null,"features":["4G un 5G bezvadu tehnoloģija;","bezmaksas iekārtas uz pakalpojuma lietošanas laiku;","neierobežots mobilo datu apjoms;","vienkārši uzstādīt un ērti paņemt līdzi."],"techInfo":null,"pricePerMonthEur":17.5,"currency":"EUR","terms":["Līgums uz 24 mēnešiem","Jauniem. 4G internets par 16.99 EUR ar 12 mēn. līg., 22-2/2022/818"],"promotion":true,"contractTermMonths":24,"promotionCode":"PROMO_4G_INTERNET_24M_818"}],"scrapedAt":"2025-08-30T17:48:01.311Z","source":"api"}
{"id":"node/9887776007","address":"Zvaigžņu iela 3, Straupciems, Salas pag., Mārupes nov.","properties":{"addr:street":"Zvaigžņu iela","addr:housenumber":"3","addr:city":"Straupciems","addr:postcode":"LV-2105","addr:subdistrict":"Salas pagasts","addr:district":"Mārupes novads","addr:country":"LV","ref:LV:addr":"105675151"},"geometry":{"type":"Point","coordinates":[23.6549883,56.923201]},"offers":[{"connectionType":"Mobile (4G/5G)","originalTitle":"Mobilais Internets","speed":null,"features":["4G un 5G bezvadu tehnoloģija;","bezmaksas iekārtas uz pakalpojuma lietošanas laiku;","neierobežots mobilo datu apjoms;","vienkārši uzstādīt un ērti paņemt līdzi."],"techInfo":null,"pricePerMonthEur":23.5,"currency":"EUR","terms":null,"promotion":false,"contractTermMonths":0,"promotionCode":null},{"connectionType":"Mobile (4G/5G)","originalTitle":"Mobilais Internets","speed":null,"features":["4G un 5G bezvadu tehnoloģija;","bezmaksas iekārtas uz pakalpojuma lietošanas laiku;","neierobežots mobilo datu apjoms;","vienkārši uzstādīt un ērti paņemt līdzi."],"techInfo":null,"pricePerMonthEur":17.5,"currency":"EUR","terms":["Līgums uz 24 mēnešiem","Jauniem. 4G internets par 16.99 EUR ar 12 mēn. līg., 22-2/2022/818"],"promotion":true,"contractTermMonths":24,"promotionCode":"PROMO_4G_INTERNET_24M_818"}],"scrapedAt":"2025-08-30T17:48:03.100Z","source":"api"}
{"id":"node/9887776005","address":"Zvaigžņu iela 7, Straupciems, Salas pag., Mārupes nov.","properties":{"addr:street":"Zvaigžņu iela","addr:housenumber":"7","addr:city":"Straupciems","addr:postcode":"LV-2105","addr:subdistrict":"Salas pagasts","addr:district":"Mārupes novads","addr:country":"LV","ref:LV:addr":"105675176"},"geometry":{"type":"Point","coordinates":[23.6549329,56.9226697]},"offers":[{"connectionType":"Mobile (4G/5G)","originalTitle":"Mobilais Internets","speed":null,"features":["4G un 5G bezvadu tehnoloģija;","bezmaksas iekārtas uz pakalpojuma lietošanas laiku;","neierobežots mobilo datu apjoms;","vienkārši uzstādīt un ērti paņemt līdzi."],"techInfo":null,"pricePerMonthEur":23.5,"currency":"EUR","terms":null,"promotion":false,"contractTermMonths":0,"promotionCode":null},{"connectionType":"Mobile (4G/5G)","originalTitle":"Mobilais Internets","speed":null,"features":["4G un 5G bezvadu tehnoloģija;","bezmaksas iekārtas uz pakalpojuma lietošanas laiku;","neierobežots mobilo datu apjoms;","vienkārši uzstādīt un ērti paņemt līdzi."],"techInfo":null,"pricePerMonthEur":17.5,"currency":"EUR","terms":["Līgums uz 24 mēnešiem","Jauniem. 4G internets par 16.99 EUR ar 12 mēn. līg., 22-2/2022/818"],"promotion":true,"contractTermMonths":24,"promotionCode":"PROMO_4G_INTERNET_24M_818"}],"scrapedAt":"2025-08-30T17:48:03.106Z","source":"api"}
{"id":"node/9887776008","address":"Zvaigžņu iela 2, Straupciems, Salas pag., Mārupes nov.","properties":{"addr:street":"Zvaigžņu iela","addr:housenumber":"2","addr:city":"Straupciems","addr:postcode":"LV-2105","addr:subdistrict":"Salas pagasts","addr:district":"Mārupes novads","addr:country":"LV","ref:LV:addr":"105675143"},"geometry":{"type":"Point","coordinates":[23.6540647,56.9235341]},"offers":[{"connectionType":"Mobile (4G/5G)","originalTitle":"Mobilais Internets","speed":null,"features":["4G un 5G bezvadu tehnoloģija;","bezmaksas iekārtas uz pakalpojuma lietošanas laiku;","neierobežots mobilo datu apjoms;","vienkārši uzstādīt un ērti paņemt līdzi."],"techInfo":null,"pricePerMonthEur":23.5,"currency":"EUR","terms":null,"promotion":false,"contractTermMonths":0,"promotionCode":null},{"connectionType":"Mobile (4G/5G)","originalTitle":"Mobilais Internets","speed":null,"features":["4G un 5G bezvadu tehnoloģija;","bezmaksas iekārtas uz pakalpojuma lietošanas laiku;","neierobežots mobilo datu apjoms;","vienkārši uzstādīt un ērti paņemt līdzi."],"techInfo":null,"pricePerMonthEur":17.5,"currency":"EUR","terms":["Līgums uz 24 mēnešiem","Jauniem. 4G internets par 16.99 EUR ar 12 mēn. līg., 22-2/2022/818"],"promotion":true,"contractTermMonths":24,"promotionCode":"PROMO_4G_INTERNET_24M_818"}],"scrapedAt":"2025-08-30T17:48:03.317Z","source":"api"}
{"id":"node/9887776009","address":"Zvaigžņu iela 1, Straupciems, Salas pag., Mārupes nov.","properties":{"addr:street":"Zvaigžņu iela","addr:housenumber":"1","addr:city":"Straupciems","addr:postcode":"LV-2105","addr:subdistrict":"Salas pagasts","addr:district":"Mārupes novads","addr:country":"LV","ref:LV:addr":"105675135"},"geometry":{"type":"Point","coordinates":[23.6550464,56.9234543]},"offers":[{"connectionType":"Mobile (4G/5G)","originalTitle":"Mobilais Internets","speed":null,"features":["4G un 5G bezvadu tehnoloģija;","bezmaksas iekārtas uz pakalpojuma lietošanas laiku;","neierobežots mobilo datu apjoms;","vienkārši uzstādīt un ērti paņemt līdzi."],"techInfo":null,"pricePerMonthEur":23.5,"currency":"EUR","terms":null,"promotion":false,"contractTermMonths":0,"promotionCode":null},{"connectionType":"Mobile (4G/5G)","originalTitle":"Mobilais Internets","speed":null,"features":["4G un 5G bezvadu tehnoloģija;","bezmaksas iekārtas uz pakalpojuma lietošanas laiku;","neierobežots mobilo datu apjoms;","vienkārši uzstādīt un ērti paņemt līdzi."],"techInfo":null,"pricePerMonthEur":17.5,"currency":"EUR","terms":["Līgums uz 24 mēnešiem","Jauniem. 4G internets par 16.99 EUR ar 12 mēn. līg., 22-2/2022/818"],"promotion":true,"contractTermMonths":24,"promotionCode":"PROMO_4G_INTERNET_24M_818"}],"scrapedAt":"2025-08-30T17:48:03.318Z","source":"api"}
{"id":"node/9887776006","address":"Zvaigžņu iela 5, Straupciems, Salas pag., Mārupes nov.","properties":{"addr:street":"Zvaigžņu iela","addr:housenumber":"5","addr:city":"Straupciems","addr:postcode":"LV-2105","addr:subdistrict":"Salas pagasts","addr:district":"Mārupes novads","addr:country":"LV","ref:LV:addr":"105675168"},"geometry":{"type":"Point","coordinates":[23.6549194,56.9228439]},"offers":[{"connectionType":"Mobile (4G/5G)","originalTitle":"Mobilais Internets","speed":null,"features":["4G un 5G bezvadu tehnoloģija;","bezmaksas iekārtas uz pakalpojuma lietošanas laiku;","neierobežots mobilo datu apjoms;","vienkārši uzstādīt un ērti paņemt līdzi."],"techInfo":null,"pricePerMonthEur":23.5,"currency":"EUR","terms":null,"promotion":false,"contractTermMonths":0,"promotionCode":null},{"connectionType":"Mobile (4G/5G)","originalTitle":"Mobilais Internets","speed":null,"features":["4G un 5G bezvadu tehnoloģija;","bezmaksas iekārtas uz pakalpojuma lietošanas laiku;","neierobežots mobilo datu apjoms;","vienkārši uzstādīt un ērti paņemt līdzi."],"techInfo":null,"pricePerMonthEur":17.5,"currency":"EUR","terms":["Līgums uz 24 mēnešiem","Jauniem. 4G internets par 16.99 EUR ar 12 mēn. līg., 22-2/2022/818"],"promotion":true,"contractTermMonths":24,"promotionCode":"PROMO_4G_INTERNET_24M_818"}],"scrapedAt":"2025-08-30T17:48:03.774Z","source":"api"}
{"id":"node/9887776014","address":"Zvaigžņu iela 4, Straupciems, Salas pag., Mārupes nov.","properties":{"addr:street":"Zvaigžņu iela","addr:housenumber":"4","addr:city":"Straupciems","addr:postcode":"LV-2105","addr:subdistrict":"Salas pagasts","addr:district":"Mārupes novads","addr:country":"LV","ref:LV:addr":"105240781"},"geometry":{"type":"Point","coordinates":[23.6540336,56.9232502]},"offers":[{"connectionType":"Mobile (4G/5G)","originalTitle":"Mobilais Internets","speed":null,"features":["4G un 5G bezvadu tehnoloģija;","bezmaksas iekārtas uz pakalpojuma lietošanas laiku;","neierobežots mobilo datu apjoms;","vienkārši uzstādīt un ērti paņemt līdzi."],"techInfo":null,"pricePerMonthEur":23.5,"currency":"EUR","terms":null,"promotion":false,"contractTermMonths":0,"promotionCode":null},{"connectionType":"Mobile (4G/5G)","originalTitle":"Mobilais Internets","speed":null,"features":["4G un 5G bezvadu tehnoloģija;","bezmaksas iekārtas uz pakalpojuma lietošanas laiku;","neierobežots mobilo datu apjoms;","vienkārši uzstādīt un ērti paņemt līdzi."],"techInfo":null,"pricePerMonthEur":17.5,"currency":"EUR","terms":["Līgums uz 24 mēnešiem","Jauniem. 4G internets par 16.99 EUR ar 12 mēn. līg., 22-2/2022/818"],"promotion":true,"contractTermMonths":24,"promotionCode":"PROMO_4G_INTERNET_24M_818"}],"scrapedAt":"2025-08-30T17:48:05.221Z","source":"api"}
{"id":"node/9887776010","address":"Zvaigžņu iela 22, Straupciems, Salas pag., Mārupes nov.","properties":{"addr:street":"Zvaigžņu iela","addr:housenumber":"22","addr:city":"Straupciems","addr:postcode":"LV-2105","addr:subdistrict":"Salas pagasts","addr:district":"Mārupes novads","addr:country":"LV","ref:LV:addr":"105259688"},"geometry":{"type":"Point","coordinates":[23.6535702,56.9208547]},"offers":[{"connectionType":"Mobile (4G/5G)","originalTitle":"Mobilais Internets","speed":null,"features":["4G un 5G bezvadu tehnoloģija;","bezmaksas iekārtas uz pakalpojuma lietošanas laiku;","neierobežots mobilo datu apjoms;","vienkārši uzstādīt un ērti paņemt līdzi."],"techInfo":null,"pricePerMonthEur":23.5,"currency":"EUR","terms":null,"promotion":false,"contractTermMonths":0,"promotionCode":null},{"connectionType":"Mobile (4G/5G)","originalTitle":"Mobilais Internets","speed":null,"features":["4G un 5G bezvadu tehnoloģija;","bezmaksas iekārtas uz pakalpojuma lietošanas laiku;","neierobežots mobilo datu apjoms;","vienkārši uzstādīt un ērti paņemt līdzi."],"techInfo":null,"pricePerMonthEur":17.5,"currency":"EUR","terms":["Līgums uz 24 mēnešiem","Jauniem. 4G internets par 16.99 EUR ar 12 mēn. līg., 22-2/2022/818"],"promotion":true,"contractTermMonths":24,"promotionCode":"PROMO_4G_INTERNET_24M_818"}],"scrapedAt":"2025-08-30T17:48:05.429Z","source":"api"}
{"id":"node/9887776011","address":"Zvaigžņu iela 8, Straupciems, Salas pag., Mārupes nov.","properties":{"addr:street":"Zvaigžņu iela","addr:housenumber":"8","addr:city":"Straupciems","addr:postcode":"LV-2105","addr:subdistrict":"Salas pagasts","addr:district":"Mārupes novads","addr:country":"LV","ref:LV:addr":"105240812"},"geometry":{"type":"Point","coordinates":[23.6539037,56.9227344]},"offers":[{"connectionType":"Mobile (4G/5G)","originalTitle":"Mobilais Internets","speed":null,"features":["4G un 5G bezvadu tehnoloģija;","bezmaksas iekārtas uz pakalpojuma lietošanas laiku;","neierobežots mobilo datu apjoms;","vienkārši uzstādīt un ērti paņemt līdzi."],"techInfo":null,"pricePerMonthEur":23.5,"currency":"EUR","terms":null,"promotion":false,"contractTermMonths":0,"promotionCode":null},{"connectionType":"Mobile (4G/5G)","originalTitle":"Mobilais Internets","speed":null,"features":["4G un 5G bezvadu tehnoloģija;","bezmaksas iekārtas uz pakalpojuma lietošanas laiku;","neierobežots mobilo datu apjoms;","vienkārši uzstādīt un ērti paņemt līdzi."],"techInfo":null,"pricePerMonthEur":17.5,"currency":"EUR","terms":["Līgums uz 24 mēnešiem","Jauniem. 4G internets par 16.99 EUR ar 12 mēn. līg., 22-2/2022/818"],"promotion":true,"contractTermMonths":24,"promotionCode":"PROMO_4G_INTERNET_24M_818"}],"scrapedAt":"2025-08-30T17:48:05.681Z","source":"api"}
{"id":"node/9887776013","address":"Zvaigžņu iela 12, Straupciems, Salas pag., Mārupes nov.","properties":{"addr:street":"Zvaigžņu iela","addr:housenumber":"12","addr:city":"Straupciems","addr:postcode":"LV-2105","addr:subdistrict":"Salas pagasts","addr:district":"Mārupes novads","addr:country":"LV","ref:LV:addr":"105240798"},"geometry":{"type":"Point","coordinates":[23.6539826,56.9222571]},"offers":[{"connectionType":"Mobile (4G/5G)","originalTitle":"Mobilais Internets","speed":null,"features":["4G un 5G bezvadu tehnoloģija;","bezmaksas iekārtas uz pakalpojuma lietošanas laiku;","neierobežots mobilo datu apjoms;","vienkārši uzstādīt un ērti paņemt līdzi."],"techInfo":null,"pricePerMonthEur":23.5,"currency":"EUR","terms":null,"promotion":false,"contractTermMonths":0,"promotionCode":null},{"connectionType":"Mobile (4G/5G)","originalTitle":"Mobilais Internets","speed":null,"features":["4G un 5G bezvadu tehnoloģija;","bezmaksas iekārtas uz pakalpojuma lietošanas laiku;","neierobežots mobilo datu apjoms;","vienkārši uzstādīt un ērti paņemt līdzi."],"techInfo":null,"pricePerMonthEur":17.5,"currency":"EUR","terms":["Līgums uz 24 mēnešiem","Jauniem. 4G internets par 16.99 EUR ar 12 mēn. līg., 22-2/2022/818"],"promotion":true,"contractTermMonths":24,"promotionCode":"PROMO_4G_INTERNET_24M_818"}],"scrapedAt":"2025-08-30T17:48:05.683Z","source":"api"}
{"id":"node/9887776012","address":"Zvaigžņu iela 6, Straupciems, Salas pag., Mārupes nov.","properties":{"addr:street":"Zvaigžņu iela","addr:housenumber":"6","addr:city":"Straupciems","addr:postcode":"LV-2105","addr:subdistrict":"Salas pagasts","addr:district":"Mārupes novads","addr:country":"LV","ref:LV:addr":"105240804"},"geometry":{"type":"Point","coordinates":[23.6539228,56.9230165]},"offers":[{"connectionType":"Mobile (4G/5G)","originalTitle":"Mobilais Internets","speed":null,"features":["4G un 5G bezvadu tehnoloģija;","bezmaksas iekārtas uz pakalpojuma lietošanas laiku;","neierobežots mobilo datu apjoms;","vienkārši uzstādīt un ērti paņemt līdzi."],"techInfo":null,"pricePerMonthEur":23.5,"currency":"EUR","terms":null,"promotion":false,"contractTermMonths":0,"promotionCode":null},{"connectionType":"Mobile (4G/5G)","originalTitle":"Mobilais Internets","speed":null,"features":["4G un 5G bezvadu tehnoloģija;","bezmaksas iekārtas uz pakalpojuma lietošanas laiku;","neierobežots mobilo datu apjoms;","vienkārši uzstādīt un ērti paņemt līdzi."],"techInfo":null,"pricePerMonthEur":17.5,"currency":"EUR","terms":["Līgums uz 24 mēnešiem","Jauniem. 4G internets par 16.99 EUR ar 12 mēn. līg., 22-2/2022/818"],"promotion":true,"contractTermMonths":24,"promotionCode":"PROMO_4G_INTERNET_24M_818"}],"scrapedAt":"2025-08-30T17:48:05.682Z","source":"api"}
{"id":"node/9887776018","address":"Mēness iela 51, Straupciems, Salas pag., Mārupes nov.","properties":{"addr:street":"Mēness iela","addr:housenumber":"51","addr:city":"Straupciems","addr:postcode":"LV-2105","addr:subdistrict":"Salas pagasts","addr:district":"Mārupes novads","addr:country":"LV","ref:LV:addr":"105240837"},"geometry":{"type":"Point","coordinates":[23.6528328,56.9208325]},"offers":[{"connectionType":"Mobile (4G/5G)","originalTitle":"Mobilais Internets","speed":null,"features":["4G un 5G bezvadu tehnoloģija;","bezmaksas iekārtas uz pakalpojuma lietošanas laiku;","neierobežots mobilo datu apjoms;","vienkārši uzstādīt un ērti paņemt līdzi."],"techInfo":null,"pricePerMonthEur":23.5,"currency":"EUR","terms":null,"promotion":false,"contractTermMonths":0,"promotionCode":null},{"connectionType":"Mobile (4G/5G)","originalTitle":"Mobilais Internets","speed":null,"features":["4G un 5G bezvadu tehnoloģija;","bezmaksas iekārtas uz pakalpojuma lietošanas laiku;","neierobežots mobilo datu apjoms;","vienkārši uzstādīt un ērti paņemt līdzi."],"techInfo":null,"pricePerMonthEur":17.5,"currency":"EUR","terms":["Līgums uz 24 mēnešiem","Jauniem. 4G internets par 16.99 EUR ar 12 mēn. līg., 22-2/2022/818"],"promotion":true,"contractTermMonths":24,"promotionCode":"PROMO_4G_INTERNET_24M_818"}],"scrapedAt":"2025-08-30T17:48:07.458Z","source":"api"}
{"id":"node/9887776016","address":"Mēness iela 7, Straupciems, Salas pag., Mārupes nov.","properties":{"addr:street":"Mēness iela","addr:housenumber":"7","addr:city":"Straupciems","addr:postcode":"LV-2105","addr:subdistrict":"Salas pagasts","addr:district":"Mārupes novads","addr:country":"LV","ref:LV:addr":"105240853"},"geometry":{"type":"Point","coordinates":[23.6517709,56.9264628]},"offers":[{"connectionType":"Mobile (4G/5G)","originalTitle":"Mobilais Internets","speed":null,"features":["4G un 5G bezvadu tehnoloģija;","bezmaksas iekārtas uz pakalpojuma lietošanas laiku;","neierobežots mobilo datu apjoms;","vienkārši uzstādīt un ērti paņemt līdzi."],"techInfo":null,"pricePerMonthEur":23.5,"currency":"EUR","terms":null,"promotion":false,"contractTermMonths":0,"promotionCode":null},{"connectionType":"Mobile (4G/5G)","originalTitle":"Mobilais Internets","speed":null,"features":["4G un 5G bezvadu tehnoloģija;","bezmaksas iekārtas uz pakalpojuma lietošanas laiku;","neierobežots mobilo datu apjoms;","vienkārši uzstādīt un ērti paņemt līdzi."],"techInfo":null,"pricePerMonthEur":17.5,"currency":"EUR","terms":["Līgums uz 24 mēnešiem","Jauniem. 4G internets par 16.99 EUR ar 12 mēn. līg., 22-2/2022/818"],"promotion":true,"contractTermMonths":24,"promotionCode":"PROMO_4G_INTERNET_24M_818"}],"scrapedAt":"2025-08-30T17:48:07.675Z","source":"api"}
{"id":"node/9887776017","address":"Mēness iela 45, Straupciems, Salas pag., Mārupes nov.","properties":{"addr:street":"Mēness iela","addr:housenumber":"45","addr:city":"Straupciems","addr:postcode":"LV-2105","addr:subdistrict":"Salas pagasts","addr:district":"Mārupes novads","addr:country":"LV","ref:LV:addr":"105240845"},"geometry":{"type":"Point","coordinates":[23.6529974,56.9217825]},"offers":[{"connectionType":"Mobile (4G/5G)","originalTitle":"Mobilais Internets","speed":null,"features":["4G un 5G bezvadu tehnoloģija;","bezmaksas iekārtas uz pakalpojuma lietošanas laiku;","neierobežots mobilo datu apjoms;","vienkārši uzstādīt un ērti paņemt līdzi."],"techInfo":null,"pricePerMonthEur":23.5,"currency":"EUR","terms":null,"promotion":false,"contractTermMonths":0,"promotionCode":null},{"connectionType":"Mobile (4G/5G)","originalTitle":"Mobilais Internets","speed":null,"features":["4G un 5G bezvadu tehnoloģija;","bezmaksas iekārtas uz pakalpojuma lietošanas laiku;","neierobežots mobilo datu apjoms;","vienkārši uzstādīt un ērti paņemt līdzi."],"techInfo":null,"pricePerMonthEur":17.5,"currency":"EUR","terms":["Līgums uz 24 mēnešiem","Jauniem. 4G internets par 16.99 EUR ar 12 mēn. līg., 22-2/2022/818"],"promotion":true,"contractTermMonths":24,"promotionCode":"PROMO_4G_INTERNET_24M_818"}],"scrapedAt":"2025-08-30T17:48:07.675Z","source":"api"}
{"id":"node/9887776015","address":"Zvaigžņu iela 10, Straupciems, Salas pag., Mārupes nov.","properties":{"addr:street":"Zvaigžņu iela","addr:housenumber":"10","addr:city":"Straupciems","addr:postcode":"LV-2105","addr:subdistrict":"Salas pagasts","addr:district":"Mārupes novads","addr:country":"LV","ref:LV:addr":"105240773"},"geometry":{"type":"Point","coordinates":[23.6540873,56.9225253]},"offers":[{"connectionType":"Mobile (4G/5G)","originalTitle":"Mobilais Internets","speed":null,"features":["4G un 5G bezvadu tehnoloģija;","bezmaksas iekārtas uz pakalpojuma lietošanas laiku;","neierobežots mobilo datu apjoms;","vienkārši uzstādīt un ērti paņemt līdzi."],"techInfo":null,"pricePerMonthEur":23.5,"currency":"EUR","terms":null,"promotion":false,"contractTermMonths":0,"promotionCode":null},{"connectionType":"Mobile (4G/5G)","originalTitle":"Mobilais Internets","speed":null,"features":["4G un 5G bezvadu tehnoloģija;","bezmaksas iekārtas uz pakalpojuma lietošanas laiku;","neierobežots mobilo datu apjoms;","vienkārši uzstādīt un ērti paņemt līdzi."],"techInfo":null,"pricePerMonthEur":17.5,"currency":"EUR","terms":["Līgums uz 24 mēnešiem","Jauniem. 4G internets par 16.99 EUR ar 12 mēn. līg., 22-2/2022/818"],"promotion":true,"contractTermMonths":24,"promotionCode":"PROMO_4G_INTERNET_24M_818"}],"scrapedAt":"2025-08-30T17:48:07.992Z","source":"api"}
{"id":"node/9887776019","address":"Mēness iela 33, Straupciems, Salas pag., Mārupes nov.","properties":{"addr:street":"Mēness iela","addr:housenumber":"33","addr:city":"Straupciems","addr:postcode":"LV-2105","addr:subdistrict":"Salas pagasts","addr:district":"Mārupes novads","addr:country":"LV","ref:LV:addr":"105240820"},"geometry":{"type":"Point","coordinates":[23.6533533,56.9235057]},"offers":[{"connectionType":"Mobile (4G/5G)","originalTitle":"Mobilais Internets","speed":null,"features":["4G un 5G bezvadu tehnoloģija;","bezmaksas iekārtas uz pakalpojuma lietošanas laiku;","neierobežots mobilo datu apjoms;","vienkārši uzstādīt un ērti paņemt līdzi."],"techInfo":null,"pricePerMonthEur":23.5,"currency":"EUR","terms":null,"promotion":false,"contractTermMonths":0,"promotionCode":null},{"connectionType":"Mobile (4G/5G)","originalTitle":"Mobilais Internets","speed":null,"features":["4G un 5G bezvadu tehnoloģija;","bezmaksas iekārtas uz pakalpojuma lietošanas laiku;","neierobežots mobilo datu apjoms;","vienkārši uzstādīt un ērti paņemt līdzi."],"techInfo":null,"pricePerMonthEur":17.5,"currency":"EUR","terms":["Līgums uz 24 mēnešiem","Jauniem. 4G internets par 16.99 EUR ar 12 mēn. līg., 22-2/2022/818"],"promotion":true,"contractTermMonths":24,"promotionCode":"PROMO_4G_INTERNET_24M_818"}],"scrapedAt":"2025-08-30T17:48:08.250Z","source":"api"}
{"id":"node/9887776032","address":"Varavīksnes iela 13, Straupciems, Salas pag., Mārupes nov.","properties":{"addr:street":"Varavīksnes iela","addr:housenumber":"13","addr:city":"Straupciems","addr:postcode":"LV-2105","addr:subdistrict":"Salas pagasts","addr:district":"Mārupes novads","addr:country":"LV","ref:LV:addr":"105675127"},"geometry":{"type":"Point","coordinates":[23.6524472,56.9243553]},"offers":[{"connectionType":"Mobile (4G/5G)","originalTitle":"Mobilais Internets","speed":null,"features":["4G un 5G bezvadu tehnoloģija;","bezmaksas iekārtas uz pakalpojuma lietošanas laiku;","neierobežots mobilo datu apjoms;","vienkārši uzstādīt un ērti paņemt līdzi."],"techInfo":null,"pricePerMonthEur":23.5,"currency":"EUR","terms":null,"promotion":false,"contractTermMonths":0,"promotionCode":null},{"connectionType":"Mobile (4G/5G)","originalTitle":"Mobilais Internets","speed":null,"features":["4G un 5G bezvadu tehnoloģija;","bezmaksas iekārtas uz pakalpojuma lietošanas laiku;","neierobežots mobilo datu apjoms;","vienkārši uzstādīt un ērti paņemt līdzi."],"techInfo":null,"pricePerMonthEur":17.5,"currency":"EUR","terms":["Līgums uz 24 mēnešiem","Jauniem. 4G internets par 16.99 EUR ar 12 mēn. līg., 22-2/2022/818"],"promotion":true,"contractTermMonths":24,"promotionCode":"PROMO_4G_INTERNET_24M_818"}],"scrapedAt":"2025-08-30T17:48:09.715Z","source":"api"}
{"id":"node/9887776029","address":"Šnepstu ceļš 4, Straupciems, Salas pag., Mārupes nov.","properties":{"addr:street":"Šnepstu ceļš","addr:housenumber":"4","addr:city":"Straupciems","addr:postcode":"LV-2105","addr:subdistrict":"Salas pagasts","addr:district":"Mārupes novads","addr:country":"LV","ref:LV:addr":"105816498"},"geometry":{"type":"Point","coordinates":[23.6509855,56.9151068]},"offers":[{"connectionType":"Mobile (4G/5G)","originalTitle":"Mobilais Internets","speed":null,"features":["4G un 5G bezvadu tehnoloģija;","bezmaksas iekārtas uz pakalpojuma lietošanas laiku;","neierobežots mobilo datu apjoms;","vienkārši uzstādīt un ērti paņemt līdzi."],"techInfo":null,"pricePerMonthEur":23.5,"currency":"EUR","terms":null,"promotion":false,"contractTermMonths":0,"promotionCode":null},{"connectionType":"Mobile (4G/5G)","originalTitle":"Mobilais Internets","speed":null,"features":["4G un 5G bezvadu tehnoloģija;","bezmaksas iekārtas uz pakalpojuma lietošanas laiku;","neierobežots mobilo datu apjoms;","vienkārši uzstādīt un ērti paņemt līdzi."],"techInfo":null,"pricePerMonthEur":17.5,"currency":"EUR","terms":["Līgums uz 24 mēnešiem","Jauniem. 4G internets par 16.99 EUR ar 12 mēn. līg., 22-2/2022/818"],"promotion":true,"contractTermMonths":24,"promotionCode":"PROMO_4G_INTERNET_24M_818"}],"scrapedAt":"2025-08-30T17:48:10.007Z","source":"api"}
{"id":"node/9887776031","address":"Šnepstu ceļš 1, Straupciems, Salas pag., Mārupes nov.","properties":{"addr:street":"Šnepstu ceļš","addr:housenumber":"1","addr:city":"Straupciems","addr:postcode":"LV-2105","addr:subdistrict":"Salas pagasts","addr:district":"Mārupes novads","addr:country":"LV","ref:LV:addr":"105816465"},"geometry":{"type":"Point","coordinates":[23.6510652,56.9143664]},"offers":[{"connectionType":"Mobile (4G/5G)","originalTitle":"Mobilais Internets","speed":null,"features":["4G un 5G bezvadu tehnoloģija;","bezmaksas iekārtas uz pakalpojuma lietošanas laiku;","neierobežots mobilo datu apjoms;","vienkārši uzstādīt un ērti paņemt līdzi."],"techInfo":null,"pricePerMonthEur":23.5,"currency":"EUR","terms":null,"promotion":false,"contractTermMonths":0,"promotionCode":null},{"connectionType":"Mobile (4G/5G)","originalTitle":"Mobilais Internets","speed":null,"features":["4G un 5G bezvadu tehnoloģija;","bezmaksas iekārtas uz pakalpojuma lietošanas laiku;","neierobežots mobilo datu apjoms;","vienkārši uzstādīt un ērti paņemt līdzi."],"techInfo":null,"pricePerMonthEur":17.5,"currency":"EUR","terms":["Līgums uz 24 mēnešiem","Jauniem. 4G internets par 16.99 EUR ar 12 mēn. līg., 22-2/2022/818"],"promotion":true,"contractTermMonths":24,"promotionCode":"PROMO_4G_INTERNET_24M_818"}],"scrapedAt":"2025-08-30T17:48:10.227Z","source":"api"}
{"id":"node/9887776030","address":"Šnepstu ceļš 2, Straupciems, Salas pag., Mārupes nov.","properties":{"addr:street":"Šnepstu ceļš","addr:housenumber":"2","addr:city":"Straupciems","addr:postcode":"LV-2105","addr:subdistrict":"Salas pagasts","addr:district":"Mārupes novads","addr:country":"LV","ref:LV:addr":"105816473"},"geometry":{"type":"Point","coordinates":[23.6515935,56.9149533]},"offers":[{"connectionType":"Mobile (4G/5G)","originalTitle":"Mobilais Internets","speed":null,"features":["4G un 5G bezvadu tehnoloģija;","bezmaksas iekārtas uz pakalpojuma lietošanas laiku;","neierobežots mobilo datu apjoms;","vienkārši uzstādīt un ērti paņemt līdzi."],"techInfo":null,"pricePerMonthEur":23.5,"currency":"EUR","terms":null,"promotion":false,"contractTermMonths":0,"promotionCode":null},{"connectionType":"Mobile (4G/5G)","originalTitle":"Mobilais Internets","speed":null,"features":["4G un 5G bezvadu tehnoloģija;","bezmaksas iekārtas uz pakalpojuma lietošanas laiku;","neierobežots mobilo datu apjoms;","vienkārši uzstādīt un ērti paņemt līdzi."],"techInfo":null,"pricePerMonthEur":17.5,"currency":"EUR","terms":["Līgums uz 24 mēnešiem","Jauniem. 4G internets par 16.99 EUR ar 12 mēn. līg., 22-2/2022/818"],"promotion":true,"contractTermMonths":24,"promotionCode":"PROMO_4G_INTERNET_24M_818"}],"scrapedAt":"2025-08-30T17:48:10.226Z","source":"api"}
{"id":"node/9887776020","address":"Mēness iela 47, Straupciems, Salas pag., Mārupes nov.","properties":{"addr:street":"Mēness iela","addr:housenumber":"47","addr:city":"Straupciems","addr:postcode":"LV-2105","addr:subdistrict":"Salas pagasts","addr:district":"Mārupes novads","addr:country":"LV","ref:LV:addr":"105240765"},"geometry":{"type":"Point","coordinates":[23.6529502,56.9214618]},"offers":[{"connectionType":"Mobile (4G/5G)","originalTitle":"Mobilais Internets","speed":null,"features":["4G un 5G bezvadu tehnoloģija;","bezmaksas iekārtas uz pakalpojuma lietošanas laiku;","neierobežots mobilo datu apjoms;","vienkārši uzstādīt un ērti paņemt līdzi."],"techInfo":null,"pricePerMonthEur":23.5,"currency":"EUR","terms":null,"promotion":false,"contractTermMonths":0,"promotionCode":null},{"connectionType":"Mobile (4G/5G)","originalTitle":"Mobilais Internets","speed":null,"features":["4G un 5G bezvadu tehnoloģija;","bezmaksas iekārtas uz pakalpojuma lietošanas laiku;","neierobežots mobilo datu apjoms;","vienkārši uzstādīt un ērti paņemt līdzi."],"techInfo":null,"pricePerMonthEur":17.5,"currency":"EUR","terms":["Līgums uz 24 mēnešiem","Jauniem. 4G internets par 16.99 EUR ar 12 mēn. līg., 22-2/2022/818"],"promotion":true,"contractTermMonths":24,"promotionCode":"PROMO_4G_INTERNET_24M_818"}],"scrapedAt":"2025-08-30T17:48:10.227Z","source":"api"}
{"id":"node/9887776033","address":"Varavīksnes iela 12, Straupciems, Salas pag., Mārupes nov.","properties":{"addr:street":"Varavīksnes iela","addr:housenumber":"12","addr:city":"Straupciems","addr:postcode":"LV-2105","addr:subdistrict":"Salas pagasts","addr:district":"Mārupes novads","addr:country":"LV","ref:LV:addr":"105675110"},"geometry":{"type":"Point","coordinates":[23.6523365,56.9249026]},"offers":[{"connectionType":"Mobile (4G/5G)","originalTitle":"Mobilais Internets","speed":null,"features":["4G un 5G bezvadu tehnoloģija;","bezmaksas iekārtas uz pakalpojuma lietošanas laiku;","neierobežots mobilo datu apjoms;","vienkārši uzstādīt un ērti paņemt līdzi."],"techInfo":null,"pricePerMonthEur":23.5,"currency":"EUR","terms":null,"promotion":false,"contractTermMonths":0,"promotionCode":null},{"connectionType":"Mobile (4G/5G)","originalTitle":"Mobilais Internets","speed":null,"features":["4G un 5G bezvadu tehnoloģija;","bezmaksas iekārtas uz pakalpojuma lietošanas laiku;","neierobežots mobilo datu apjoms;","vienkārši uzstādīt un ērti paņemt līdzi."],"techInfo":null,"pricePerMonthEur":17.5,"currency":"EUR","terms":["Līgums uz 24 mēnešiem","Jauniem. 4G internets par 16.99 EUR ar 12 mēn. līg., 22-2/2022/818"],"promotion":true,"contractTermMonths":24,"promotionCode":"PROMO_4G_INTERNET_24M_818"}],"scrapedAt":"2025-08-30T17:48:12.232Z","source":"api"}
{"id":"node/9887776037","address":"Varavīksnes iela 8, Straupciems, Salas pag., Mārupes nov.","properties":{"addr:street":"Varavīksnes iela","addr:housenumber":"8","addr:city":"Straupciems","addr:postcode":"LV-2105","addr:subdistrict":"Salas pagasts","addr:district":"Mārupes novads","addr:country":"LV","ref:LV:addr":"105675071"},"geometry":{"type":"Point","coordinates":[23.6533065,56.9250071]},"offers":[{"connectionType":"Mobile (4G/5G)","originalTitle":"Mobilais Internets","speed":null,"features":["4G un 5G bezvadu tehnoloģija;","bezmaksas iekārtas uz pakalpojuma lietošanas laiku;","neierobežots mobilo datu apjoms;","vienkārši uzstādīt un ērti paņemt līdzi."],"techInfo":null,"pricePerMonthEur":23.5,"currency":"EUR","terms":null,"promotion":false,"contractTermMonths":0,"promotionCode":null},{"connectionType":"Mobile (4G/5G)","originalTitle":"Mobilais Internets","speed":null,"features":["4G un 5G bezvadu tehnoloģija;","bezmaksas iekārtas uz pakalpojuma lietošanas laiku;","neierobežots mobilo datu apjoms;","vienkārši uzstādīt un ērti paņemt līdzi."],"techInfo":null,"pricePerMonthEur":17.5,"currency":"EUR","terms":["Līgums uz 24 mēnešiem","Jauniem. 4G internets par 16.99 EUR ar 12 mēn. līg., 22-2/2022/818"],"promotion":true,"contractTermMonths":24,"promotionCode":"PROMO_4G_INTERNET_24M_818"}],"scrapedAt":"2025-08-30T17:48:12.436Z","source":"api"}
{"id":"node/9887776036","address":"Varavīksnes iela 9, Straupciems, Salas pag., Mārupes nov.","properties":{"addr:street":"Varavīksnes iela","addr:housenumber":"9","addr:city":"Straupciems","addr:postcode":"LV-2105","addr:subdistrict":"Salas pagasts","addr:district":"Mārupes novads","addr:country":"LV","ref:LV:addr":"105675088"},"geometry":{"type":"Point","coordinates":[23.6532967,56.9244374]},"offers":[{"connectionType":"Mobile (4G/5G)","originalTitle":"Mobilais Internets","speed":null,"features":["4G un 5G bezvadu tehnoloģija;","bezmaksas iekārtas uz pakalpojuma lietošanas laiku;","neierobežots mobilo datu apjoms;","vienkārši uzstādīt un ērti paņemt līdzi."],"techInfo":null,"pricePerMonthEur":23.5,"currency":"EUR","terms":null,"promotion":false,"contractTermMonths":0,"promotionCode":null},{"connectionType":"Mobile (4G/5G)","originalTitle":"Mobilais Internets","speed":null,"features":["4G un 5G bezvadu tehnoloģija;","bezmaksas iekārtas uz pakalpojuma lietošanas laiku;","neierobežots mobilo datu apjoms;","vienkārši uzstādīt un ērti paņemt līdzi."],"techInfo":null,"pricePerMonthEur":17.5,"currency":"EUR","terms":["Līgums uz 24 mēnešiem","Jauniem. 4G internets par 16.99 EUR ar 12 mēn. līg., 22-2/2022/818"],"promotion":true,"contractTermMonths":24,"promotionCode":"PROMO_4G_INTERNET_24M_818"}],"scrapedAt":"2025-08-30T17:48:12.436Z","source":"api"}
{"id":"node/9887776035","address":"Varavīksnes iela 10, Straupciems, Salas pag., Mārupes nov.","properties":{"addr:street":"Varavīksnes iela","addr:housenumber":"10","addr:city":"Straupciems","addr:postcode":"LV-2105","addr:subdistrict":"Salas pagasts","addr:district":"Mārupes novads","addr:country":"LV","ref:LV:addr":"105675096"},"geometry":{"type":"Point","coordinates":[23.6527583,56.9249836]},"offers":[{"connectionType":"Mobile (4G/5G)","originalTitle":"Mobilais Internets","speed":null,"features":["4G un 5G bezvadu tehnoloģija;","bezmaksas iekārtas uz pakalpojuma lietošanas laiku;","neierobežots mobilo datu apjoms;","vienkārši uzstādīt un ērti paņemt līdzi."],"techInfo":null,"pricePerMonthEur":23.5,"currency":"EUR","terms":null,"promotion":false,"contractTermMonths":0,"promotionCode":null},{"connectionType":"Mobile (4G/5G)","originalTitle":"Mobilais Internets","speed":null,"features":["4G un 5G bezvadu tehnoloģija;","bezmaksas iekārtas uz pakalpojuma lietošanas laiku;","neierobežots mobilo datu apjoms;","vienkārši uzstādīt un ērti paņemt līdzi."],"techInfo":null,"pricePerMonthEur":17.5,"currency":"EUR","terms":["Līgums uz 24 mēnešiem","Jauniem. 4G internets par 16.99 EUR ar 12 mēn. līg., 22-2/2022/818"],"promotion":true,"contractTermMonths":24,"promotionCode":"PROMO_4G_INTERNET_24M_818"}],"scrapedAt":"2025-08-30T17:48:12.658Z","source":"api"}
{"id":"node/9887776034","address":"Varavīksnes iela 11, Straupciems, Salas pag., Mārupes nov.","properties":{"addr:street":"Varavīksnes iela","addr:housenumber":"11","addr:city":"Straupciems","addr:postcode":"LV-2105","addr:subdistrict":"Salas pagasts","addr:district":"Mārupes novads","addr:country":"LV","ref:LV:addr":"105675102"},"geometry":{"type":"Point","coordinates":[23.6528692,56.9244225]},"offers":[{"connectionType":"Mobile (4G/5G)","originalTitle":"Mobilais Internets","speed":null,"features":["4G un 5G bezvadu tehnoloģija;","bezmaksas iekārtas uz pakalpojuma lietošanas laiku;","neierobežots mobilo datu apjoms;","vienkārši uzstādīt un ērti paņemt līdzi."],"techInfo":null,"pricePerMonthEur":23.5,"currency":"EUR","terms":null,"promotion":false,"contractTermMonths":0,"promotionCode":null},{"connectionType":"Mobile (4G/5G)","originalTitle":"Mobilais Internets","speed":null,"features":["4G un 5G bezvadu tehnoloģija;","bezmaksas iekārtas uz pakalpojuma lietošanas laiku;","neierobežots mobilo datu apjoms;","vienkārši uzstādīt un ērti paņemt līdzi."],"techInfo":null,"pricePerMonthEur":17.5,"currency":"EUR","terms":["Līgums uz 24 mēnešiem","Jauniem. 4G internets par 16.99 EUR ar 12 mēn. līg., 22-2/2022/818"],"promotion":true,"contractTermMonths":24,"promotionCode":"PROMO_4G_INTERNET_24M_818"}],"scrapedAt":"2025-08-30T17:48:12.659Z","source":"api"}
{"id":"node/9887776040","address":"Varavīksnes iela 5, Straupciems, Salas pag., Mārupes nov.","properties":{"addr:street":"Varavīksnes iela","addr:housenumber":"5","addr:city":"Straupciems","addr:postcode":"LV-2105","addr:subdistrict":"Salas pagasts","addr:district":"Mārupes novads","addr:country":"LV","ref:LV:addr":"105675047"},"geometry":{"type":"Point","coordinates":[23.6539691,56.9240788]},"offers":[{"connectionType":"Mobile (4G/5G)","originalTitle":"Mobilais Internets","speed":null,"features":["4G un 5G bezvadu tehnoloģija;","bezmaksas iekārtas uz pakalpojuma lietošanas laiku;","neierobežots mobilo datu apjoms;","vienkārši uzstādīt un ērti paņemt līdzi."],"techInfo":null,"pricePerMonthEur":23.5,"currency":"EUR","terms":null,"promotion":false,"contractTermMonths":0,"promotionCode":null},{"connectionType":"Mobile (4G/5G)","originalTitle":"Mobilais Internets","speed":null,"features":["4G un 5G bezvadu tehnoloģija;","bezmaksas iekārtas uz pakalpojuma lietošanas laiku;","neierobežots mobilo datu apjoms;","vienkārši uzstādīt un ērti paņemt līdzi."],"techInfo":null,"pricePerMonthEur":17.5,"currency":"EUR","terms":["Līgums uz 24 mēnešiem","Jauniem. 4G internets par 16.99 EUR ar 12 mēn. līg., 22-2/2022/818"],"promotion":true,"contractTermMonths":24,"promotionCode":"PROMO_4G_INTERNET_24M_818"}],"scrapedAt":"2025-08-30T17:48:14.384Z","source":"api"}
{"id":"node/9887776042","address":"Varavīksnes iela 3, Straupciems, Salas pag., Mārupes nov.","properties":{"addr:street":"Varavīksnes iela","addr:housenumber":"3","addr:city":"Straupciems","addr:postcode":"LV-2105","addr:subdistrict":"Salas pagasts","addr:district":"Mārupes novads","addr:country":"LV","ref:LV:addr":"105675022"},"geometry":{"type":"Point","coordinates":[23.6552515,56.9241209]},"offers":[{"connectionType":"Mobile (4G/5G)","originalTitle":"Mobilais Internets","speed":null,"features":["4G un 5G bezvadu tehnoloģija;","bezmaksas iekārtas uz pakalpojuma lietošanas laiku;","neierobežots mobilo datu apjoms;","vienkārši uzstādīt un ērti paņemt līdzi."],"techInfo":null,"pricePerMonthEur":23.5,"currency":"EUR","terms":null,"promotion":false,"contractTermMonths":0,"promotionCode":null},{"connectionType":"Mobile (4G/5G)","originalTitle":"Mobilais Internets","speed":null,"features":["4G un 5G bezvadu tehnoloģija;","bezmaksas iekārtas uz pakalpojuma lietošanas laiku;","neierobežots mobilo datu apjoms;","vienkārši uzstādīt un ērti paņemt līdzi."],"techInfo":null,"pricePerMonthEur":17.5,"currency":"EUR","terms":["Līgums uz 24 mēnešiem","Jauniem. 4G internets par 16.99 EUR ar 12 mēn. līg., 22-2/2022/818"],"promotion":true,"contractTermMonths":24,"promotionCode":"PROMO_4G_INTERNET_24M_818"}],"scrapedAt":"2025-08-30T17:48:14.622Z","source":"api"}
{"id":"node/9887776038","address":"Varavīksnes iela 7, Straupciems, Salas pag., Mārupes nov.","properties":{"addr:street":"Varavīksnes iela","addr:housenumber":"7","addr:city":"Straupciems","addr:postcode":"LV-2105","addr:subdistrict":"Salas pagasts","addr:district":"Mārupes novads","addr:country":"LV","ref:LV:addr":"105675063"},"geometry":{"type":"Point","coordinates":[23.6541204,56.9245746]},"offers":[{"connectionType":"Mobile (4G/5G)","originalTitle":"Mobilais Internets","speed":null,"features":["4G un 5G bezvadu tehnoloģija;","bezmaksas iekārtas uz pakalpojuma lietošanas laiku;","neierobežots mobilo datu apjoms;","vienkārši uzstādīt un ērti paņemt līdzi."],"techInfo":null,"pricePerMonthEur":23.5,"currency":"EUR","terms":null,"promotion":false,"contractTermMonths":0,"promotionCode":null},{"connectionType":"Mobile (4G/5G)","originalTitle":"Mobilais Internets","speed":null,"features":["4G un 5G bezvadu tehnoloģija;","bezmaksas iekārtas uz pakalpojuma lietošanas laiku;","neierobežots mobilo datu apjoms;","vienkārši uzstādīt un ērti paņemt līdzi."],"techInfo":null,"pricePerMonthEur":17.5,"currency":"EUR","terms":["Līgums uz 24 mēnešiem","Jauniem. 4G internets par 16.99 EUR ar 12 mēn. līg., 22-2/2022/818"],"promotion":true,"contractTermMonths":24,"promotionCode":"PROMO_4G_INTERNET_24M_818"}],"scrapedAt":"2025-08-30T17:48:14.882Z","source":"api"}
{"id":"node/9887776041","address":"Varavīksnes iela 4, Straupciems, Salas pag., Mārupes nov.","properties":{"addr:street":"Varavīksnes iela","addr:housenumber":"4","addr:city":"Straupciems","addr:postcode":"LV-2105","addr:subdistrict":"Salas pagasts","addr:district":"Mārupes novads","addr:country":"LV","ref:LV:addr":"105675030"},"geometry":{"type":"Point","coordinates":[23.6545585,56.9250766]},"offers":[{"connectionType":"Mobile (4G/5G)","originalTitle":"Mobilais Internets","speed":null,"features":["4G un 5G bezvadu tehnoloģija;","bezmaksas iekārtas uz pakalpojuma lietošanas laiku;","neierobežots mobilo datu apjoms;","vienkārši uzstādīt un ērti paņemt līdzi."],"techInfo":null,"pricePerMonthEur":23.5,"currency":"EUR","terms":null,"promotion":false,"contractTermMonths":0,"promotionCode":null},{"connectionType":"Mobile (4G/5G)","originalTitle":"Mobilais Internets","speed":null,"features":["4G un 5G bezvadu tehnoloģija;","bezmaksas iekārtas uz pakalpojuma lietošanas laiku;","neierobežots mobilo datu apjoms;","vienkārši uzstādīt un ērti paņemt līdzi."],"techInfo":null,"pricePerMonthEur":17.5,"currency":"EUR","terms":["Līgums uz 24 mēnešiem","Jauniem. 4G internets par 16.99 EUR ar 12 mēn. līg., 22-2/2022/818"],"promotion":true,"contractTermMonths":24,"promotionCode":"PROMO_4G_INTERNET_24M_818"}],"scrapedAt":"2025-08-30T17:48:14.883Z","source":"api"}
{"id":"node/9887776039","address":"Varavīksnes iela 6, Straupciems, Salas pag., Mārupes nov.","properties":{"addr:street":"Varavīksnes iela","addr:housenumber":"6","addr:city":"Straupciems","addr:postcode":"LV-2105","addr:subdistrict":"Salas pagasts","addr:district":"Mārupes novads","addr:country":"LV","ref:LV:addr":"105675055"},"geometry":{"type":"Point","coordinates":[23.6539051,56.9250143]},"offers":[{"connectionType":"Mobile (4G/5G)","originalTitle":"Mobilais Internets","speed":null,"features":["4G un 5G bezvadu tehnoloģija;","bezmaksas iekārtas uz pakalpojuma lietošanas laiku;","neierobežots mobilo datu apjoms;","vienkārši uzstādīt un ērti paņemt līdzi."],"techInfo":null,"pricePerMonthEur":23.5,"currency":"EUR","terms":null,"promotion":false,"contractTermMonths":0,"promotionCode":null},{"connectionType":"Mobile (4G/5G)","originalTitle":"Mobilais Internets","speed":null,"features":["4G un 5G bezvadu tehnoloģija;","bezmaksas iekārtas uz pakalpojuma lietošanas laiku;","neierobežots mobilo datu apjoms;","vienkārši uzstādīt un ērti paņemt līdzi."],"techInfo":null,"pricePerMonthEur":17.5,"currency":"EUR","terms":["Līgums uz 24 mēnešiem","Jauniem. 4G internets par 16.99 EUR ar 12 mēn. līg., 22-2/2022/818"],"promotion":true,"contractTermMonths":24,"promotionCode":"PROMO_4G_INTERNET_24M_818"}],"scrapedAt":"2025-08-30T17:48:14.896Z","source":"api"}
{"id":"node/9887776046","address":"Debess iela 2, Straupciems, Salas pag., Mārupes nov.","properties":{"addr:street":"Debess iela","addr:housenumber":"2","addr:city":"Straupciems","addr:postcode":"LV-2105","addr:subdistrict":"Salas pagasts","addr:district":"Mārupes novads","addr:country":"LV","ref:LV:addr":"105674904"},"geometry":{"type":"Point","coordinates":[23.6554142,56.9261165]},"offers":[{"connectionType":"Mobile (4G/5G)","originalTitle":"Mobilais Internets","speed":null,"features":["4G un 5G bezvadu tehnoloģija;","bezmaksas iekārtas uz pakalpojuma lietošanas laiku;","neierobežots mobilo datu apjoms;","vienkārši uzstādīt un ērti paņemt līdzi."],"techInfo":null,"pricePerMonthEur":23.5,"currency":"EUR","terms":null,"promotion":false,"contractTermMonths":0,"promotionCode":null},{"connectionType":"Mobile (4G/5G)","originalTitle":"Mobilais Internets","speed":null,"features":["4G un 5G bezvadu tehnoloģija;","bezmaksas iekārtas uz pakalpojuma lietošanas laiku;","neierobežots mobilo datu apjoms;","vienkārši uzstādīt un ērti paņemt līdzi."],"techInfo":null,"pricePerMonthEur":17.5,"currency":"EUR","terms":["Līgums uz 24 mēnešiem","Jauniem. 4G internets par 16.99 EUR ar 12 mēn. līg., 22-2/2022/818"],"promotion":true,"contractTermMonths":24,"promotionCode":"PROMO_4G_INTERNET_24M_818"}],"scrapedAt":"2025-08-30T17:48:16.537Z","source":"api"}
{"id":"node/9887776043","address":"Varavīksnes iela 2, Straupciems, Salas pag., Mārupes nov.","properties":{"addr:street":"Varavīksnes iela","addr:housenumber":"2","addr:city":"Straupciems","addr:postcode":"LV-2105","addr:subdistrict":"Salas pagasts","addr:district":"Mārupes novads","addr:country":"LV","ref:LV:addr":"105675014"},"geometry":{"type":"Point","coordinates":[23.6552322,56.9251253]},"offers":[{"connectionType":"Mobile (4G/5G)","originalTitle":"Mobilais Internets","speed":null,"features":["4G un 5G bezvadu tehnoloģija;","bezmaksas iekārtas uz pakalpojuma lietošanas laiku;","neierobežots mobilo datu apjoms;","vienkārši uzstādīt un ērti paņemt līdzi."],"techInfo":null,"pricePerMonthEur":23.5,"currency":"EUR","terms":null,"promotion":false,"contractTermMonths":0,"promotionCode":null},{"connectionType":"Mobile (4G/5G)","originalTitle":"Mobilais Internets","speed":null,"features":["4G un 5G bezvadu tehnoloģija;","bezmaksas iekārtas uz pakalpojuma lietošanas laiku;","neierobežots mobilo datu apjoms;","vienkārši uzstādīt un ērti paņemt līdzi."],"techInfo":null,"pricePerMonthEur":17.5,"currency":"EUR","terms":["Līgums uz 24 mēnešiem","Jauniem. 4G internets par 16.99 EUR ar 12 mēn. līg., 22-2/2022/818"],"promotion":true,"contractTermMonths":24,"promotionCode":"PROMO_4G_INTERNET_24M_818"}],"scrapedAt":"2025-08-30T17:48:16.807Z","source":"api"}
{"id":"node/9887776047","address":"Debess iela 1, Straupciems, Salas pag., Mārupes nov.","properties":{"addr:street":"Debess iela","addr:housenumber":"1","addr:city":"Straupciems","addr:postcode":"LV-2105","addr:subdistrict":"Salas pagasts","addr:district":"Mārupes novads","addr:country":"LV","ref:LV:addr":"105674898"},"geometry":{"type":"Point","coordinates":[23.6553386,56.9255796]},"offers":[{"connectionType":"Mobile (4G/5G)","originalTitle":"Mobilais Internets","speed":null,"features":["4G un 5G bezvadu tehnoloģija;","bezmaksas iekārtas uz pakalpojuma lietošanas laiku;","neierobežots mobilo datu apjoms;","vienkārši uzstādīt un ērti paņemt līdzi."],"techInfo":null,"pricePerMonthEur":23.5,"currency":"EUR","terms":null,"promotion":false,"contractTermMonths":0,"promotionCode":null},{"connectionType":"Mobile (4G/5G)","originalTitle":"Mobilais Internets","speed":null,"features":["4G un 5G bezvadu tehnoloģija;","bezmaksas iekārtas uz pakalpojuma lietošanas laiku;","neierobežots mobilo datu apjoms;","vienkārši uzstādīt un ērti paņemt līdzi."],"techInfo":null,"pricePerMonthEur":17.5,"currency":"EUR","terms":["Līgums uz 24 mēnešiem","Jauniem. 4G internets par 16.99 EUR ar 12 mēn. līg., 22-2/2022/818"],"promotion":true,"contractTermMonths":24,"promotionCode":"PROMO_4G_INTERNET_24M_818"}],"scrapedAt":"2025-08-30T17:48:17.019Z","source":"api"}
{"id":"node/9887776045","address":"Debess iela 3, Straupciems, Salas pag., Mārupes nov.","properties":{"addr:street":"Debess iela","addr:housenumber":"3","addr:city":"Straupciems","addr:postcode":"LV-2105","addr:subdistrict":"Salas pagasts","addr:district":"Mārupes novads","addr:country":"LV","ref:LV:addr":"105674912"},"geometry":{"type":"Point","coordinates":[23.6545847,56.9255088]},"offers":[{"connectionType":"Mobile (4G/5G)","originalTitle":"Mobilais Internets","speed":null,"features":["4G un 5G bezvadu tehnoloģija;","bezmaksas iekārtas uz pakalpojuma lietošanas laiku;","neierobežots mobilo datu apjoms;","vienkārši uzstādīt un ērti paņemt līdzi."],"techInfo":null,"pricePerMonthEur":23.5,"currency":"EUR","terms":null,"promotion":false,"contractTermMonths":0,"promotionCode":null},{"connectionType":"Mobile (4G/5G)","originalTitle":"Mobilais Internets","speed":null,"features":["4G un 5G bezvadu tehnoloģija;","bezmaksas iekārtas uz pakalpojuma lietošanas laiku;","neierobežots mobilo datu apjoms;","vienkārši uzstādīt un ērti paņemt līdzi."],"techInfo":null,"pricePerMonthEur":17.5,"currency":"EUR","terms":["Līgums uz 24 mēnešiem","Jauniem. 4G internets par 16.99 EUR ar 12 mēn. līg., 22-2/2022/818"],"promotion":true,"contractTermMonths":24,"promotionCode":"PROMO_4G_INTERNET_24M_818"}],"scrapedAt":"2025-08-30T17:48:17.019Z","source":"api"}
{"id":"node/9887776044","address":"Varavīksnes iela 1, Straupciems, Salas pag., Mārupes nov.","properties":{"addr:street":"Varavīksnes iela","addr:housenumber":"1","addr:city":"Straupciems","addr:postcode":"LV-2105","addr:subdistrict":"Salas pagasts","addr:district":"Mārupes novads","addr:country":"LV","ref:LV:addr":"105675006"},"geometry":{"type":"Point","coordinates":[23.6552013,56.9246601]},"offers":[{"connectionType":"Mobile (4G/5G)","originalTitle":"Mobilais Internets","speed":null,"features":["4G un 5G bezvadu tehnoloģija;","bezmaksas iekārtas uz pakalpojuma lietošanas laiku;","neierobežots mobilo datu apjoms;","vienkārši uzstādīt un ērti paņemt līdzi."],"techInfo":null,"pricePerMonthEur":23.5,"currency":"EUR","terms":null,"promotion":false,"contractTermMonths":0,"promotionCode":null},{"connectionType":"Mobile (4G/5G)","originalTitle":"Mobilais Internets","speed":null,"features":["4G un 5G bezvadu tehnoloģija;","bezmaksas iekārtas uz pakalpojuma lietošanas laiku;","neierobežots mobilo datu apjoms;","vienkārši uzstādīt un ērti paņemt līdzi."],"techInfo":null,"pricePerMonthEur":17.5,"currency":"EUR","terms":["Līgums uz 24 mēnešiem","Jauniem. 4G internets par 16.99 EUR ar 12 mēn. līg., 22-2/2022/818"],"promotion":true,"contractTermMonths":24,"promotionCode":"PROMO_4G_INTERNET_24M_818"}],"scrapedAt":"2025-08-30T17:48:17.247Z","source":"api"}
{"id":"node/9887776049","address":"Debess iela 10, Straupciems, Salas pag., Mārupes nov.","properties":{"addr:street":"Debess iela","addr:housenumber":"10","addr:city":"Straupciems","addr:postcode":"LV-2105","addr:subdistrict":"Salas pagasts","addr:district":"Mārupes novads","addr:country":"LV","ref:LV:addr":"105674986"},"geometry":{"type":"Point","coordinates":[23.6532074,56.9259287]},"offers":[{"connectionType":"Mobile (4G/5G)","originalTitle":"Mobilais Internets","speed":null,"features":["4G un 5G bezvadu tehnoloģija;","bezmaksas iekārtas uz pakalpojuma lietošanas laiku;","neierobežots mobilo datu apjoms;","vienkārši uzstādīt un ērti paņemt līdzi."],"techInfo":null,"pricePerMonthEur":23.5,"currency":"EUR","terms":null,"promotion":false,"contractTermMonths":0,"promotionCode":null},{"connectionType":"Mobile (4G/5G)","originalTitle":"Mobilais Internets","speed":null,"features":["4G un 5G bezvadu tehnoloģija;","bezmaksas iekārtas uz pakalpojuma lietošanas laiku;","neierobežots mobilo datu apjoms;","vienkārši uzstādīt un ērti paņemt līdzi."],"techInfo":null,"pricePerMonthEur":17.5,"currency":"EUR","terms":["Līgums uz 24 mēnešiem","Jauniem. 4G internets par 16.99 EUR ar 12 mēn. līg., 22-2/2022/818"],"promotion":true,"contractTermMonths":24,"promotionCode":"PROMO_4G_INTERNET_24M_818"}],"scrapedAt":"2025-08-30T17:48:18.747Z","source":"api"}
{"id":"node/9887776050","address":"Debess iela 9, Straupciems, Salas pag., Mārupes nov.","properties":{"addr:street":"Debess iela","addr:housenumber":"9","addr:city":"Straupciems","addr:postcode":"LV-2105","addr:subdistrict":"Salas pagasts","addr:district":"Mārupes novads","addr:country":"LV","ref:LV:addr":"105674978"},"geometry":{"type":"Point","coordinates":[23.652699,56.92541]},"offers":[{"connectionType":"Mobile (4G/5G)","originalTitle":"Mobilais Internets","speed":null,"features":["4G un 5G bezvadu tehnoloģija;","bezmaksas iekārtas uz pakalpojuma lietošanas laiku;","neierobežots mobilo datu apjoms;","vienkārši uzstādīt un ērti paņemt līdzi."],"techInfo":null,"pricePerMonthEur":23.5,"currency":"EUR","terms":null,"promotion":false,"contractTermMonths":0,"promotionCode":null},{"connectionType":"Mobile (4G/5G)","originalTitle":"Mobilais Internets","speed":null,"features":["4G un 5G bezvadu tehnoloģija;","bezmaksas iekārtas uz pakalpojuma lietošanas laiku;","neierobežots mobilo datu apjoms;","vienkārši uzstādīt un ērti paņemt līdzi."],"techInfo":null,"pricePerMonthEur":17.5,"currency":"EUR","terms":["Līgums uz 24 mēnešiem","Jauniem. 4G internets par 16.99 EUR ar 12 mēn. līg., 22-2/2022/818"],"promotion":true,"contractTermMonths":24,"promotionCode":"PROMO_4G_INTERNET_24M_818"}],"scrapedAt":"2025-08-30T17:48:18.955Z","source":"api"}
{"id":"node/9887776051","address":"Debess iela 8, Straupciems, Salas pag., Mārupes nov.","properties":{"addr:street":"Debess iela","addr:housenumber":"8","addr:city":"Straupciems","addr:postcode":"LV-2105","addr:subdistrict":"Salas pagasts","addr:district":"Mārupes novads","addr:country":"LV","ref:LV:addr":"105674961"},"geometry":{"type":"Point","coordinates":[23.6538047,56.9260707]},"offers":[{"connectionType":"Mobile (4G/5G)","originalTitle":"Mobilais Internets","speed":null,"features":["4G un 5G bezvadu tehnoloģija;","bezmaksas iekārtas uz pakalpojuma lietošanas laiku;","neierobežots mobilo datu apjoms;","vienkārši uzstādīt un ērti paņemt līdzi."],"techInfo":null,"pricePerMonthEur":23.5,"currency":"EUR","terms":null,"promotion":false,"contractTermMonths":0,"promotionCode":null},{"connectionType":"Mobile (4G/5G)","originalTitle":"Mobilais Internets","speed":null,"features":["4G un 5G bezvadu tehnoloģija;","bezmaksas iekārtas uz pakalpojuma lietošanas laiku;","neierobežots mobilo datu apjoms;","vienkārši uzstādīt un ērti paņemt līdzi."],"techInfo":null,"pricePerMonthEur":17.5,"currency":"EUR","terms":["Līgums uz 24 mēnešiem","Jauniem. 4G internets par 16.99 EUR ar 12 mēn. līg., 22-2/2022/818"],"promotion":true,"contractTermMonths":24,"promotionCode":"PROMO_4G_INTERNET_24M_818"}],"scrapedAt":"2025-08-30T17:48:19.182Z","source":"api"}
{"id":"node/9887776052","address":"Debess iela 7, Straupciems, Salas pag., Mārupes nov.","properties":{"addr:street":"Debess iela","addr:housenumber":"7","addr:city":"Straupciems","addr:postcode":"LV-2105","addr:subdistrict":"Salas pagasts","addr:district":"Mārupes novads","addr:country":"LV","ref:LV:addr":"105674953"},"geometry":{"type":"Point","coordinates":[23.6532621,56.9254556]},"offers":[{"connectionType":"Mobile (4G/5G)","originalTitle":"Mobilais Internets","speed":null,"features":["4G un 5G bezvadu tehnoloģija;","bezmaksas iekārtas uz pakalpojuma lietošanas laiku;","neierobežots mobilo datu apjoms;","vienkārši uzstādīt un ērti paņemt līdzi."],"techInfo":null,"pricePerMonthEur":23.5,"currency":"EUR","terms":null,"promotion":false,"contractTermMonths":0,"promotionCode":null},{"connectionType":"Mobile (4G/5G)","originalTitle":"Mobilais Internets","speed":null,"features":["4G un 5G bezvadu tehnoloģija;","bezmaksas iekārtas uz pakalpojuma lietošanas laiku;","neierobežots mobilo datu apjoms;","vienkārši uzstādīt un ērti paņemt līdzi."],"techInfo":null,"pricePerMonthEur":17.5,"currency":"EUR","terms":["Līgums uz 24 mēnešiem","Jauniem. 4G internets par 16.99 EUR ar 12 mēn. līg., 22-2/2022/818"],"promotion":true,"contractTermMonths":24,"promotionCode":"PROMO_4G_INTERNET_24M_818"}],"scrapedAt":"2025-08-30T17:48:19.413Z","source":"api"}
{"id":"node/9887776048","address":"Debess iela 12, Straupciems, Salas pag., Mārupes nov.","properties":{"addr:street":"Debess iela","addr:housenumber":"12","addr:city":"Straupciems","addr:postcode":"LV-2105","addr:subdistrict":"Salas pagasts","addr:district":"Mārupes novads","addr:country":"LV","ref:LV:addr":"105674994"},"geometry":{"type":"Point","coordinates":[23.6526391,56.9259024]},"offers":[{"connectionType":"Mobile (4G/5G)","originalTitle":"Mobilais Internets","speed":null,"features":["4G un 5G bezvadu tehnoloģija;","bezmaksas iekārtas uz pakalpojuma lietošanas laiku;","neierobežots mobilo datu apjoms;","vienkārši uzstādīt un ērti paņemt līdzi."],"techInfo":null,"pricePerMonthEur":23.5,"currency":"EUR","terms":null,"promotion":false,"contractTermMonths":0,"promotionCode":null},{"connectionType":"Mobile (4G/5G)","originalTitle":"Mobilais Internets","speed":null,"features":["4G un 5G bezvadu tehnoloģija;","bezmaksas iekārtas uz pakalpojuma lietošanas laiku;","neierobežots mobilo datu apjoms;","vienkārši uzstādīt un ērti paņemt līdzi."],"techInfo":null,"pricePerMonthEur":17.5,"currency":"EUR","terms":["Līgums uz 24 mēnešiem","Jauniem. 4G internets par 16.99 EUR ar 12 mēn. līg., 22-2/2022/818"],"promotion":true,"contractTermMonths":24,"promotionCode":"PROMO_4G_INTERNET_24M_818"}],"scrapedAt":"2025-08-30T17:48:19.413Z","source":"api"}
{"id":"node/9887776054","address":"Debess iela 5, Straupciems, Salas pag., Mārupes nov.","properties":{"addr:street":"Debess iela","addr:housenumber":"5","addr:city":"Straupciems","addr:postcode":"LV-2105","addr:subdistrict":"Salas pagasts","addr:district":"Mārupes novads","addr:country":"LV","ref:LV:addr":"105674937"},"geometry":{"type":"Point","coordinates":[23.6538856,56.9254821]},"offers":[{"connectionType":"Mobile (4G/5G)","originalTitle":"Mobilais Internets","speed":null,"features":["4G un 5G bezvadu tehnoloģija;","bezmaksas iekārtas uz pakalpojuma lietošanas laiku;","neierobežots mobilo datu apjoms;","vienkārši uzstādīt un ērti paņemt līdzi."],"techInfo":null,"pricePerMonthEur":23.5,"currency":"EUR","terms":null,"promotion":false,"contractTermMonths":0,"promotionCode":null},{"connectionType":"Mobile (4G/5G)","originalTitle":"Mobilais Internets","speed":null,"features":["4G un 5G bezvadu tehnoloģija;","bezmaksas iekārtas uz pakalpojuma lietošanas laiku;","neierobežots mobilo datu apjoms;","vienkārši uzstādīt un ērti paņemt līdzi."],"techInfo":null,"pricePerMonthEur":17.5,"currency":"EUR","terms":["Līgums uz 24 mēnešiem","Jauniem. 4G internets par 16.99 EUR ar 12 mēn. līg., 22-2/2022/818"],"promotion":true,"contractTermMonths":24,"promotionCode":"PROMO_4G_INTERNET_24M_818"}],"scrapedAt":"2025-08-30T17:48:20.862Z","source":"api"}
{"id":"node/9887776055","address":"Debess iela 4, Straupciems, Salas pag., Mārupes nov.","properties":{"addr:street":"Debess iela","addr:housenumber":"4","addr:city":"Straupciems","addr:postcode":"LV-2105","addr:subdistrict":"Salas pagasts","addr:district":"Mārupes novads","addr:country":"LV","ref:LV:addr":"105674920"},"geometry":{"type":"Point","coordinates":[23.6548061,56.9260515]},"offers":[{"connectionType":"Mobile (4G/5G)","originalTitle":"Mobilais Internets","speed":null,"features":["4G un 5G bezvadu tehnoloģija;","bezmaksas iekārtas uz pakalpojuma lietošanas laiku;","neierobežots mobilo datu apjoms;","vienkārši uzstādīt un ērti paņemt līdzi."],"techInfo":null,"pricePerMonthEur":23.5,"currency":"EUR","terms":null,"promotion":false,"contractTermMonths":0,"promotionCode":null},{"connectionType":"Mobile (4G/5G)","originalTitle":"Mobilais Internets","speed":null,"features":["4G un 5G bezvadu tehnoloģija;","bezmaksas iekārtas uz pakalpojuma lietošanas laiku;","neierobežots mobilo datu apjoms;","vienkārši uzstādīt un ērti paņemt līdzi."],"techInfo":null,"pricePerMonthEur":17.5,"currency":"EUR","terms":["Līgums uz 24 mēnešiem","Jauniem. 4G internets par 16.99 EUR ar 12 mēn. līg., 22-2/2022/818"],"promotion":true,"contractTermMonths":24,"promotionCode":"PROMO_4G_INTERNET_24M_818"}],"scrapedAt":"2025-08-30T17:48:21.076Z","source":"api"}
{"id":"node/9887776056","address":"Saules iela 16, Straupciems, Salas pag., Mārupes nov.","properties":{"addr:street":"Saules iela","addr:housenumber":"16","addr:city":"Straupciems","addr:postcode":"LV-2105","addr:subdistrict":"Salas pagasts","addr:district":"Mārupes novads","addr:country":"LV","ref:LV:addr":"105674391"},"geometry":{"type":"Point","coordinates":[23.6508622,56.9281596]},"offers":[{"connectionType":"Mobile (4G/5G)","originalTitle":"Mobilais Internets","speed":null,"features":["4G un 5G bezvadu tehnoloģija;","bezmaksas iekārtas uz pakalpojuma lietošanas laiku;","neierobežots mobilo datu apjoms;","vienkārši uzstādīt un ērti paņemt līdzi."],"techInfo":null,"pricePerMonthEur":23.5,"currency":"EUR","terms":null,"promotion":false,"contractTermMonths":0,"promotionCode":null},{"connectionType":"Mobile (4G/5G)","originalTitle":"Mobilais Internets","speed":null,"features":["4G un 5G bezvadu tehnoloģija;","bezmaksas iekārtas uz pakalpojuma lietošanas laiku;","neierobežots mobilo datu apjoms;","vienkārši uzstādīt un ērti paņemt līdzi."],"techInfo":null,"pricePerMonthEur":17.5,"currency":"EUR","terms":["Līgums uz 24 mēnešiem","Jauniem. 4G internets par 16.99 EUR ar 12 mēn. līg., 22-2/2022/818"],"promotion":true,"contractTermMonths":24,"promotionCode":"PROMO_4G_INTERNET_24M_818"}],"scrapedAt":"2025-08-30T17:48:21.076Z","source":"api"}
{"id":"node/9887776053","address":"Debess iela 6, Straupciems, Salas pag., Mārupes nov.","properties":{"addr:street":"Debess iela","addr:housenumber":"6","addr:city":"Straupciems","addr:postcode":"LV-2105","addr:subdistrict":"Salas pagasts","addr:district":"Mārupes novads","addr:country":"LV","ref:LV:addr":"105674945"},"geometry":{"type":"Point","coordinates":[23.6542823,56.9261133]},"offers":[{"connectionType":"Mobile (4G/5G)","originalTitle":"Mobilais Internets","speed":null,"features":["4G un 5G bezvadu tehnoloģija;","bezmaksas iekārtas uz pakalpojuma lietošanas laiku;","neierobežots mobilo datu apjoms;","vienkārši uzstādīt un ērti paņemt līdzi."],"techInfo":null,"pricePerMonthEur":23.5,"currency":"EUR","terms":null,"promotion":false,"contractTermMonths":0,"promotionCode":null},{"connectionType":"Mobile (4G/5G)","originalTitle":"Mobilais Internets","speed":null,"features":["4G un 5G bezvadu tehnoloģija;","bezmaksas iekārtas uz pakalpojuma lietošanas laiku;","neierobežots mobilo datu apjoms;","vienkārši uzstādīt un ērti paņemt līdzi."],"techInfo":null,"pricePerMonthEur":17.5,"currency":"EUR","terms":["Līgums uz 24 mēnešiem","Jauniem. 4G internets par 16.99 EUR ar 12 mēn. līg., 22-2/2022/818"],"promotion":true,"contractTermMonths":24,"promotionCode":"PROMO_4G_INTERNET_24M_818"}],"scrapedAt":"2025-08-30T17:48:21.310Z","source":"api"}
{"id":"node/9887776057","address":"Saules iela 15, Straupciems, Salas pag., Mārupes nov.","properties":{"addr:street":"Saules iela","addr:housenumber":"15","addr:city":"Straupciems","addr:postcode":"LV-2105","addr:subdistrict":"Salas pagasts","addr:district":"Mārupes novads","addr:country":"LV","ref:LV:addr":"105674383"},"geometry":{"type":"Point","coordinates":[23.6518962,56.9273396]},"offers":[{"connectionType":"Mobile (4G/5G)","originalTitle":"Mobilais Internets","speed":null,"features":["4G un 5G bezvadu tehnoloģija;","bezmaksas iekārtas uz pakalpojuma lietošanas laiku;","neierobežots mobilo datu apjoms;","vienkārši uzstādīt un ērti paņemt līdzi."],"techInfo":null,"pricePerMonthEur":23.5,"currency":"EUR","terms":null,"promotion":false,"contractTermMonths":0,"promotionCode":null},{"connectionType":"Mobile (4G/5G)","originalTitle":"Mobilais Internets","speed":null,"features":["4G un 5G bezvadu tehnoloģija;","bezmaksas iekārtas uz pakalpojuma lietošanas laiku;","neierobežots mobilo datu apjoms;","vienkārši uzstādīt un ērti paņemt līdzi."],"techInfo":null,"pricePerMonthEur":17.5,"currency":"EUR","terms":["Līgums uz 24 mēnešiem","Jauniem. 4G internets par 16.99 EUR ar 12 mēn. līg., 22-2/2022/818"],"promotion":true,"contractTermMonths":24,"promotionCode":"PROMO_4G_INTERNET_24M_818"}],"scrapedAt":"2025-08-30T17:48:21.311Z","source":"api"}
{"id":"node/9887776060","address":"Saules iela 12, Straupciems, Salas pag., Mārupes nov.","properties":{"addr:street":"Saules iela","addr:housenumber":"12","addr:city":"Straupciems","addr:postcode":"LV-2105","addr:subdistrict":"Salas pagasts","addr:district":"Mārupes novads","addr:country":"LV","ref:LV:addr":"105674350"},"geometry":{"type":"Point","coordinates":[23.6522629,56.9279433]},"offers":[{"connectionType":"Mobile (4G/5G)","originalTitle":"Mobilais Internets","speed":null,"features":["4G un 5G bezvadu tehnoloģija;","bezmaksas iekārtas uz pakalpojuma lietošanas laiku;","neierobežots mobilo datu apjoms;","vienkārši uzstādīt un ērti paņemt līdzi."],"techInfo":null,"pricePerMonthEur":23.5,"currency":"EUR","terms":null,"promotion":false,"contractTermMonths":0,"promotionCode":null},{"connectionType":"Mobile (4G/5G)","originalTitle":"Mobilais Internets","speed":null,"features":["4G un 5G bezvadu tehnoloģija;","bezmaksas iekārtas uz pakalpojuma lietošanas laiku;","neierobežots mobilo datu apjoms;","vienkārši uzstādīt un ērti paņemt līdzi."],"techInfo":null,"pricePerMonthEur":17.5,"currency":"EUR","terms":["Līgums uz 24 mēnešiem","Jauniem. 4G internets par 16.99 EUR ar 12 mēn. līg., 22-2/2022/818"],"promotion":true,"contractTermMonths":24,"promotionCode":"PROMO_4G_INTERNET_24M_818"}],"scrapedAt":"2025-08-30T17:48:22.966Z","source":"api"}
{"id":"node/9887776061","address":"Saules iela 11, Straupciems, Salas pag., Mārupes nov.","properties":{"addr:street":"Saules iela","addr:housenumber":"11","addr:city":"Straupciems","addr:postcode":"LV-2105","addr:subdistrict":"Salas pagasts","addr:district":"Mārupes novads","addr:country":"LV","ref:LV:addr":"105674342"},"geometry":{"type":"Point","coordinates":[23.6531116,56.9270293]},"offers":[{"connectionType":"Mobile (4G/5G)","originalTitle":"Mobilais Internets","speed":null,"features":["4G un 5G bezvadu tehnoloģija;","bezmaksas iekārtas uz pakalpojuma lietošanas laiku;","neierobežots mobilo datu apjoms;","vienkārši uzstādīt un ērti paņemt līdzi."],"techInfo":null,"pricePerMonthEur":23.5,"currency":"EUR","terms":null,"promotion":false,"contractTermMonths":0,"promotionCode":null},{"connectionType":"Mobile (4G/5G)","originalTitle":"Mobilais Internets","speed":null,"features":["4G un 5G bezvadu tehnoloģija;","bezmaksas iekārtas uz pakalpojuma lietošanas laiku;","neierobežots mobilo datu apjoms;","vienkārši uzstādīt un ērti paņemt līdzi."],"techInfo":null,"pricePerMonthEur":17.5,"currency":"EUR","terms":["Līgums uz 24 mēnešiem","Jauniem. 4G internets par 16.99 EUR ar 12 mēn. līg., 22-2/2022/818"],"promotion":true,"contractTermMonths":24,"promotionCode":"PROMO_4G_INTERNET_24M_818"}],"scrapedAt":"2025-08-30T17:48:23.180Z","source":"api"}
{"id":"node/9887776059","address":"Saules iela 13, Straupciems, Salas pag., Mārupes nov.","properties":{"addr:street":"Saules iela","addr:housenumber":"13","addr:city":"Straupciems","addr:postcode":"LV-2105","addr:subdistrict":"Salas pagasts","addr:district":"Mārupes novads","addr:country":"LV","ref:LV:addr":"105674367"},"geometry":{"type":"Point","coordinates":[23.6524017,56.9270824]},"offers":[{"connectionType":"Mobile (4G/5G)","originalTitle":"Mobilais Internets","speed":null,"features":["4G un 5G bezvadu tehnoloģija;","bezmaksas iekārtas uz pakalpojuma lietošanas laiku;","neierobežots mobilo datu apjoms;","vienkārši uzstādīt un ērti paņemt līdzi."],"techInfo":null,"pricePerMonthEur":23.5,"currency":"EUR","terms":null,"promotion":false,"contractTermMonths":0,"promotionCode":null},{"connectionType":"Mobile (4G/5G)","originalTitle":"Mobilais Internets","speed":null,"features":["4G un 5G bezvadu tehnoloģija;","bezmaksas iekārtas uz pakalpojuma lietošanas laiku;","neierobežots mobilo datu apjoms;","vienkārši uzstādīt un ērti paņemt līdzi."],"techInfo":null,"pricePerMonthEur":17.5,"currency":"EUR","terms":["Līgums uz 24 mēnešiem","Jauniem. 4G internets par 16.99 EUR ar 12 mēn. līg., 22-2/2022/818"],"promotion":true,"contractTermMonths":24,"promotionCode":"PROMO_4G_INTERNET_24M_818"}],"scrapedAt":"2025-08-30T17:48:23.408Z","source":"api"}
{"id":"node/9887776058","address":"Saules iela 14, Straupciems, Salas pag., Mārupes nov.","properties":{"addr:street":"Saules iela","addr:housenumber":"14","addr:city":"Straupciems","addr:postcode":"LV-2105","addr:subdistrict":"Salas pagasts","addr:district":"Mārupes novads","addr:country":"LV","ref:LV:addr":"105674375"},"geometry":{"type":"Point","coordinates":[23.651573,56.9280102]},"offers":[{"connectionType":"Mobile (4G/5G)","originalTitle":"Mobilais Internets","speed":null,"features":["4G un 5G bezvadu tehnoloģija;","bezmaksas iekārtas uz pakalpojuma lietošanas laiku;","neierobežots mobilo datu apjoms;","vienkārši uzstādīt un ērti paņemt līdzi."],"techInfo":null,"pricePerMonthEur":23.5,"currency":"EUR","terms":null,"promotion":false,"contractTermMonths":0,"promotionCode":null},{"connectionType":"Mobile (4G/5G)","originalTitle":"Mobilais Internets","speed":null,"features":["4G un 5G bezvadu tehnoloģija;","bezmaksas iekārtas uz pakalpojuma lietošanas laiku;","neierobežots mobilo datu apjoms;","vienkārši uzstādīt un ērti paņemt līdzi."],"techInfo":null,"pricePerMonthEur":17.5,"currency":"EUR","terms":["Līgums uz 24 mēnešiem","Jauniem. 4G internets par 16.99 EUR ar 12 mēn. līg., 22-2/2022/818"],"promotion":true,"contractTermMonths":24,"promotionCode":"PROMO_4G_INTERNET_24M_818"}],"scrapedAt":"2025-08-30T17:48:23.638Z","source":"api"}
{"id":"node/9887776062","address":"Saules iela 10, Straupciems, Salas pag., Mārupes nov.","properties":{"addr:street":"Saules iela","addr:housenumber":"10","addr:city":"Straupciems","addr:postcode":"LV-2105","addr:subdistrict":"Salas pagasts","addr:district":"Mārupes novads","addr:country":"LV","ref:LV:addr":"105674334"},"geometry":{"type":"Point","coordinates":[23.652939,56.9277416]},"offers":[{"connectionType":"Mobile (4G/5G)","originalTitle":"Mobilais Internets","speed":null,"features":["4G un 5G bezvadu tehnoloģija;","bezmaksas iekārtas uz pakalpojuma lietošanas laiku;","neierobežots mobilo datu apjoms;","vienkārši uzstādīt un ērti paņemt līdzi."],"techInfo":null,"pricePerMonthEur":23.5,"currency":"EUR","terms":null,"promotion":false,"contractTermMonths":0,"promotionCode":null},{"connectionType":"Mobile (4G/5G)","originalTitle":"Mobilais Internets","speed":null,"features":["4G un 5G bezvadu tehnoloģija;","bezmaksas iekārtas uz pakalpojuma lietošanas laiku;","neierobežots mobilo datu apjoms;","vienkārši uzstādīt un ērti paņemt līdzi."],"techInfo":null,"pricePerMonthEur":17.5,"currency":"EUR","terms":["Līgums uz 24 mēnešiem","Jauniem. 4G internets par 16.99 EUR ar 12 mēn. līg., 22-2/2022/818"],"promotion":true,"contractTermMonths":24,"promotionCode":"PROMO_4G_INTERNET_24M_818"}],"scrapedAt":"2025-08-30T17:48:23.873Z","source":"api"}
{"id":"node/9887776064","address":"Saules iela 8, Straupciems, Salas pag., Mārupes nov.","properties":{"addr:street":"Saules iela","addr:housenumber":"8","addr:city":"Straupciems","addr:postcode":"LV-2105","addr:subdistrict":"Salas pagasts","addr:district":"Mārupes novads","addr:country":"LV","ref:LV:addr":"105674318"},"geometry":{"type":"Point","coordinates":[23.6539012,56.9276011]},"offers":[{"connectionType":"Mobile (4G/5G)","originalTitle":"Mobilais Internets","speed":null,"features":["4G un 5G bezvadu tehnoloģija;","bezmaksas iekārtas uz pakalpojuma lietošanas laiku;","neierobežots mobilo datu apjoms;","vienkārši uzstādīt un ērti paņemt līdzi."],"techInfo":null,"pricePerMonthEur":23.5,"currency":"EUR","terms":null,"promotion":false,"contractTermMonths":0,"promotionCode":null},{"connectionType":"Mobile (4G/5G)","originalTitle":"Mobilais Internets","speed":null,"features":["4G un 5G bezvadu tehnoloģija;","bezmaksas iekārtas uz pakalpojuma lietošanas laiku;","neierobežots mobilo datu apjoms;","vienkārši uzstādīt un ērti paņemt līdzi."],"techInfo":null,"pricePerMonthEur":17.5,"currency":"EUR","terms":["Līgums uz 24 mēnešiem","Jauniem. 4G internets par 16.99 EUR ar 12 mēn. līg., 22-2/2022/818"],"promotion":true,"contractTermMonths":24,"promotionCode":"PROMO_4G_INTERNET_24M_818"}],"scrapedAt":"2025-08-30T17:48:25.130Z","source":"api"}
{"id":"node/9887776065","address":"Saules iela 7, Straupciems, Salas pag., Mārupes nov.","properties":{"addr:street":"Saules iela","addr:housenumber":"7","addr:city":"Straupciems","addr:postcode":"LV-2105","addr:subdistrict":"Salas pagasts","addr:district":"Mārupes novads","addr:country":"LV","ref:LV:addr":"105674301"},"geometry":{"type":"Point","coordinates":[23.6538451,56.926591]},"offers":[{"connectionType":"Mobile (4G/5G)","originalTitle":"Mobilais Internets","speed":null,"features":["4G un 5G bezvadu tehnoloģija;","bezmaksas iekārtas uz pakalpojuma lietošanas laiku;","neierobežots mobilo datu apjoms;","vienkārši uzstādīt un ērti paņemt līdzi."],"techInfo":null,"pricePerMonthEur":23.5,"currency":"EUR","terms":null,"promotion":false,"contractTermMonths":0,"promotionCode":null},{"connectionType":"Mobile (4G/5G)","originalTitle":"Mobilais Internets","speed":null,"features":["4G un 5G bezvadu tehnoloģija;","bezmaksas iekārtas uz pakalpojuma lietošanas laiku;","neierobežots mobilo datu apjoms;","vienkārši uzstādīt un ērti paņemt līdzi."],"techInfo":null,"pricePerMonthEur":17.5,"currency":"EUR","terms":["Līgums uz 24 mēnešiem","Jauniem. 4G internets par 16.99 EUR ar 12 mēn. līg., 22-2/2022/818"],"promotion":true,"contractTermMonths":24,"promotionCode":"PROMO_4G_INTERNET_24M_818"}],"scrapedAt":"2025-08-30T17:48:25.415Z","source":"api"}
{"id":"node/9887776067","address":"Saules iela 5, Straupciems, Salas pag., Mārupes nov.","properties":{"addr:street":"Saules iela","addr:housenumber":"5","addr:city":"Straupciems","addr:postcode":"LV-2105","addr:subdistrict":"Salas pagasts","addr:district":"Mārupes novads","addr:country":"LV","ref:LV:addr":"105674287"},"geometry":{"type":"Point","coordinates":[23.6547625,56.9264037]},"offers":[{"connectionType":"Mobile (4G/5G)","originalTitle":"Mobilais Internets","speed":null,"features":["4G un 5G bezvadu tehnoloģija;","bezmaksas iekārtas uz pakalpojuma lietošanas laiku;","neierobežots mobilo datu apjoms;","vienkārši uzstādīt un ērti paņemt līdzi."],"techInfo":null,"pricePerMonthEur":23.5,"currency":"EUR","terms":null,"promotion":false,"contractTermMonths":0,"promotionCode":null},{"connectionType":"Mobile (4G/5G)","originalTitle":"Mobilais Internets","speed":null,"features":["4G un 5G bezvadu tehnoloģija;","bezmaksas iekārtas uz pakalpojuma lietošanas laiku;","neierobežots mobilo datu apjoms;","vienkārši uzstādīt un ērti paņemt līdzi."],"techInfo":null,"pricePerMonthEur":17.5,"currency":"EUR","terms":["Līgums uz 24 mēnešiem","Jauniem. 4G internets par 16.99 EUR ar 12 mēn. līg., 22-2/2022/818"],"promotion":true,"contractTermMonths":24,"promotionCode":"PROMO_4G_INTERNET_24M_818"}],"scrapedAt":"2025-08-30T17:48:25.664Z","source":"api"}
{"id":"node/9887776063","address":"Saules iela 9, Straupciems, Salas pag., Mārupes nov.","properties":{"addr:street":"Saules iela","addr:housenumber":"9","addr:city":"Straupciems","addr:postcode":"LV-2105","addr:subdistrict":"Salas pagasts","addr:district":"Mārupes novads","addr:country":"LV","ref:LV:addr":"105674326"},"geometry":{"type":"Point","coordinates":[23.6539232,56.9268499]},"offers":[{"connectionType":"Mobile (4G/5G)","originalTitle":"Mobilais Internets","speed":null,"features":["4G un 5G bezvadu tehnoloģija;","bezmaksas iekārtas uz pakalpojuma lietošanas laiku;","neierobežots mobilo datu apjoms;","vienkārši uzstādīt un ērti paņemt līdzi."],"techInfo":null,"pricePerMonthEur":23.5,"currency":"EUR","terms":null,"promotion":false,"contractTermMonths":0,"promotionCode":null},{"connectionType":"Mobile (4G/5G)","originalTitle":"Mobilais Internets","speed":null,"features":["4G un 5G bezvadu tehnoloģija;","bezmaksas iekārtas uz pakalpojuma lietošanas laiku;","neierobežots mobilo datu apjoms;","vienkārši uzstādīt un ērti paņemt līdzi."],"techInfo":null,"pricePerMonthEur":17.5,"currency":"EUR","terms":["Līgums uz 24 mēnešiem","Jauniem. 4G internets par 16.99 EUR ar 12 mēn. līg., 22-2/2022/818"],"promotion":true,"contractTermMonths":24,"promotionCode":"PROMO_4G_INTERNET_24M_818"}],"scrapedAt":"2025-08-30T17:48:25.663Z","source":"api"}
{"id":"node/9887776066","address":"Saules iela 6, Straupciems, Salas pag., Mārupes nov.","properties":{"addr:street":"Saules iela","addr:housenumber":"6","addr:city":"Straupciems","addr:postcode":"LV-2105","addr:subdistrict":"Salas pagasts","addr:district":"Mārupes novads","addr:country":"LV","ref:LV:addr":"105674295"},"geometry":{"type":"Point","coordinates":[23.6545666,56.9274599]},"offers":[{"connectionType":"Mobile (4G/5G)","originalTitle":"Mobilais Internets","speed":null,"features":["4G un 5G bezvadu tehnoloģija;","bezmaksas iekārtas uz pakalpojuma lietošanas laiku;","neierobežots mobilo datu apjoms;","vienkārši uzstādīt un ērti paņemt līdzi."],"techInfo":null,"pricePerMonthEur":23.5,"currency":"EUR","terms":null,"promotion":false,"contractTermMonths":0,"promotionCode":null},{"connectionType":"Mobile (4G/5G)","originalTitle":"Mobilais Internets","speed":null,"features":["4G un 5G bezvadu tehnoloģija;","bezmaksas iekārtas uz pakalpojuma lietošanas laiku;","neierobežots mobilo datu apjoms;","vienkārši uzstādīt un ērti paņemt līdzi."],"techInfo":null,"pricePerMonthEur":17.5,"currency":"EUR","terms":["Līgums uz 24 mēnešiem","Jauniem. 4G internets par 16.99 EUR ar 12 mēn. līg., 22-2/2022/818"],"promotion":true,"contractTermMonths":24,"promotionCode":"PROMO_4G_INTERNET_24M_818"}],"scrapedAt":"2025-08-30T17:48:25.665Z","source":"api"}
{"id":"node/9887776071","address":"Saules iela 1, Straupciems, Salas pag., Mārupes nov.","properties":{"addr:street":"Saules iela","addr:housenumber":"1","addr:city":"Straupciems","addr:postcode":"LV-2105","addr:subdistrict":"Salas pagasts","addr:district":"Mārupes novads","addr:country":"LV","ref:LV:addr":"105674246"},"geometry":{"type":"Point","coordinates":[23.6555359,56.9265489]},"offers":[{"connectionType":"Mobile (4G/5G)","originalTitle":"Mobilais Internets","speed":null,"features":["4G un 5G bezvadu tehnoloģija;","bezmaksas iekārtas uz pakalpojuma lietošanas laiku;","neierobežots mobilo datu apjoms;","vienkārši uzstādīt un ērti paņemt līdzi."],"techInfo":null,"pricePerMonthEur":23.5,"currency":"EUR","terms":null,"promotion":false,"contractTermMonths":0,"promotionCode":null},{"connectionType":"Mobile (4G/5G)","originalTitle":"Mobilais Internets","speed":null,"features":["4G un 5G bezvadu tehnoloģija;","bezmaksas iekārtas uz pakalpojuma lietošanas laiku;","neierobežots mobilo datu apjoms;","vienkārši uzstādīt un ērti paņemt līdzi."],"techInfo":null,"pricePerMonthEur":17.5,"currency":"EUR","terms":["Līgums uz 24 mēnešiem","Jauniem. 4G internets par 16.99 EUR ar 12 mēn. līg., 22-2/2022/818"],"promotion":true,"contractTermMonths":24,"promotionCode":"PROMO_4G_INTERNET_24M_818"}],"scrapedAt":"2025-08-30T17:48:27.412Z","source":"api"}
{"id":"node/9887776070","address":"Saules iela 2, Straupciems, Salas pag., Mārupes nov.","properties":{"addr:street":"Saules iela","addr:housenumber":"2","addr:city":"Straupciems","addr:postcode":"LV-2105","addr:subdistrict":"Salas pagasts","addr:district":"Mārupes novads","addr:country":"LV","ref:LV:addr":"105674254"},"geometry":{"type":"Point","coordinates":[23.6557852,56.9273421]},"offers":[{"connectionType":"Mobile (4G/5G)","originalTitle":"Mobilais Internets","speed":null,"features":["4G un 5G bezvadu tehnoloģija;","bezmaksas iekārtas uz pakalpojuma lietošanas laiku;","neierobežots mobilo datu apjoms;","vienkārši uzstādīt un ērti paņemt līdzi."],"techInfo":null,"pricePerMonthEur":23.5,"currency":"EUR","terms":null,"promotion":false,"contractTermMonths":0,"promotionCode":null},{"connectionType":"Mobile (4G/5G)","originalTitle":"Mobilais Internets","speed":null,"features":["4G un 5G bezvadu tehnoloģija;","bezmaksas iekārtas uz pakalpojuma lietošanas laiku;","neierobežots mobilo datu apjoms;","vienkārši uzstādīt un ērti paņemt līdzi."],"techInfo":null,"pricePerMonthEur":17.5,"currency":"EUR","terms":["Līgums uz 24 mēnešiem","Jauniem. 4G internets par 16.99 EUR ar 12 mēn. līg., 22-2/2022/818"],"promotion":true,"contractTermMonths":24,"promotionCode":"PROMO_4G_INTERNET_24M_818"}],"scrapedAt":"2025-08-30T17:48:27.625Z","source":"api"}
{"id":"node/9887776072","address":"Saules iela 19, Straupciems, Salas pag., Mārupes nov.","properties":{"addr:street":"Saules iela","addr:housenumber":"19","addr:city":"Straupciems","addr:postcode":"LV-2105","addr:subdistrict":"Salas pagasts","addr:district":"Mārupes novads","addr:country":"LV","ref:LV:addr":"105674414"},"geometry":{"type":"Point","coordinates":[23.6502476,56.9277148]},"offers":[{"connectionType":"Mobile (4G/5G)","originalTitle":"Mobilais Internets","speed":null,"features":["4G un 5G bezvadu tehnoloģija;","bezmaksas iekārtas uz pakalpojuma lietošanas laiku;","neierobežots mobilo datu apjoms;","vienkārši uzstādīt un ērti paņemt līdzi."],"techInfo":null,"pricePerMonthEur":23.5,"currency":"EUR","terms":null,"promotion":false,"contractTermMonths":0,"promotionCode":null},{"connectionType":"Mobile (4G/5G)","originalTitle":"Mobilais Internets","speed":null,"features":["4G un 5G bezvadu tehnoloģija;","bezmaksas iekārtas uz pakalpojuma lietošanas laiku;","neierobežots mobilo datu apjoms;","vienkārši uzstādīt un ērti paņemt līdzi."],"techInfo":null,"pricePerMonthEur":17.5,"currency":"EUR","terms":["Līgums uz 24 mēnešiem","Jauniem. 4G internets par 16.99 EUR ar 12 mēn. līg., 22-2/2022/818"],"promotion":true,"contractTermMonths":24,"promotionCode":"PROMO_4G_INTERNET_24M_818"}],"scrapedAt":"2025-08-30T17:48:27.625Z","source":"api"}
{"id":"node/9887776069","address":"Saules iela 3, Straupciems, Salas pag., Mārupes nov.","properties":{"addr:street":"Saules iela","addr:housenumber":"3","addr:city":"Straupciems","addr:postcode":"LV-2105","addr:subdistrict":"Salas pagasts","addr:district":"Mārupes novads","addr:country":"LV","ref:LV:addr":"105674262"},"geometry":{"type":"Point","coordinates":[23.654936,56.9266904]},"offers":[{"connectionType":"Mobile (4G/5G)","originalTitle":"Mobilais Internets","speed":null,"features":["4G un 5G bezvadu tehnoloģija;","bezmaksas iekārtas uz pakalpojuma lietošanas laiku;","neierobežots mobilo datu apjoms;","vienkārši uzstādīt un ērti paņemt līdzi."],"techInfo":null,"pricePerMonthEur":23.5,"currency":"EUR","terms":null,"promotion":false,"contractTermMonths":0,"promotionCode":null},{"connectionType":"Mobile (4G/5G)","originalTitle":"Mobilais Internets","speed":null,"features":["4G un 5G bezvadu tehnoloģija;","bezmaksas iekārtas uz pakalpojuma lietošanas laiku;","neierobežots mobilo datu apjoms;","vienkārši uzstādīt un ērti paņemt līdzi."],"techInfo":null,"pricePerMonthEur":17.5,"currency":"EUR","terms":["Līgums uz 24 mēnešiem","Jauniem. 4G internets par 16.99 EUR ar 12 mēn. līg., 22-2/2022/818"],"promotion":true,"contractTermMonths":24,"promotionCode":"PROMO_4G_INTERNET_24M_818"}],"scrapedAt":"2025-08-30T17:48:27.624Z","source":"api"}
{"id":"node/9887776068","address":"Saules iela 4, Straupciems, Salas pag., Mārupes nov.","properties":{"addr:street":"Saules iela","addr:housenumber":"4","addr:city":"Straupciems","addr:postcode":"LV-2105","addr:subdistrict":"Salas pagasts","addr:district":"Mārupes novads","addr:country":"LV","ref:LV:addr":"105674270"},"geometry":{"type":"Point","coordinates":[23.6551407,56.9273982]},"offers":[{"connectionType":"Mobile (4G/5G)","originalTitle":"Mobilais Internets","speed":null,"features":["4G un 5G bezvadu tehnoloģija;","bezmaksas iekārtas uz pakalpojuma lietošanas laiku;","neierobežots mobilo datu apjoms;","vienkārši uzstādīt un ērti paņemt līdzi."],"techInfo":null,"pricePerMonthEur":23.5,"currency":"EUR","terms":null,"promotion":false,"contractTermMonths":0,"promotionCode":null},{"connectionType":"Mobile (4G/5G)","originalTitle":"Mobilais Internets","speed":null,"features":["4G un 5G bezvadu tehnoloģija;","bezmaksas iekārtas uz pakalpojuma lietošanas laiku;","neierobežots mobilo datu apjoms;","vienkārši uzstādīt un ērti paņemt līdzi."],"techInfo":null,"pricePerMonthEur":17.5,"currency":"EUR","terms":["Līgums uz 24 mēnešiem","Jauniem. 4G internets par 16.99 EUR ar 12 mēn. līg., 22-2/2022/818"],"promotion":true,"contractTermMonths":24,"promotionCode":"PROMO_4G_INTERNET_24M_818"}],"scrapedAt":"2025-08-30T17:48:28.086Z","source":"api"}
{"id":"node/9887776073","address":"Saules iela 17, Straupciems, Salas pag., Mārupes nov.","properties":{"addr:street":"Saules iela","addr:housenumber":"17","addr:city":"Straupciems","addr:postcode":"LV-2105","addr:subdistrict":"Salas pagasts","addr:district":"Mārupes novads","addr:country":"LV","ref:LV:addr":"105674406"},"geometry":{"type":"Point","coordinates":[23.6500458,56.9283031]},"offers":[{"connectionType":"Mobile (4G/5G)","originalTitle":"Mobilais Internets","speed":null,"features":["4G un 5G bezvadu tehnoloģija;","bezmaksas iekārtas uz pakalpojuma lietošanas laiku;","neierobežots mobilo datu apjoms;","vienkārši uzstādīt un ērti paņemt līdzi."],"techInfo":null,"pricePerMonthEur":23.5,"currency":"EUR","terms":null,"promotion":false,"contractTermMonths":0,"promotionCode":null},{"connectionType":"Mobile (4G/5G)","originalTitle":"Mobilais Internets","speed":null,"features":["4G un 5G bezvadu tehnoloģija;","bezmaksas iekārtas uz pakalpojuma lietošanas laiku;","neierobežots mobilo datu apjoms;","vienkārši uzstādīt un ērti paņemt līdzi."],"techInfo":null,"pricePerMonthEur":17.5,"currency":"EUR","terms":["Līgums uz 24 mēnešiem","Jauniem. 4G internets par 16.99 EUR ar 12 mēn. līg., 22-2/2022/818"],"promotion":true,"contractTermMonths":24,"promotionCode":"PROMO_4G_INTERNET_24M_818"}],"scrapedAt":"2025-08-30T17:48:30.981Z","source":"api"}
